Id,country,region,city,postalCode,latitude,longitude,metroCode,areaCode
1,IN,,,,20,77,,
2,IN,10,Haryana,,29.6161,76.9806,,
3,IN,16,Vani,,20.3333,73.8833,,
4,IN,19,Bangalore,,12.9833,77.5833,,
5,IN,2,Hyderabad,,17.3753,78.4744,,
6,IN,16,Pune,,18.5333,73.8667,,
7,IN,24,Jaipur,,26.9167,75.8167,,
8,IN,16,Bombay,,18.975,72.8258,,
9,IN,13,Cochin,,9.9667,76.2333,,
10,IN,10,Gurgaon,,28.4667,77.0333,,
11,IN,7,New Delhi,,28.6,77.2,,
12,IN,7,Delhi,,28.6667,77.2167,,
13,IN,13,Trivandrum,,8.5069,76.9569,,
14,IN,13,Manjeri,,11.1167,76.1167,,
15,IN,25,Chennai,,13.0833,80.2833,,
16,IN,25,Sivakasi,,9.45,77.8167,,
17,IN,34,Jayanagar,,26.5833,86.15,,
18,IN,16,Thane,,19.2,72.9667,,
19,IN,35,Indore,,22.7167,75.8333,,
20,IN,28,Calcutta,,22.5697,88.3697,,
21,IN,16,Amalner,,21.05,75.0667,,
22,IN,5,Chandigarh,,30.7343,76.7933,,
23,IN,24,Nagar,,27.4333,77.1,,
24,IN,23,Jalandhar,,31.3256,75.5792,,
25,IN,13,Calicut,,11.25,75.7667,,
26,IN,16,Nagpur,,21.15,79.1,,
27,IN,2,Secunderabad,,17.45,78.5,,
28,IN,16,Andheri,,19.1167,72.8333,,
29,IN,9,Surat,,20.9667,72.9,,
30,IN,16,Ulhasnagar,,19.2167,73.15,,
31,IN,36,Ghaziabad,,28.6667,77.4333,,
32,IN,28,Kolkata,,22.5697,88.3697,,
33,IN,25,West Mambalam,,13.0389,80.2258,,
34,IN,13,Ernakulam,,9.9833,76.2833,,
35,IN,7,Dehli,,28.6667,77.2167,,
36,IN,35,Rama,,22.7667,74.7,,
37,IN,9,Ahmedabad,,23.0333,72.6167,,
38,IN,11,Bhawan,,32.1,76.2667,,
39,IN,16,Bandra,,19.05,72.8333,,
40,IN,25,Hosur,,12.7167,77.8167,,
41,IN,25,Pallavaram,,12.9761,80.1836,,
42,IN,35,Bagh,,22.3667,74.7667,,
43,IN,9,Bharat,,24.3333,72.2333,,
44,IN,36,Agra,,27.1833,78.0167,,
45,IN,2,Visakhapatnam,,17.7,83.3,,
46,IN,10,Faridabad,,28.4333,77.3167,,
47,IN,28,Bazar,,27.1,88.45,,
48,IN,25,Manali,,13.1667,80.2667,,
49,IN,19,Yelahanka,,13.1075,77.6003,,
50,IN,35,Sarai,,24.5333,77.1833,,
51,IN,39,Chopra,,29.81,78.59,,
52,IN,11,Kumar,,33.0333,76.45,,
53,IN,9,Anand,,22.5667,72.9333,,
54,IN,35,Jabalpur,,23.1667,79.95,,
55,IN,9,Vadodara,,22.3,73.2,,
56,IN,16,Mohali,,30.78,76.69,,
57,IN,9,Basu,,24.0667,72.3167,,
58,IN,25,Coimbatore,,10.9925,76.9614,,
59,IN,12,Shar,,34.0167,75,,
60,IN,19,Gokak,,16.1667,74.8333,,
61,IN,36,Mohan,,26.7833,80.65,,
62,IN,11,Hari,,31.55,76.6333,,
63,IN,12,Raju,,33.1583,74.2667,,
64,IN,36,Sahibabad,,28.6833,77.4,,
65,IN,11,Shimla,,31.1033,77.1722,,
66,IN,2,Tirupati,,13.65,79.4167,,
67,IN,19,Manipal,,13.35,74.7833,,
68,IN,13,Thiruvananthapuram,,8.5069,76.9569,,
69,IN,28,Chandra,,22.4667,87.15,,
70,IN,16,Pande,,18.3833,75.2333,,
71,IN,24,Lamba,,26.3,75.1667,,
72,IN,35,Dhar,,22.6,75.3,,
73,IN,16,Kalyan,,19.25,73.15,,
74,IN,19,Mangalore,,12.8639,74.8353,,
75,IN,19,Chickmagalur,,13.3167,75.7833,,
76,IN,37,Lanka,,19.2333,80.7667,,
77,IN,9,Somnath,,20.8833,70.3667,,
78,IN,19,Vittal,,12.7667,75.0833,,
79,IN,16,Juhu,,19.1,72.8167,,
80,IN,16,Parel,,19,72.8333,,
81,IN,16,Colaba,,18.9069,72.8106,,
82,IN,16,Worli,,19.0167,72.8167,,
83,IN,25,Erode,,11.35,77.7333,,
84,IN,19,Shimogga,,13.9222,75.5736,,
85,IN,12,Patel,,32.9847,74.8583,,
86,IN,12,Bala,,32.9778,74.7514,,
87,IN,19,Mysore,,12.3072,76.6497,,
88,IN,36,Lucknow,,26.85,80.9167,,
89,IN,23,Landran,,30.7,76.6667,,
90,IN,23,Ropar,,30.9664,76.5331,,
91,IN,9,Gandhinagar,,23.2167,72.6833,,
92,IN,25,Madurai,,9.9333,78.1167,,
93,IN,3,Bhandari,,26.2833,94.15,,
94,IN,16,Abdul,,19.6667,76.8833,,
95,IN,28,Sahara,,22.29,88.1353,,
96,IN,38,Anjan,,23.1333,84.4833,,
97,IN,2,Krishna,,16.1667,81.1333,,
98,IN,39,Badrinath,,30.7333,79.4833,,
99,IN,13,Vazhakulam,,9.95,76.65,,
100,IN,13,Kottayam,,9.5833,76.5167,,
101,IN,12,Mano,,33.0167,76.0167,,
102,IN,9,Bhat,,22.4167,73.6167,,
103,IN,10,Sanghi,,29.0167,76.6167,,
104,IN,16,Kusumba,,20.9167,74.65,,
105,IN,35,Bain,,22.4167,76.7,,
106,IN,28,Mahesh,,22.7333,88.35,,
107,IN,25,Trichy,,10.805,78.6856,,
108,IN,19,Sangam,,16.2,76.05,,
109,IN,16,Vile Parle,,19.1,72.8333,,
110,IN,16,Jogeshwari,,19.8167,75.2,,
111,IN,30,Shakti,,27.6167,91.7167,,
112,IN,35,Sagar,,23.8333,78.7167,,
113,IN,21,Jagannath,,19.8,85.85,,
114,IN,9,Sarla,,22.7167,71.3667,,
115,IN,10,Kasan,,28.3667,76.9,,
116,IN,16,Shirdi,,19.7667,74.4833,,
117,IN,25,Navalur,,12.8394,80.2267,,
118,IN,11,Mani,,32.0167,78.25,,
119,IN,24,Udaipur,,27.7167,75.4833,,
120,IN,9,Ankleshwar,,21.6,73,,
121,IN,16,Chinchwad,,18.6167,73.7833,,
122,IN,35,Bhopal,,23.2667,77.4,,
123,IN,36,Varanasi,,25.3333,83,,
124,IN,2,Vizag,,17.7,83.3,,
125,IN,2,Vijayawada,,16.5167,80.6167,,
126,IN,35,Baroda,,25.5,76.65,,
127,IN,28,Salt Lake City,,22.5833,88.4167,,
128,IN,9,Dwarka,,22.2394,68.9678,,
129,IN,36,Dadri,,28.5667,77.55,,
130,IN,19,Agni,,16.5667,76.4667,,
131,IN,35,Soni,,26.5247,78.5586,,
132,IN,11,Kalka,,30.8344,76.9333,,
133,IN,28,Multi,,22.2886,88.4225,,
134,IN,7,Mehrauli,,28.5167,77.1833,,
135,IN,7,Kalkaji,,28.55,77.2667,,
136,IN,12,Santnagar,,34.0375,74.8,,
137,IN,16,Miri,,19.2833,74.9667,,
138,IN,3,Powai,,27.35,95.65,,
139,IN,16,Karnala,,18.8667,73.1,,
140,IN,34,Pusa,,25.9833,85.6833,,
141,IN,24,Mandal,,25.45,74.5667,,
142,IN,12,Sial,,33.0806,74.3222,,
143,IN,24,Surana,,25.25,72.1333,,
144,IN,9,Sachin,,21.0833,72.8833,,
145,IN,39,Haldwani,,29.2167,79.5167,,
146,IN,16,Wardha,,20.75,78.6167,,
147,IN,16,Solapur,,17.6833,75.9167,,
148,IN,25,Madras,,13.0833,80.2833,,
149,IN,10,Saha,,30.3097,76.975,,
150,IN,39,Mussoorie,,30.45,78.0833,,
151,IN,22,Pondicherry,,11.93,79.83,,
152,IN,33,Panjim,,15.4833,73.8333,,
153,IN,3,Guwahati,,26.1833,91.7333,,
154,IN,12,Jammu,,32.7333,74.8667,,
155,IN,2,Andra,,18.35,83.2,,
156,IN,25,Karur,,10.95,78.0833,,
157,IN,19,Belgaum,,15.8667,74.5,,
158,IN,19,Hubli,,15.35,75.1667,,
159,IN,9,Dama,,24.2833,72.0833,,
160,IN,1,Port Blair,,11.6667,92.75,,
161,IN,3,Tezpur,,26.6333,92.8,,
162,IN,28,Suri,,23.9167,87.5333,,
163,IN,36,Kanpur,,26.4667,80.35,,
164,IN,13,Alwaye,,10.1092,76.3644,,
165,IN,19,Mansur,,15.4,74.9667,,
166,IN,10,Ganga,,29.7833,74.6833,,
167,IN,24,Chhabra,,24.6667,76.8333,,
168,IN,36,Meerut,,28.9833,77.7,,
169,IN,2,Nellore,,14.4333,79.9667,,
170,IN,25,Neyveli,,11.5333,79.4833,,
171,IN,19,Venur,,13.0167,75.1333,,
172,IN,28,Howrah,,22.5892,88.3103,,
173,IN,16,Aurangabad,,19.8833,75.3333,,
174,IN,10,Hisar,,29.1667,75.7167,,
175,IN,35,Gwalior,,26.2236,78.1792,,
176,IN,25,Tirunelveli,,8.7333,77.7,,
177,IN,19,Tumkur,,13.3422,77.1017,,
178,IN,16,Sinnar,,19.85,74,,
179,IN,18,Shillong,,25.5756,91.8731,,
180,IN,33,Curchorem,,15.25,74.1,,
181,IN,16,Ahmednagar,,19.0833,74.7333,,
182,IN,25,Thanjavur,,10.8,79.15,,
183,IN,16,Chandrapur,,19.95,79.3,,
184,IN,35,Chand,,21.95,79.1167,,
185,IN,36,Mathura,,27.5,77.6833,,
186,IN,39,Almora,,29.6167,79.6667,,
187,IN,12,Srinagar,,34.0922,74.8022,,
188,IN,10,Sonepat,,28.9833,77.0167,,
189,IN,10,Rewari,,28.1833,76.6167,,
190,IN,16,Akola,,20.7333,77,,
191,IN,16,Jalna,,19.8333,75.8833,,
192,IN,21,Koraput,,18.8167,82.7167,,
193,IN,28,Kalyani,,22.9833,88.4833,,
194,IN,19,Hassan,,13.0006,76.0994,,
195,IN,16,Khopoli,,18.7833,73.3333,,
196,IN,38,Ranchi,,23.35,85.3333,,
197,IN,13,Palakkad,,10.7725,76.6514,,
198,IN,23,Ludhiana,,30.9,75.85,,
199,IN,16,Satara,,17.6833,73.9833,,
200,IN,19,Mandya,,12.5242,76.8958,,
201,IN,13,Trichur,,10.5167,76.2167,,
202,IN,16,Purna,,19.1833,77.05,,
203,IN,12,Chakra,,32.5792,74.9,,
204,IN,12,Suman,,33.8139,74.35,,
205,IN,16,Paras,,20.7167,76.8167,,
206,IN,2,Nirmal,,19.1,78.35,,
207,IN,2,Guntur,,16.3,80.45,,
208,IN,2,Proddatur,,14.7333,78.55,,
209,IN,7,Alipur,,28.8,77.15,,
210,IN,9,Rajkot,,22.3,70.7833,,
211,IN,23,Sangrur,,30.2333,75.8333,,
212,IN,36,Kantha,,26.5833,80.75,,
213,IN,11,Koti,,32.3167,77.2,,
214,IN,37,Sarda,,22.25,83.8167,,
215,IN,25,Nagercoil,,8.1939,77.4314,,
216,IN,12,Gali,,33.8389,74.3542,,
217,IN,9,Jamnagar,,22.4667,70.0667,,
218,IN,11,Shil,,31.2369,77.0983,,
219,IN,12,Khan,,34.1903,74.7528,,
220,IN,21,Bhubaneswar,,20.2333,85.8333,,
221,IN,38,Mandar,,23.4667,85.0833,,
222,IN,23,Rajpura,,30.4831,76.595,,
223,IN,23,Patiala,,30.3267,76.4003,,
224,IN,23,Kapurthala,,31.3794,75.3847,,
225,IN,23,Morinda,,30.7919,76.4964,,
226,IN,23,Amritsar,,31.6331,74.8656,,
227,IN,23,Hoshiarpur,,31.5322,75.9172,,
228,IN,23,Phagwara,,31.2178,75.7694,,
229,IN,23,Bhatinda,,30.2,74.95,,
230,IN,24,Meghana,,28.9858,74.8381,,
231,IN,13,Tiruvalla,,9.3833,76.5667,,
232,IN,23,Moga,,30.8,75.1667,,
233,IN,12,Karan,,33.2167,74.1167,,
234,IN,23,Khanna,,30.7044,76.2231,,
235,IN,12,Bawan,,33.7667,75.2167,,
236,IN,19,Kunnur,,16.55,74.4167,,
237,IN,13,Kollam,,8.8806,76.5917,,
238,IN,26,Agartala,,23.8364,91.275,,
239,IN,28,Kharagpur,,22.3333,87.3333,,
240,IN,36,Aligarh,,27.8833,78.0833,,
241,IN,16,Amravati,,20.9333,77.75,,
242,IN,2,Vishakhapatnam,,17.7,83.3,,
243,IN,9,Maliya,,21.1597,70.3,,
244,IN,13,Paravoor,,8.7833,76.7,,
245,IN,3,Arunachal,,24.8667,92.7667,,
246,IN,3,Silchar,,24.8167,92.8,,
247,IN,35,Rewa,,24.5333,81.3,,
248,IN,9,Bhavnagar,,21.7667,72.15,,
249,IN,28,Burdwan,,23.2406,87.8694,,
250,IN,36,Faizabad,,26.7833,82.1333,,
251,IN,36,Khairagarh,,26.95,77.8167,,
252,IN,34,Darbhanga,,26.1667,85.9,,
253,IN,25,Tiruchirappalli,,10.805,78.6856,,
254,IN,21,Berhampur,,19.3167,84.7833,,
255,IN,24,Pilani,,28.3684,75.6041,,
256,IN,36,Jhansi,,25.4333,78.5833,,
257,IN,16,Charan,,17.0667,73.9667,,
258,IN,24,Gandhigram,,25.8281,75.5708,,
259,IN,19,Gulbarga,,17.3333,76.8333,,
260,IN,37,Bilaspur,,22.0833,82.15,,
261,IN,11,Kangri,,31.2281,77.1122,,
262,IN,39,Garhwal,,29.8,78.6167,,
263,IN,2,Warangal,,18,79.5833,,
264,IN,19,Dharwad,,15.4667,75.0167,,
265,IN,17,Imphal,,24.8167,93.95,,
266,IN,28,Katwa,,23.65,88.1333,,
267,IN,13,Thrissur,,10.5167,76.2167,,
268,IN,39,Jamal,,29.8994,78.5442,,
269,IN,12,Arch,,34.2458,74.7764,,
270,IN,2,Gangaram,,17.1575,78.4275,,
271,IN,10,Karnal,,29.6833,76.9833,,
272,IN,36,Shahi,,28.55,79.3167,,
273,IN,29,Manu,,27.5167,88.5833,,
274,IN,24,Bhilwara,,25.35,74.6333,,
275,IN,13,Aluva,,10.1092,76.3644,,
276,IN,2,Nagaram,,17.1842,78.3897,,
277,IN,24,Nanda,,25.3336,75.745,,
278,IN,23,Talwandi,,29.9833,75.0833,,
279,IN,23,Kharar,,30.7444,76.6478,,
280,IN,16,Malegaon,,20.55,74.5333,,
281,IN,24,Shiv,,26.1833,71.25,,
282,IN,39,Dwarahat,,29.7833,79.4333,,
283,IN,16,Kolhapur,,16.7,74.2167,,
284,IN,9,Bharuch,,21.7,72.9667,,
285,IN,37,Raipur,,21.2333,81.6333,,
286,IN,11,Solan,,30.9167,77.1167,,
287,IN,23,Faridkot,,30.6667,74.75,,
288,IN,19,Ramanagaram,,12.7167,77.3,,
289,IN,9,Mithapur,,22.6333,72.1333,,
290,IN,16,Nagaon,,17.4667,73.6167,,
291,IN,39,Hardwar,,29.9667,78.1667,,
292,IN,25,Sivaganga,,9.8667,78.4833,,
293,IN,10,Sirsa,,29.5333,75.0167,,
294,IN,29,Gangtok,,27.3333,88.6167,,
295,IN,25,Pudukkottai,,10.3833,78.8167,,
296,IN,13,Kannur,,11.8667,75.3653,,
297,IN,28,Midnapore,,22.4333,87.3333,,
298,IN,13,Kochi,,9.9667,76.2333,,
299,IN,13,Idukki,,9.85,76.9667,,
300,IN,16,Ratnagiri,,16.9833,73.3,,
301,IN,37,Kanika,,21.8833,83.7333,,
302,IN,36,Hardoi,,27.1167,80.15,,
303,IN,2,Annasagar,,17.8447,78.7914,,
304,IN,36,Banda,,25.4833,80.3333,,
305,IN,24,Barmer,,25.75,71.3833,,
306,IN,3,Golaghat,,26.5167,93.9667,,
307,IN,33,Margão,,15.3,73.95,,
308,IN,19,Kengeri,,12.9,77.4833,,
309,IN,34,Arai,,24.9333,85.3167,,
310,IN,30,Zero,,27.6333,93.8333,,
311,IN,33,Vasco Da Gama,,15.4,73.8333,,
312,IN,2,Tirumala,,13.6833,79.35,,
313,IN,35,Khargone,,21.8167,75.6,,
314,IN,36,Allahabad,,25.45,81.85,,
315,IN,9,Gandhidham,,23.0833,70.1333,,
316,IN,24,Nimbahera,,24.6167,74.6833,,
317,IN,19,Raichur,,16.2,77.3667,,
318,IN,35,Raisen,,23.3333,77.8,,
319,IN,11,Arki,,31.15,76.9667,,
320,IN,39,Jwalapur,,29.9333,78.1167,,
321,IN,13,Pathanamthitta,,9.2667,76.7833,,
322,IN,16,Tarapur,,19.85,72.7,,
323,IN,37,Champa,,22.05,82.65,,
324,IN,35,Ujjain,,23.1833,75.7667,,
325,IN,35,Dindori,,22.95,81.0833,,
326,IN,16,Panvel,,18.9833,73.1,,
327,IN,9,Palanpur,,24.1667,72.4333,,
328,IN,12,Kanna,,32.7486,74.9667,,
329,IN,32,Vapi,,20.3667,72.9,,
330,IN,35,Sanjit,,24.3,75.3,,
331,IN,37,Bhilai,,21.2167,81.4333,,
332,IN,21,Dhenkanal,,20.6667,85.6,,
333,IN,28,Durgapur,,23.4833,87.3167,,
334,IN,24,Chetan,,25.5431,75.5658,,
335,IN,10,Jind,,29.3167,76.3167,,
336,IN,24,Sikar,,27.6167,75.15,,
337,IN,10,Ambala,,30.3783,76.7808,,
338,IN,11,Palampur,,32.1167,76.5333,,
339,IN,25,Tiruvannamalai,,12.2167,79.0667,,
340,IN,39,Tehri,,30.3833,78.4833,,
341,IN,25,Chengalpattu,,12.7,79.9833,,
342,IN,25,Vellore,,12.9333,79.1333,,
343,IN,28,Haldia,,22.0253,88.0583,,
344,IN,25,Salem,,11.65,78.1667,,
345,IN,23,Pathankot,,32.2833,75.65,,
346,IN,19,Hospet,,15.2667,76.4,,
347,IN,24,Bali,,25.1833,73.2833,,
348,IN,9,Bedi,,22.5,70.05,,
349,IN,19,Bagalkot,,16.1833,75.7,,
350,IN,25,Tiruvallur,,13.15,79.9167,,
351,IN,2,Yanam,,16.7333,82.2167,,
352,IN,39,Pantnagar,,29.05,79.5167,,
353,IN,16,Jalgaon,,21.0486,76.5344,,
354,IN,28,Bishnupur,,22.3833,88.2667,,
355,IN,39,Sama,,29.9833,80.0333,,
356,IN,21,Manesar,,21.4167,84.0333,,
357,IN,16,Munnar,,19.75,72.9167,,
358,IN,3,Jorhat,,26.75,94.2167,,
359,IN,9,Mandvi,,21.25,73.3,,
360,IN,2,Karimnagar,,18.4333,79.15,,
361,IN,28,Gujrat,,22.4142,88.0167,,
362,IN,34,Patna,,25.6,85.1167,,
363,IN,22,Pondichéry,,11.93,79.83,,
364,IN,21,Sambalpur,,21.45,83.9667,,
365,IN,25,Dindigul,,10.35,77.95,,
366,IN,19,Bellary,,15.15,76.9333,,
367,IN,24,Alwar,,27.5667,76.6,,
368,IN,33,Panaji,,15.4833,73.8333,,
369,IN,16,Latur,,18.4,76.5833,,
370,IN,19,Grama,,12.9817,76.2178,,
371,IN,2,Anantapur,,14.6833,77.6,,
372,IN,10,Bhiwani,,28.7833,76.1333,,
373,IN,39,Barkot,,30.8167,78.2,,
374,IN,39,Pithoragarh,,29.5833,80.2167,,
375,IN,21,Rayagada,,19.1667,83.4167,,
376,IN,34,Bihar,,25.1833,85.5167,,
377,IN,28,Rudrapur,,22.6303,88.1753,,
378,IN,33,Tivim,,15.6,73.8333,,
379,IN,18,Pala,,25.4167,92.5667,,
380,IN,38,Jamshedpur,,22.8,86.1833,,
381,IN,13,Alleppey,,9.4942,76.3275,,
382,IN,36,Bareilly,,28.35,79.4167,,
383,IN,9,Vallabh,,22.5333,72.9,,
384,IN,16,Nasik,,19.9833,73.8,,
385,IN,34,Kumari,,25.65,87.7167,,
386,IN,11,Kaja,,32.2333,78.0667,,
387,IN,34,Sarma,,25.0833,86.1,,
388,IN,16,Malad,,19.1833,72.8333,,
389,IN,10,Rohtak,,28.9,76.5667,,
390,IN,24,Jodhpur,,26.2867,73.03,,
391,IN,38,Sarath,,24.2333,86.8333,,
392,IN,11,Mandi,,31.7167,76.9167,,
393,IN,13,Kasaragod,,12.5,75,,
394,IN,36,Sikka,,29.5058,77.3658,,
395,IN,16,Koregaon,,18.65,74.0833,,
396,IN,25,Tuticorin,,8.7833,78.1333,,
397,IN,25,Ambattur,,13.0767,80.0886,,
398,IN,25,Ranipet,,12.9333,79.3333,,
399,IN,21,Kalinga,,20.1667,84.4167,,
400,IN,12,Morgan,,33.7583,74.2528,,
401,IN,25,Madura,,9.9333,78.1167,,
402,IN,36,Dubai,,27.65,78.2833,,
403,IN,9,Sika,,22.4333,69.8333,,
404,IN,28,Bally,,22.6461,88.3403,,
405,IN,11,Mashobra,,31.1333,77.2333,,
406,IN,11,Khar,,32.0333,78.0667,,
407,IN,2,Paralakhemundi,,18.7833,84.1,,
408,IN,25,Kaniyambadi,,12.8167,79.15,,
409,IN,24,Bikaner,,28.0167,73.3,,
410,IN,35,Guna,,24.65,77.3167,,
411,IN,2,Hindupur,,13.8289,77.4933,,
412,IN,25,Cuddalore,,11.75,79.75,,
413,IN,25,Ooty,,11.4,76.7,,
414,IN,25,Kanyakumari,,8.0761,77.5483,,
415,IN,12,Lalu,,34.6167,76.3167,,
416,IN,19,Karkala,,13.2,74.9833,,
417,IN,19,Udupi,,13.35,74.75,,
418,IN,2,Mahal,,13.7833,78.7667,,
419,IN,28,Alipore,,22.5303,88.3342,,
420,IN,28,Nadia,,23.4167,88.3667,,
421,IN,28,Agarpara,,22.6833,88.3667,,
422,IN,28,Bankura,,23.25,87.0667,,
423,IN,28,Jayanti,,26.7,89.6,,
424,IN,9,Disa,,24.25,72.1667,,
425,IN,9,Sami,,23.6833,71.7833,,
426,IN,35,Shivpuri,,25.4333,77.65,,
427,IN,35,Morena,,26.4969,78,,
428,IN,35,Bhind,,26.5642,78.7883,,
429,IN,10,Murthal,,29.0333,77.0833,,
430,IN,33,Dona Paula,,15.45,73.8,,
431,IN,35,Barauni,,25.6833,78.3833,,
432,IN,24,Rani,,25.3667,73.3,,
433,IN,23,Ferozepur,,30.9167,74.6,,
434,IN,36,Hamirpur,,25.95,80.15,,
435,IN,11,Nahan,,30.55,77.3,,
436,IN,36,Aliganj,,27.5,79.1833,,
437,IN,25,Fort,,10.8333,78.7,,
438,IN,36,Moradabad,,28.8333,78.7833,,
439,IN,39,Roorkee,,29.8667,77.8833,,
440,IN,28,Rajpur,,22.4125,88.4181,,
441,IN,10,Panipat,,29.3889,76.9681,,
442,IN,10,Yamunanagar,,30.1,77.2833,,
443,IN,24,Kota,,25.1833,75.8333,,
444,IN,9,Mehsana,,23.6,72.4,,
445,IN,9,Vallabh Vidyanagar,,22.5333,72.9,,
446,IN,9,Himatnagar,,23.6,72.95,,
447,IN,9,Karamsad,,22.55,72.9,,
448,IN,9,Junagadh,,21.5167,70.4667,,
449,IN,35,Chhatarpur,,24.9,79.6,,
450,IN,35,Chhindwara,,22.0667,78.9333,,
451,IN,35,Narsinghpur,,22.95,79.2,,
452,IN,35,Itarsi,,22.6167,77.75,,
453,IN,35,Shajapur,,23.4333,76.2667,,
454,IN,35,Mhow,,22.55,75.7667,,
455,IN,35,Mandsaur,,24.0667,75.0667,,
456,IN,35,Vidisha,,23.5333,77.8167,,
457,IN,24,Rajgarh,,27.2333,76.6333,,
458,IN,35,Ratlam,,23.3167,75.0667,,
459,IN,9,Bhandariya,,21.5833,72.1333,,
460,IN,16,Sada,,18.2833,75.2833,,
461,IN,33,Verna,,15.35,73.9167,,
462,IN,33,Navelim,,15.25,73.9167,,
463,IN,33,Varca,,15.2167,73.9167,,
464,IN,33,Bambolim,,15.45,73.85,,
465,IN,16,Bhandara,,21.1667,79.65,,
466,IN,16,Yavatmal,,20.4,78.1333,,
467,IN,16,Nanded,,19.15,77.3333,,
468,IN,16,Osmanabad,,18.1667,76.05,,
469,IN,16,Sangli,,16.8667,74.5667,,
470,IN,36,Tanda,,28.9833,78.9333,,
471,IN,16,Ojhar,,20.1,73.9333,,
472,IN,24,Gangapur,,26.4833,76.7167,,
473,IN,9,Victor,,21,71.5833,,
474,IN,16,Ambad,,19.6167,75.8,,
475,IN,16,Igatpuri,,19.7,73.55,,
476,IN,16,Buldana,,20.5333,76.1833,,
477,IN,16,Mangaon,,15.9833,73.7667,,
478,IN,16,Nandurbar,,21.3667,74.25,,
479,IN,16,Dhule,,20.9,74.7833,,
480,IN,19,Chitradurga,,14.2333,76.4,,
481,IN,19,Sedam,,17.1833,77.2833,,
482,IN,19,Toranagallu,,15.2,76.6833,,
483,IN,19,Hampi,,15.3333,76.4667,,
484,IN,25,Venkatapuram,,13.1214,80.1561,,
485,IN,2,Eluru,,16.7,81.1,,
486,IN,2,Tadepalligudem,,16.8333,81.5,,
487,IN,35,Anantpur,,23.5167,79.1167,,
488,IN,2,Kurnool,,15.8333,78.05,,
489,IN,2,Khammam,,17.25,80.15,,
490,IN,2,Adilabad,,19.6667,78.5333,,
491,IN,2,Sangareddi,,17.6294,78.0917,,
492,IN,2,Ongole,,15.5,80.05,,
493,IN,2,Nalgonda,,17.05,79.2667,,
494,IN,2,Rajahmundry,,16.9833,81.7833,,
495,IN,2,Vizianagaram,,18.1167,83.4167,,
496,IN,2,Chittor,,13.2,79.1167,,
497,IN,2,Nizamabad,,18.6667,78.1167,,
498,IN,25,Ootacamund,,11.4,76.7,,
499,IN,25,Perambalur,,11.2333,78.8833,,
500,IN,13,Palayam,,8.4833,76.9167,,
501,IN,25,Karaikudi,,10.0667,78.7833,,
502,IN,25,Ramnad,,9.3833,78.8333,,
503,IN,25,Kodaikanal,,10.2333,77.4833,,
504,IN,25,Mannargudi,,10.6667,79.4333,,
505,IN,25,Tiruvarur,,10.7667,79.65,,
506,IN,25,Vallam,,10.7167,79.0833,,
507,IN,25,Ramanathapuram,,9.3833,78.8333,,
508,IN,25,Kariapatti,,9.7,78.1,,
509,IN,36,Kant,,27.8,79.8,,
510,IN,25,Teynampet,,13.0433,80.2528,,
511,IN,16,Kale,,16.7167,74.0333,,
512,IN,16,Amarnath,,19.2,73.1667,,
513,IN,21,Nisha,,20.9333,85.0167,,
514,IN,23,Maharaj,,30.3167,75.1833,,
515,IN,12,Mangat,,33.45,75.1167,,
516,IN,28,Abad,,22.4328,88.7778,,
517,IN,16,Baramati,,18.15,74.5833,,
518,IN,28,Bakreswar,,23.8833,87.3667,,
519,IN,25,Madurantakam,,12.5167,79.9,,
520,IN,12,Ring,,34.7667,74.4167,,
521,IN,24,Mahajan,,28.7833,73.8333,,
522,IN,2,Cuddapah,,14.4667,78.8167,,
523,IN,34,Jaynagar,,26.5833,86.15,,
524,IN,25,Rajapalayam,,9.45,77.5667,,
525,IN,39,Pauri,,30.15,78.7833,,
526,IN,2,Nandigama,,16.7833,80.3,,
527,IN,28,Darjeeling,,27.0333,88.2667,,
528,IN,38,Bokaro,,23.7833,85.9667,,
529,IN,13,Chengannur,,9.3333,76.6333,,
530,IN,28,Falta,,22.2997,88.1086,,
531,IN,13,Payyanur,,12.1,75.2,,
532,IN,16,Sewagram,,20.6667,78.55,,
533,IN,2,Medak,,18.0333,78.2667,,
534,IN,25,Tirupur,,11.1,77.35,,
535,IN,35,Katni,,23.8167,80.4,,
536,IN,28,Panchagram,,22.2272,88.2422,,
537,IN,36,Loni,,28.75,77.2833,,
538,IN,25,Sriperumbudur,,12.9689,79.9489,,
539,IN,16,Thana,,19.2,72.9667,,
540,IN,9,Rawal,,21.9167,69.4886,,
541,IN,12,Nila,,34.2639,74.8917,,
542,IN,25,Arcot,,12.9,79.3333,,
543,IN,9,Adwal,,22.4333,71.9167,,
544,IN,16,Wasi,,18.5333,75.7833,,
545,IN,16,More,,18.3539,72.9258,,
546,IN,19,Savanur,,14.9667,75.35,,
547,IN,39,Chamoli,,30.4,79.35,,
548,IN,25,Mannur,,13.0239,79.9594,,
549,IN,36,Maniar,,25.9833,84.1667,,
550,IN,10,Narnaul,,28.0444,76.1083,,
551,IN,10,Jhajjar,,28.6167,76.65,,
552,IN,9,Bhuj,,23.2667,69.6667,,
553,IN,10,Nilokheri,,29.8333,76.9167,,
554,IN,35,Sahni,,24.3833,76.9167,,
555,IN,39,Sona,,30.25,80.5333,,
556,IN,39,Chakrata,,30.7,77.85,,
557,IN,10,Salwan,,29.5167,76.7167,,
558,IN,11,Chini,,31.5333,78.25,,
559,IN,19,Kormangala,,12.9333,77.6167,,
560,IN,3,Raha,,26.2333,92.5167,,
561,IN,36,Raya,,27.5667,77.7833,,
562,IN,9,Sihor,,21.7,71.9667,,
563,IN,23,Bhasin,,31.65,74.5,,
564,IN,25,Nungambakkam,,13.0606,80.2344,,
565,IN,24,Mangal,,25.3775,75.5569,,
566,IN,21,Deogan,,20.55,83.4167,,
567,IN,25,Palani,,10.4667,77.5333,,
568,IN,39,Kalsi,,29.9597,78.5778,,
569,IN,16,Prakasha,,21.5167,74.3667,,
570,IN,13,Malappuram,,11.0667,76.0667,,
571,IN,39,Rameshwar,,29.5333,80.1167,,
572,IN,25,Nagapattinam,,10.7667,79.8333,,
573,IN,23,Sirhind,,30.6456,76.3825,,
574,IN,24,Bassi,,26.6,74.5833,,
575,IN,24,Kapasi,,24.9,76.9333,,
576,IN,25,Kanchipuram,,12.8333,79.7167,,
577,IN,25,Chetpet,,13.07,80.2408,,
578,IN,2,Patamatalanka,,16.4833,80.65,,
579,IN,36,Muzaffarnagar,,29.4667,77.6833,,
580,IN,21,Puri,,19.8,85.85,,
581,IN,2,Chirala,,15.8167,80.35,,
582,IN,16,Belapur,,19.5667,74.65,,
583,IN,39,Rohni,,29.8478,78.6358,,
584,IN,24,Nagaur,,27.2,73.7333,,
585,IN,18,Smit,,25.5,91.9,,
586,IN,2,Gudlavalleru,,16.35,81.05,,
587,IN,28,Patra,,22.2158,88.2161,,
588,IN,16,Pimple,,18.3,74.0333,,
589,IN,2,Waltair,,17.7167,83.3333,,
590,IN,39,Naini,,29.9767,78.6472,,
591,IN,19,Maddur,,12.6,77.0667,,
592,IN,36,Jagat,,27.9833,79.25,,
593,IN,16,Rajaram,,19.2667,80.15,,
594,IN,36,Hapur,,28.7167,77.7833,,
595,IN,28,Asansol,,23.6833,86.9833,,
596,IN,33,Valpoi,,15.5333,74.1333,,
597,IN,12,Gold,,33.5889,74.1444,,
598,IN,25,Wellington,,11.3667,76.8,,
599,IN,13,Kozhikode,,11.25,75.7667,,
600,IN,21,Jharsuguda,,21.85,84.0333,,
601,IN,28,Chandipur,,22.0478,88.2903,,
602,IN,16,Palli,,19.3667,80.5333,,
603,IN,23,Jagraon,,30.7833,75.4833,,
604,IN,9,Vadodra,,20.8161,70.5231,,
605,IN,28,Bolpur,,23.6667,87.7167,,
606,IN,17,Thanga,,24.5,93.8333,,
607,IN,11,Chari,,32.2167,76.25,,
608,IN,19,Haliyal,,15.3333,74.7667,,
609,IN,19,Nanjangud,,12.1197,76.6828,,
610,IN,2,Kakinada,,16.9333,82.2167,,
611,IN,12,Sail,,33.2111,74.4222,,
612,IN,28,Japur,,22.1811,88.8536,,
613,IN,19,Hunsur,,12.3075,76.2878,,
614,IN,25,Mangalam,,9.7667,78.6667,,
615,IN,19,Nandi,,13.3847,77.6933,,
616,IN,24,Patwa,,26.1389,73.8289,,
617,IN,25,Avanashi,,11.2,77.2833,,
618,IN,2,Gollapudi,,16.5333,80.5667,,
619,IN,34,Panwar,,25.4,84.6167,,
620,IN,24,Banswara,,23.55,74.45,,
621,IN,9,Amod,,21.9833,72.9,,
622,IN,24,Deopura,,25.4331,75.6506,,
623,IN,24,Nagraj,,26.4667,70.9,,
624,IN,2,Rangampet,,17.9469,78.1164,,
625,IN,33,Chander,,15.2833,74.0333,,
626,IN,12,Ranjan,,32.8833,74.7917,,
627,IN,3,Pandu,,26.1692,91.675,,
628,IN,12,Samar,,34.5125,76.2,,
629,IN,36,Gaur,,25.3,82.7833,,
630,IN,34,Bikram,,25.45,84.8667,,
631,IN,36,Jani,,28.9667,77.5667,,
632,IN,16,Boisar,,19.8,72.75,,
633,IN,16,Vengurla,,15.8667,73.6333,,
634,IN,16,Panhala,,16.8167,74.1167,,
635,IN,25,Cheyyar,,12.6667,79.55,,
636,IN,16,Pandharpur,,17.6667,75.3333,,
637,IN,2,Yellandu,,17.6,80.3333,,
638,IN,2,Patancheru,,17.5314,78.265,,
639,IN,10,Hissar,,29.1667,75.7167,,
640,IN,38,Badia,,22.4833,86.4667,,
641,IN,36,Narora,,27.5,78.4333,,
642,IN,35,Betul,,21.8561,77.9275,,
643,IN,2,Narsapur,,17.7358,78.2817,,
644,IN,19,Bettadpur,,12.4733,76.1025,,
645,IN,24,Kolayat,,27.8333,72.95,,
646,IN,35,Hoshangabad,,22.75,77.7167,,
647,IN,24,Sirohi,,24.8833,72.8667,,
648,IN,21,Ganjam,,19.3167,84.7833,,
649,IN,24,Balan,,27.7667,71.4167,,
650,IN,36,Koil,,27.8833,78.0833,,
651,IN,16,Khed,,17.7167,73.3833,,
652,IN,10,Kaithal,,29.8,76.3833,,
653,IN,10,Indraprastha,,28.4833,77.3,,
654,IN,37,Drug,,21.1833,81.2833,,
655,IN,24,Sena,,25.15,72.6833,,
656,IN,25,Ennore,,13.2475,80.3253,,
657,IN,10,Gokal,,28.495,76.1122,,
658,IN,2,Priya,,18.4333,84.15,,
659,IN,21,Paradeep,,20.3167,86.6167,,
660,IN,28,Hooghly,,22.8956,88.4025,,
661,IN,24,Wazirpur,,26.5667,76.8833,,
662,IN,2,West Godavari,,16.7,81.1,,
663,IN,33,Nuvem,,15.3167,73.9167,,
664,IN,25,Alangulam,,8.8667,77.5,,
665,IN,2,Bhogapuram,,18.0667,83.5,,
666,IN,28,Jalpaiguri,,26.5167,88.7333,,
667,IN,39,Mall,,29.97,78.5606,,
668,IN,16,Vasai,,19.35,72.8,,
669,IN,2,Uppal,,15.9667,77.6667,,
670,IN,9,Mundra,,22.85,69.7333,,
671,IN,28,Jhargram,,22.45,86.9833,,
672,IN,25,Puliyur,,10.6333,78.8333,,
673,IN,22,Puducherry,,11.93,79.83,,
674,IN,21,Bhubaneshwar,,20.2333,85.8333,,
675,IN,16,Khalapur,,18.8167,73.2667,,
676,IN,16,Murbad,,19.25,73.4,,
677,IN,36,Renukoot,,24.2,83.0333,,
678,IN,39,Bangla,,29.8261,78.5667,,
679,IN,35,Nagda,,23.45,75.4167,,
680,IN,19,Harihar,,14.5167,75.8,,
681,IN,16,Mumbai,,18.975,72.8258,,
682,IN,28,Tamluk,,22.3,87.9167,,
683,IN,19,Maisuru,,12.3072,76.6497,,
684,IN,25,Rasipuram,,11.4667,78.1667,,
685,IN,36,Lakhnau,,26.85,80.9167,,
686,IN,9,Ahmadabad,,23.0333,72.6167,,
687,IN,23,Khamanon,,30.8186,76.3508,,
688,IN,16,Lonavale,,18.75,73.4167,,
689,IN,16,Karjat,,18.9167,73.3333,,
690,IN,35,Basoda,,23.6,78.1833,,
691,IN,36,Niwari,,28.8833,77.5333,,
692,IN,23,Rahon,,31.05,76.1167,,
693,IN,25,Velluru,,12.9333,79.1333,,
694,IN,13,Tirur,,10.9,75.9167,,
695,IN,19,Shrirangapattana,,12.4136,76.7042,,
696,IN,16,Pimpri,,18.6167,73.8,,
697,IN,28,Dum Dum,,22.6222,88.4169,,
698,IN,16,Badlapur,,19.15,73.2667,,
699,IN,16,Pen,,18.75,73.0833,,
700,IN,16,Vadgaon,,18.7333,73.65,,
701,IN,16,Trimbak,,19.9333,73.55,,
702,IN,36,Vrindavan,,27.5833,77.7,,
703,IN,16,Matheran,,18.9833,73.2667,,
704,IN,16,Deolali,,19.95,73.8333,,
705,IN,16,Ghoti,,19.7167,73.6333,,
706,IN,10,Palwal,,28.15,77.3333,,
707,IN,28,Srirampur,,22.9489,88.0189,,
708,IN,28,Begampur,,22.7417,88.2433,,
709,IN,36,Sardhana,,29.15,77.6167,,
710,IN,10,Samalkha,,29.2333,77.0167,,
711,IN,9,Nadiad,,22.7,72.8667,,
712,IN,9,Naroda,,23.0833,72.6667,,
713,IN,16,Shahapur,,19.45,73.3333,,
714,IN,33,Sancoale,,15.3667,73.9,,
715,IN,36,Azamgarh,,26.06,83.1861,,
716,IN,10,Punahana,,27.8667,77.2,,
717,IN,10,Sonipat,,28.9833,77.0167,,
718,IN,10,Hasanpur,,27.9667,77.5,,
719,IN,16,Nagothana,,18.5333,73.1333,,
720,IN,16,Vashi,,18.75,73.0333,,
721,IN,13,Kodungallur,,10.2222,76.1992,,
722,IN,2,Ramachandrapuram,,16.85,82.0167,,
723,IN,13,Beypur,,11.1833,75.8167,,
724,IN,39,Haridwar,,29.9667,78.1667,,
725,IN,12,Nawanshahr,,32.6079,74.7293,,
726,IN,16,Mangrul Pir,,20.3167,77.35,,
727,IN,16,Kalamnuri,,19.6667,77.3333,,
728,IN,9,Patan,,23.8333,72.1167,,
729,IN,24,Jhunjhunun,,28.1307,75.4014,,
730,IN,20,Kohima,,25.6667,94.1167,,
731,IN,25,Singanallur,,11,77.0167,,
732,IN,28,Barddhaman,,23.2406,87.8694,,
733,IN,25,Mamallapuram,,12.6264,80.1722,,
734,IN,25,Tambaram,,12.9272,80.1106,,
735,IN,25,Nerkunram,,13.0619,80.2094,,
736,IN,25,Karumbakkam,,12.6992,80.0933,,
737,IN,25,Alandur,,13.0025,80.2061,,
738,IN,25,Singaperumalkoil,,12.7611,80.01,,
739,IN,25,Chettipalaiyam,,10.9,77.0667,,
740,IN,25,Irugur,,11.0167,77.0667,,
741,IN,25,Mulanur,,10.7667,77.7167,,
742,IN,25,Sulur,,11.0333,77.1333,,
743,IN,25,Kiranur,,10.5667,78.7833,,
744,IN,25,Tiruppur,,11.1,77.35,,
745,IN,25,Kangayam,,11,77.5667,,
746,IN,25,Periyapatti,,10.75,77.2667,,
747,IN,25,Periyanayakkanpalaiyam,,11.15,76.9333,,
748,IN,25,Madukkarai,,10.9,76.9667,,
749,IN,25,Annur,,11.2333,77.1333,,
750,IN,25,Dharapuram,,10.7333,77.5167,,
751,IN,19,Sringeri,,13.4167,75.25,,
752,IN,19,Mangaluru,,12.8639,74.8353,,
753,IN,19,Bhadravati,,13.8667,75.7167,,
754,IN,19,Karkal,,13.2,74.9833,,
755,IN,19,Yellapur,,14.9667,74.7167,,
756,IN,19,Puttur,,12.7667,75.2167,,
757,IN,19,Mudbidri,,13.0833,74.9833,,
758,IN,19,Tirthahalli,,13.7,75.2333,,
759,IN,19,Shimoga,,13.9222,75.5736,,
760,IN,13,Perumpavur,,10.1333,76.4833,,
761,IN,13,Guruvayur,,10.6,76.05,,
762,IN,13,Mavelikara,,9.2667,76.55,,
763,IN,13,Feroke,,11.1833,75.85,,
764,IN,13,Elur,,10.0667,76.2833,,
765,IN,13,Ponnani,,10.7667,75.9,,
766,IN,13,Paravur,,8.7833,76.7,,
767,IN,13,Irinjalakuda,,10.3333,76.2333,,
768,IN,13,Chavakkad,,10.5333,76.05,,
769,IN,13,Shoranur,,10.7667,76.2833,,
770,IN,13,Arukutti,,9.8667,76.35,,
771,IN,13,Alappuzha,,9.4942,76.3275,,
772,IN,25,Kallidaikurichchi,,8.6667,77.4833,,
773,IN,13,Angamali,,10.2,76.4,,
774,IN,13,Vaikam,,9.7667,76.4,,
775,IN,13,Adur,,9.1667,76.7333,,
776,IN,2,Jangaon,,17.5975,78.8761,,
777,IN,2,Mandapeta,,16.8667,81.9333,,
778,IN,2,Rajamahendri,,16.9833,81.7833,,
779,IN,2,Tadepallegudem,,16.8333,81.5,,
780,IN,21,Raurkela,,22.2,84.8833,,
781,IN,28,Rangpo,,27.1833,88.5333,,
782,IN,28,Haora,,22.5892,88.3103,,
783,IN,28,Barasat,,22.6842,88.4411,,
784,IN,28,Baranagar,,22.6433,88.3653,,
785,IN,28,Tarakeswar,,22.885,88.0172,,
786,IN,28,Bankra,,22.6275,88.2981,,
787,IN,20,Wokha,,26.1,94.2667,,
788,IN,18,Nongpoh,,25.9,91.8833,,
789,IN,34,Jahanabad,,25.2167,84.9833,,
790,IN,34,Lalganj,,25.8667,85.1833,,
791,IN,28,Muri,,23.3667,85.8667,,
792,IN,38,Bundu,,23.1833,85.5833,,
793,IN,7,Nangloi Jat,,28.6833,77.0667,,
794,IN,10,Bahadurgarh,,28.6833,76.9167,,
795,IN,36,Bhadohi,,25.4167,82.5667,,
796,IN,36,Handia,,25.3833,82.1833,,
797,IN,36,Gyanpur,,25.35,82.4667,,
798,IN,36,Baragaon,,25.4333,82.8167,,
799,IN,39,Dehra Dun,,30.3167,78.0333,,
800,IN,36,Unnao,,26.5333,80.5,,
801,IN,36,Auras,,26.9167,80.5167,,
802,IN,39,Rishikesh,,30.1167,78.3167,,
803,IN,23,Jandiala,,31.1667,75.6167,,
804,IN,23,Batala,,31.8186,75.2028,,
805,IN,23,Shahkot,,31.0775,75.3372,,
806,IN,23,Nakodar,,31.1258,75.4733,,
807,IN,12,Udhampur,,32.9333,75.1333,,
808,IN,23,Banga,,31.1869,75.9922,,
809,IN,23,Rupnagar,,30.9664,76.5331,,
810,IN,23,Nurmahal,,31.0964,75.5967,,
811,IN,23,Dhilwan,,31.5169,75.35,,
812,IN,23,Nabha,,30.3747,76.1486,,
813,IN,11,Bilaspur,,31.3333,76.75,,
814,IN,10,Shahabad,,30.1681,76.8715,,
815,IN,10,Thanesar,,29.9833,76.8167,,
816,IN,10,Narayangarh,,30.2392,76.9329,,
817,IN,16,Ichalkaranji,,16.7,74.4667,,
818,IN,16,Jaysingpur,,16.8,74.5667,,
819,IN,16,Kalmeshwar,,21.2333,78.9,,
820,IN,35,Depalpur,,22.85,75.55,,
821,IN,35,Sanwer,,22.9833,75.8333,,
822,IN,35,Piploda,,23.35,75.4333,,
823,IN,35,Sehore,,23.2,77.0833,,
824,IN,24,Ringas,,27.35,75.5667,,
825,IN,24,Chomun,,27.1667,75.7167,,
826,IN,24,Sri Madhopur,,27.4667,75.6,,
827,IN,9,Khambhat,,22.3,72.6167,,
828,IN,9,Mahemdavad,,22.8333,72.7667,,
829,IN,9,Dholka,,22.7167,72.4667,,
830,IN,9,Chaklasi,,22.65,72.9333,,
831,IN,9,Kalol,,23.25,72.4833,,
832,IN,9,Kheda,,22.75,72.6833,,
833,IN,9,Sojitra,,22.55,72.7167,,
834,IN,9,Utran,,21.2333,72.8667,,
835,IN,9,Petlad,,22.4667,72.8,,
836,IN,9,Bilimora,,20.75,72.95,,
837,IN,9,Bardoli,,21.1167,73.1167,,
838,IN,9,Valsad,,20.6333,72.9333,,
839,IN,9,Olpad,,21.3333,72.75,,
840,IN,9,Kosamba,,21.4833,72.95,,
841,IN,9,Dhrol,,22.5667,70.4167,,
842,IN,25,Cheyur,,12.3481,80.0047,,
843,IN,25,Sivagiri,,11.1167,77.8,,
844,IN,25,Tiruchchirappalli,,10.805,78.6856,,
845,IN,25,Coonoor,,11.35,76.8167,,
846,IN,37,Durg,,21.1833,81.2833,,
847,IN,37,Kumhari,,21.2667,81.5167,,
848,IN,36,Bareli,,28.35,79.4167,,
849,IN,36,Mirganj,,28.55,79.2,,
850,IN,10,Fatehabad,,29.5167,75.45,,
851,IN,39,Sultanpur,,29.75,78.1167,,
852,IN,23,Dinanagar,,32.15,75.4667,,
853,IN,36,Khalilabad,,26.775,83.0736,,
854,IN,36,Gonda,,27.1333,81.9333,,
855,IN,34,Muzaffarpur,,26.1167,85.4,,
856,IN,38,Dhanbad,,23.8,86.45,,
857,IN,24,Beawar,,26.1,74.3167,,
858,IN,24,Ajmer,,26.45,74.6333,,
859,IN,24,Churu,,28.3,74.95,,
860,IN,35,Murwara,,23.85,80.4,,
861,IN,9,Navsari,,20.85,72.9167,,
862,IN,16,Ambarnath,,19.2,73.1667,,
863,IN,33,Taleigao,,15.4667,73.8,,
864,IN,33,Ponda,,15.4,74.0167,,
865,IN,33,Saligao,,15.55,73.7667,,
866,IN,16,Virar,,19.4667,72.8,,
867,IN,16,Sangamner,,19.5667,74.2167,,
868,IN,16,Sholapur,,17.6833,75.9167,,
869,IN,16,Budhgaon,,16.9,74.6,,
870,IN,16,Karanja,,20.4833,77.4833,,
871,IN,19,Mulki,,13.1,74.8,,
872,IN,19,Karwar,,14.8136,74.1297,,
873,IN,19,Ankola,,14.6667,74.3,,
874,IN,19,Bidar,,17.9,77.55,,
875,IN,2,Vetapalem,,15.7833,80.3167,,
876,IN,25,Villupuram,,11.9333,79.4833,,
877,IN,25,Lalgudi,,10.8667,78.8333,,
878,IN,25,Marandahalli,,12.4,78,,
879,IN,25,Dharmapuri,,12.1333,78.1667,,
880,IN,13,Changanacheri,,9.4667,76.55,,
881,IN,13,Nilambur,,11.2833,76.25,,
882,IN,13,Mahe,,11.7,75.5333,,
883,IN,2,Srikakulam,,18.3,83.9,,
884,IN,13,Kunnamkulam,,10.65,76.0833,,
885,IN,13,Shertallai,,9.7,76.3333,,
886,IN,33,Goa Velha,,15.4333,73.8667,,
887,IN,25,Selam,,11.65,78.1667,,
888,IN,33,Itanagar,,27.1,93.6167,,
889,IN,10,Pinjaur,,30.7972,76.9172,,
890,IN,37,Korba,,22.35,82.6833,,
891,IN,16,Karad,,17.2833,74.2,,
892,IN,24,Ganganagar,,29.9167,73.8833,,
893,IN,28,Ramjibanpur,,22.8333,87.6167,,
894,IN,28,Shiliguri,,26.7161,88.4236,,
895,IN,3,Tinsukia,,27.5,95.3667,,
896,IN,3,Nazira,,26.9167,94.7333,,
897,IN,3,Dibrugarh,,27.4817,94.9028,,
898,IN,31,Aizawl,,23.7244,92.7175,,
899,IN,11,Chamba,,32.5667,76.1333,,
900,IN,23,Dhuri,,30.3667,75.8667,,
901,IN,13,Talipparamba,,12.05,75.35,,
902,IN,13,Pappinisseri,,11.95,75.35,,
903,IN,2,Nuzvid,,16.7833,80.85,,
904,IN,25,Musiri,,10.9333,78.45,,
905,IN,25,Korampallam,,8.7667,78.1,,
906,IN,25,Namakkal,,11.2333,78.1667,,
907,IN,19,Chintamani,,13.4,78.0667,,
908,IN,19,Indi,,17.1667,75.9667,,
909,IN,19,Hoskote,,13.0669,77.7983,,
910,IN,21,Cuttack,,20.5,85.8333,,
911,IN,21,Bargarh,,21.3333,83.6167,,
912,IN,25,Pennagaram,,12.1333,77.9,,
913,IN,9,Dhank,,21.7667,70.1333,,
914,IN,2,Poladpur,,17.9833,83.4667,,
915,IN,13,Mannarakkat,,10.9833,76.4667,,
916,IN,9,Anjar,,23.1333,70.0167,,
917,IN,23,Samrala,,30.8367,76.1897,,
918,IN,23,Garhshankar,,31.2167,76.1333,,
919,IN,23,Nawashahr,,31.1167,76.1333,,
920,IN,36,Muradnagar,,28.7833,77.5,,
921,IN,36,Tikri,,29.2333,77.35,,
922,IN,25,Kayattar,,8.95,77.8,,
923,IN,19,Channapatna,,12.65,77.2167,,
924,IN,35,Satna,,24.5833,80.8333,,
925,IN,9,Jetpur,,21.7333,70.6167,,
926,IN,33,Chicalim,,15.4,73.8333,,
927,IN,2,Kavali,,14.9167,79.9833,,
928,IN,2,Mangalagiri,,16.4333,80.55,,
929,IN,3,Dimapur,,25.9,93.7333,,
930,IN,36,Gorakhpur,,26.755,83.3739,,
931,IN,23,Phillaur,,31.0292,75.7842,,
932,IN,23,Maler Kotla,,30.5167,75.8833,,
933,IN,23,Malaut,,30.2167,74.4833,,
934,IN,37,Mahasamund,,21.1,82.1,,
935,IN,33,Mormugao,,15.4,73.8,,
936,IN,25,Marakkanam,,12.2,79.95,,
937,IN,36,Chhaprauli,,29.2167,77.1833,,
938,IN,13,Varkkallai,,8.7333,76.7167,,
939,IN,21,Pipili,,20.1167,85.8333,,
940,IN,13,Attingal,,8.6833,76.8333,,
941,IN,23,Dera Bassi,,30.5888,76.8456,,
942,IN,28,Bali Chak,,22.3667,87.55,,
943,IN,23,Badhni Kalan,,30.6833,75.2833,,
944,IN,16,Shirwal,,18.1333,73.9833,,
945,IN,2,Kuppam,,12.75,78.3667,,
946,IN,16,Ghatkopar,,19.0833,72.9,,
947,IN,25,Kalpakkam,,12.5667,80.1667,,
948,IN,10,Farrukhnagar,,28.45,76.8167,,
949,IN,25,Mallur,,11.55,78.1333,,
950,IN,28,Darjiling,,27.0333,88.2667,,
951,IN,11,Solon,,30.9167,77.1167,,
952,IN,10,Julana,,29.1333,76.4167,,
953,IN,9,Adalaj,,23.1667,72.5833,,
954,IN,33,Caranzalem,,15.45,73.8,,
955,IN,13,Muvattupula,,9.9667,76.5833,,
956,IN,25,Manapparai,,10.6,78.4167,,
957,IN,33,Cuncolim,,15.1667,73.9833,,
958,IN,23,Machhiwara,,30.9147,76.1983,,
959,IN,24,Naraina,,26.7833,75.2,,
960,IN,9,Sinor,,21.9167,73.3333,,
961,IN,2,Tuni,,17.35,82.55,,
962,IN,2,Vadlapudi,,14.3167,79.8,,
963,IN,9,Damnagar,,21.7,71.5167,,
964,IN,25,Tiruchengodu,,11.3833,77.9333,,
965,IN,32,Daman,,20.4167,72.85,,
966,IN,9,Pardi,,20.5167,72.95,,
967,IN,28,Chandannagar,,22.8692,88.3772,,
968,IN,10,Nuh,,28.1167,77.0167,,
969,IN,19,Shahabad,,17.1333,76.9333,,
970,IN,10,Dhingar Majra,,29.5231,76.9981,,
971,IN,25,Kumbakonam,,10.9667,79.3833,,
972,IN,33,Anjuna,,15.5833,73.7333,,
973,IN,9,Modasa,,23.4667,73.3,,
974,IN,36,Kairana,,29.4,77.2,,
975,IN,10,Aurangabad,,28.0333,77.3333,,
976,IN,24,Khor,,27.9833,76.25,,
977,IN,33,Vainguinim,,15.5667,73.8833,,
978,IN,16,Bhusawal,,21.05,75.7667,,
979,IN,3,Sibsagar,,26.9833,94.6333,,
980,IN,16,Adas,,18.7667,76.2333,,
981,IN,24,Devli,,25.75,75.3833,,
982,IN,36,Lalitpur,,24.6833,78.4167,,
983,IN,24,Namana,,25.3111,75.6164,,
984,IN,25,Vadamadurai,,10.4667,78.0833,,
985,IN,16,Talegaon Dabhade,,18.7167,73.6833,,
986,IN,28,Ramnagar,,22.7778,88.2464,,
987,IN,2,Amudalavalasa,,18.4167,83.9,,
988,IN,2,Peddapuram,,17.0833,82.1333,,
989,IN,23,Kurali,,30.8331,76.5733,,
990,IN,16,Partur,,19.6,76.2167,,
991,IN,28,Navadwip,,23.4167,88.3667,,
992,IN,38,Pathardih,,23.6667,86.4333,,
993,IN,25,Walajabad,,12.7667,79.7833,,
994,IN,25,Vijayapuri,,11.2333,77.5,,
995,IN,25,Kalugumalai,,9.15,77.7167,,
996,IN,25,Kovilpatti,,9.1667,77.8667,,
997,IN,25,Dhali,,10.5,77.1667,,
998,IN,19,Mudigere,,13.1333,75.6333,,
999,IN,19,Someshwar,,13.5,75.0667,,
1000,IN,13,Nedumangad,,8.6,77,,
1001,IN,2,Gudivada,,16.45,80.9833,,
1002,IN,2,Yellamanchili,,17.55,82.8667,,
1003,IN,2,Bhimavaram,,16.5333,81.5333,,
1004,IN,2,Singarayakonda,,15.25,80.0333,,
1005,IN,21,Banapur,,19.7833,85.1833,,
1006,IN,21,Keonjhar,,21.6333,85.5833,,
1007,IN,38,Ramgarh,,23.6333,85.5167,,
1008,IN,36,Pilkhuwa,,28.7167,77.65,,
1009,IN,12,Hiranagar,,32.45,75.2667,,
1010,IN,12,Banihal,,33.4167,75.2,,
1011,IN,23,Alawalpur,,31.4328,75.6508,,
1012,IN,23,Anandpur Sahib,,31.25,76.5,,
1013,IN,23,Rampura,,30.25,75.2333,,
1014,IN,23,Amloh,,30.6084,76.2319,,
1015,IN,16,Bhor,,18.1667,73.85,,
1016,IN,16,Arvi,,20.9833,78.2333,,
1017,IN,9,Anklesvar,,21.6,73,,
1018,IN,9,Borsad,,22.4167,72.9,,
1019,IN,9,Mahudha,,22.8167,72.9333,,
1020,IN,9,Umreth,,22.7,73.1167,,
1021,IN,25,Mohanur,,11.0833,78.1667,,
1022,IN,25,Nambiyur,,11.3667,77.3333,,
1023,IN,36,Khekra,,28.8667,77.2833,,
1024,IN,39,Champawat,,29.3333,80.1,,
1025,IN,12,Shupiyan,,33.7167,74.8333,,
1026,IN,23,Barnala,,30.3833,75.55,,
1027,IN,16,Ahmadnagar,,19.0833,74.7333,,
1028,IN,25,Nellikkuppam,,11.7667,79.6833,,
1029,IN,13,Kadakkal,,8.8333,76.9167,,
1030,IN,25,Palladam,,10.9833,77.3,,
1031,IN,13,Koyilandi,,11.4333,75.7,,
1032,IN,19,Sidlaghatta,,13.3881,77.8628,,
1033,IN,28,Kansat,,24.7333,88.1667,,
1034,IN,26,Dharmanagar,,24.3667,92.1667,,
1035,IN,31,Mamit,,23.9333,92.4833,,
1036,IN,25,Walajapet,,12.9333,79.3833,,
1037,IN,21,Baleshwar,,21.4942,86.9317,,
1038,IN,2,Vuyyuru,,16.3667,80.85,,
1039,IN,10,Pehowa,,29.9833,76.5833,,
1040,IN,24,Govindgarh,,27.5,76.9833,,
1041,IN,7,Bawana,,28.8,77.0333,,
1042,IN,25,Mettur,,11.8,77.8,,
1043,IN,19,Yelandur,,12.0667,77.0333,,
1044,IN,25,Nilakkottai,,10.1667,77.8667,,
1045,IN,19,Nagamangala,,12.8156,76.7575,,
1046,IN,25,Abiramam,,9.4667,78.45,,
1047,IN,25,Tiruvottiyur,,13.1578,80.3042,,
1048,IN,19,Malur,,13.0075,77.9378,,
1049,IN,28,Khardaha,,22.7186,88.3781,,
1050,IN,23,Tarn Taran,,31.45,74.9253,,
1051,IN,9,Mahesana,,23.6,72.4,,
1052,IN,25,Kodumudi,,11.0833,77.8833,,
1053,IN,24,Kumher,,27.3167,77.3667,,
1054,IN,13,Chalakudi,,10.3,76.35,,
1055,IN,16,Vikhroli,,19.1,72.9167,,
1056,IN,36,Baldeo,,27.4167,77.8167,,
1057,IN,13,Manjeshwar,,12.7,74.8833,,
1058,IN,9,Parnera,,20.55,72.95,,
1059,IN,28,Kamarhati,,22.6711,88.3747,,
1060,IN,37,Raigarh,,21.9,83.4,,
1061,IN,25,Papparapatti,,12.2167,78.0667,,
1062,IN,28,Sultanganj,,22.35,88.2156,,
1063,IN,21,Samal,,21.0833,85.15,,
1064,IN,24,Gotan,,26.6536,73.7383,,
1065,IN,10,Kanwali,,28.3167,76.4167,,
1066,IN,16,Chakan,,18.75,73.85,,
1067,IN,2,Kadapa,,14.4667,78.8167,,
1068,IN,16,Kalamb,,19.05,73.95,,
1069,IN,16,Sirur,,18.8333,74.3833,,
1070,IN,33,Cortalim,,15.3833,73.8833,,
1071,IN,2,Tenali,,16.25,80.5833,,
1072,IN,19,Kundapur,,13.6333,74.7,,
1073,IN,16,Bombay Santa Cruz,,19.0833,72.8333,,
1074,IN,2,Kovur,,14.4833,79.9833,,
1075,IN,2,Pakala,,13.4667,79.1167,,
1076,IN,37,Kawardha,,22.0167,81.25,,
1077,IN,2,Kandur,,13.55,78.7667,,
1078,IN,10,Mustafabad,,30.2,77.15,,
1079,IN,9,Gondal,,21.9667,70.8,,
1080,IN,24,Nim Ka Thana,,27.7333,75.8,,
1081,IN,25,Tattayyangarpettai,,11.1333,78.45,,
1082,IN,25,Uttukkuli,,11.1667,77.4333,,
1083,IN,19,Bail Hongal,,15.8167,74.8667,,
1084,IN,19,Ranibennur,,14.6167,75.6167,,
1085,IN,2,Gannavaram,,16.5333,80.8,,
1086,IN,2,Nidadavole,,16.9167,81.6667,,
1087,IN,2,Machilipatnam,,16.1667,81.1333,,
1088,IN,2,Tanuku,,16.75,81.7,,
1089,IN,28,Mahiari,,22.5922,88.2378,,
1090,IN,28,Krishnapur,,22.6703,88.2694,,
1091,IN,34,Maner,,25.65,84.8833,,
1092,IN,39,Doiwala,,30.1833,78.1167,,
1093,IN,36,Malihabad,,26.9167,80.7167,,
1094,IN,23,Kartarpur,,31.44,75.4997,,
1095,IN,10,Munak,,29.5167,76.85,,
1096,IN,16,Jejuri,,18.2833,74.1667,,
1097,IN,16,Akot,,21.0964,77.0586,,
1098,IN,24,Khandela,,27.6,75.5,,
1099,IN,25,Peraiyur,,9.7167,77.8,,
1100,IN,9,Hansot,,21.5833,72.8,,
1101,IN,37,Khairagarh,,21.4167,80.9667,,
1102,IN,19,Lakshmeshwar,,15.1333,75.4667,,
1103,IN,2,Adoni,,15.6333,77.2833,,
1104,IN,2,Chittoor,,13.2,79.1167,,
1105,IN,36,Ghazipur,,25.5833,83.5667,,
1106,IN,3,Bongaigaon,,26.4782,90.5568,,
1107,IN,33,Madgaon,,15.3,73.95,,
1108,IN,19,Lingadahalli,,13.6,75.8333,,
1109,IN,16,Bhiwandi,,19.3,73.0667,,
1110,IN,11,Dharamsala,,32.2167,76.3167,,
1111,IN,36,Babugarh,,28.7167,77.85,,
1112,IN,21,Athgarh,,20.5333,85.6167,,
1113,IN,2,Kamareddi,,18.3167,78.35,,
1114,IN,10,Safidon,,29.4167,76.6667,,
1115,IN,25,Attayyampatti,,11.5333,78.0667,,
1116,IN,36,Rampur,,28.8167,79.0333,,
1117,IN,16,Vaijapur,,19.9167,74.7333,,
1118,IN,37,Bhatapara,,21.7333,81.9333,,
1119,IN,25,Aruppukkottai,,9.5167,78.1,,
1120,IN,28,Bhatpara,,22.8714,88.4089,,
1121,IN,28,Shantipur,,23.25,88.4667,,
1122,IN,2,Bhimunipatnam,,17.8833,83.4333,,
1123,IN,16,Alibag,,18.6411,72.8792,,
1124,IN,21,Barang,,20.4,85.85,,
1125,IN,11,Nalagarh,,31.05,76.7167,,
1126,IN,23,Kot Isa Khan,,30.95,75.1333,,
1127,IN,12,Pulwama,,33.8833,74.9167,,
1128,IN,28,Panihati,,22.6942,88.3744,,
1129,IN,39,Kashipur,,29.2167,78.95,,
1130,IN,38,Chaibasa,,22.5667,85.8167,,
1131,IN,9,Lakadiya,,23.35,70.5833,,
1132,IN,25,Sivaram,,12.9522,80.2386,,
1133,IN,9,Dewan,,22.2833,72.8333,,
1134,IN,24,Sara,,24.25,73.1167,,
1135,IN,36,Gulaothi,,28.6,77.7833,,
1136,IN,16,Revadanda,,18.5503,72.9278,,
1137,IN,16,Junnar,,19.2,73.8833,,
1138,IN,10,Hansi,,29.1,75.9667,,
1139,IN,25,Kambar Nagar,,13.1117,80.2136,,
1140,IN,2,Mancheral,,18.8667,79.4333,,
1141,IN,2,Piler,,13.65,78.9333,,
1142,IN,21,Baripada,,21.935,86.7214,,
1143,IN,9,Kutiyana,,21.6233,69.9817,,
1144,IN,25,Pollachi,,10.6667,77.0167,,
1145,IN,34,Ara,,25.5667,84.6667,,
1146,IN,28,Jhalida,,23.3667,85.9667,,
1147,IN,23,Begowal,,31.6167,75.5167,,
1148,IN,19,Jamkhandi,,16.5167,75.3,,
1149,IN,36,Sadabad,,27.45,78.05,,
1150,IN,33,Bandora,,15.4,73.9667,,
1151,IN,19,Tarikere,,13.7167,75.8167,,
1152,IN,25,Karaikkudi,,10.0667,78.7833,,
1153,IN,13,Perintalmanna,,10.9833,76.2333,,
1154,IN,28,Ingraj Bazar,,25,88.15,,
1155,IN,2,Kovvur,,17.0167,81.7333,,
1156,IN,25,Tiruttani,,13.1833,79.6333,,
1157,IN,25,Arakkonam,,13.1,79.6667,,
1158,IN,28,Naihati,,22.9028,88.4169,,
1159,IN,3,Digboi,,27.3833,95.6181,,
1160,IN,36,Bajna,,27.9,77.6833,,
1161,IN,2,Betamcherla,,15.4667,78.1667,,
1162,IN,28,Ghatal,,22.6667,87.7167,,
1163,IN,19,Kolar,,13.1333,78.1333,,
1164,IN,16,Malwan,,16.0667,73.4667,,
1165,IN,9,Rander,,21.2333,72.7833,,
1166,IN,10,Charkhi Dadri,,28.6,76.2667,,
1167,IN,23,Raikot,,30.65,75.6,,
1168,IN,19,Davangere,,14.4667,75.9167,,
1169,IN,39,Masuri,,30.45,78.0833,,
1170,IN,16,Uran,,18.8769,72.9397,,
1171,IN,16,Kaij,,18.7,76.0833,,
1172,IN,2,Bapatla,,15.9,80.4667,,
1173,IN,9,Dahegam,,23.1667,72.8167,,
1174,IN,9,Sanand,,22.9833,72.3833,,
1175,IN,19,Kunigal,,13.0222,77.0267,,
1176,IN,13,Piravam,,9.8667,76.5,,
1177,IN,7,Najafgarh,,28.6125,76.9847,,
1178,IN,25,Avadi,,13.1156,80.1017,,
1179,IN,36,Kiratpur,,29.5167,78.2,,
1180,IN,33,Candolim,,15.5167,73.75,,
1181,IN,36,Rudarpur,,26.4394,83.6144,,
1182,IN,28,Panchal,,23.25,87.3,,
1183,IN,36,Sadat,,25.6833,83.2833,,
1184,IN,6,Silvassa,,20.2667,73.0167,,
1185,IN,28,Tollygunge,,22.4922,88.3483,,
1186,IN,16,Dharavi,,19.05,72.8667,,
1187,IN,16,Mahalakshmi,,18.9833,72.8,,
1188,IN,33,Malar,,15.5167,73.9167,,
1189,IN,9,Rajula,,21.05,71.4333,,
1190,IN,9,Babra,,21.85,71.3,,
1191,IN,36,Narwal,,26.25,80.45,,
1192,IN,28,Hema,,27.75,88.5333,,
1193,IN,25,Royapettah,,13.0506,80.2642,,
1194,IN,33,Benaulim,,15.25,73.9167,,
1195,IN,16,Goregaon,,18.1667,73.3,,
1196,IN,2,Naspur,,18.8333,79.45,,
1197,IN,24,Sagwara,,23.6833,74.0167,,
1198,IN,19,Londa,,15.4667,74.5167,,
1199,IN,2,Kaikalur,,16.5667,81.2,,
1200,IN,2,Nandyal,,15.4833,78.4833,,
1201,IN,11,Paonta Sahib,,30.45,77.6167,,
1202,IN,33,Bicholim,,15.6,73.95,,
1203,IN,22,Karaikal,,10.9167,79.8333,,
1204,IN,13,Kottakkal,,11,76.0167,,
1205,IN,13,Thalassery,,11.7478,75.4883,,
1206,IN,10,Farrukhnagar,,17.0778,78.2011,,
1207,IN,2,Narsingi,,18.0333,78.4333,,
1208,IN,2,Guntakal,,15.1667,77.3833,,
1209,IN,19,Sirsi,,14.6167,74.85,,
1210,IN,21,Jaypur,,18.85,82.5833,,
1211,IN,25,Idappadi,,11.5833,77.85,,
1212,IN,28,Kalna,,23.2167,88.3667,,
1213,IN,28,Raiganj,,25.6167,88.1167,,
1214,IN,35,Anjad,,22.0333,75.05,,
1215,IN,2,Kottagudem,,17.55,80.6333,,
1216,IN,9,Paddhari,,22.4333,70.6,,
1217,IN,21,Brahmapur,,19.3167,84.7833,,
1218,IN,36,Kannauj,,27.0546,79.922,,
1219,IN,25,Valparai,,10.3667,76.9667,,
1220,IN,39,Lalkua,,29.0833,79.5167,,
1221,IN,33,Dabolim,,15.4,73.8667,,
1222,IN,10,Kaul,,29.85,76.6667,,
1223,IN,21,Rourkela,,22.2,84.8833,,
1224,IN,25,Kilpauk,,13.08,80.2408,,
1225,IN,24,Samod,,27.2,75.8167,,
1226,IN,33,Chandel,,15.7333,73.8833,,
1227,IN,16,Pinjar,,20.55,77.2667,,
1228,IN,19,Kanakpura,,12.55,77.4167,,
1229,IN,38,Padma,,24.2,85.3667,,
1230,IN,34,Chandan,,24.6333,86.6667,,
1231,IN,19,Nathan,,16.9333,75.8667,,
1232,IN,24,Kishangarh,,27.8167,76.7167,,
1233,IN,34,Parihar,,26.7167,85.6833,,
1234,IN,10,Sodhi,,29.9319,76.9347,,
1235,IN,24,Gulabpura,,25.9,74.6667,,
1236,IN,13,Kayankulam,,9.1833,76.5,,
1237,IN,25,Chidambaram,,11.4,79.7,,
1238,IN,36,Jaunpur,,25.7333,82.6833,,
1239,IN,2,Kandukur,,13.75,78.1667,,
1240,IN,28,Siuri,,23.9167,87.5333,,
1241,IN,11,Kangra,,32.1,76.2667,,
1242,IN,23,Abohar,,30.15,74.1833,,
1243,IN,9,Balasinor,,22.95,73.3333,,
1244,IN,24,Kuchaman,,27.15,74.85,,
1245,IN,38,Hazaribag,,23.9833,85.35,,
1246,IN,36,Obra,,24.4167,82.9833,,
1247,IN,36,Baheri,,28.7833,79.5,,
1248,IN,28,Raniganj,,23.6167,87.1333,,
1249,IN,35,Ashta,,23.0167,76.7167,,
1250,IN,28,Ranaghat,,23.1833,88.5833,,
1251,IN,23,Muktsar,,30.4833,74.5167,,
1252,IN,23,Samana,,30.1583,76.1931,,
1253,IN,33,Kankon,,15.0167,74.0167,,
1254,IN,23,Talwandi Bhai,,30.85,74.9333,,
1255,IN,28,Baidyabati,,22.785,88.3247,,
1256,IN,16,Kandivli,,17.8667,73.2333,,
1257,IN,11,Simla,,30.8833,77.05,,
1258,IN,34,Maker,,25.9667,85.05,,
1259,IN,19,Javagal,,13.3033,76.0597,,
1260,IN,24,Bari,,26.65,77.6,,
1261,IN,2,Gandipet,,17.3842,78.32,,
1262,IN,28,Rishra,,22.7142,88.3478,,
1263,IN,25,Vandalur,,12.8928,80.0808,,
1264,IN,6,Amal,,20.2667,72.9667,,
1265,IN,28,Sitarampur,,23.7167,86.8833,,
1266,IN,2,Kukatpally,,17.4833,78.4167,,
1267,IN,13,Kunnamangalam,,11.3167,75.8833,,
1268,IN,2,Gajwel,,17.8517,78.6828,,
1269,IN,25,Ariyalur,,11.1333,79.0833,,
1270,IN,21,Lanjigarh,,19.7167,83.3833,,
1271,IN,25,Perundurai,,11.2667,77.5833,,
1272,IN,7,Narela,,28.85,77.1,,
1273,IN,2,Razole,,16.4833,81.8333,,
1274,IN,2,Nagari,,13.3333,79.5833,,
1275,IN,38,Deoghar,,24.4833,86.7,,
1276,IN,13,Karukachal,,9.5,76.6333,,
1277,IN,34,Buxar,,25.5833,83.9833,,
1278,IN,35,Dewas,,22.9667,76.0667,,
1279,IN,9,Dakor,,22.75,73.15,,
1280,IN,9,Umargam,,20.2,72.75,,
1281,IN,19,Kumta,,14.4167,74.4,,
1282,IN,19,Dandeli,,15.2667,74.6167,,
1283,IN,28,Krishnanagar,,23.4,88.5,,
1284,IN,36,Maurawan,,26.4333,80.8833,,
1285,IN,28,Karsiyang,,26.8825,88.2773,,
1286,IN,25,Arani,,12.6667,79.2833,,
1287,IN,13,Edapal,,10.7667,76.0167,,
1288,IN,24,Bandikui,,27.05,76.5667,,
1289,IN,3,Kokrajhar,,26.399,90.2718,,
1290,IN,9,Morvi,,22.8167,70.8333,,
1291,IN,36,Hathras,,27.6,78.05,,
1292,IN,36,Bulandshahr,,28.4,77.85,,
1293,IN,2,Dhone,,15.4167,77.8833,,
1294,IN,11,Rajgarh,,30.85,77.3,,
1295,IN,16,Palghar,,19.6833,72.75,,
1296,IN,38,Jasidih,,24.5167,86.65,,
1297,IN,36,Etawah,,26.7769,79.0239,,
1298,IN,35,Pachmarhi,,22.4667,78.4333,,
1299,IN,21,Khurda,,20.1833,85.6167,,
1300,IN,2,Ulavapadu,,15.1667,80,,
1301,IN,28,Bhadreswar,,22.8244,88.3506,,
1302,IN,36,Shahjahanpur,,27.8833,79.9167,,
1303,IN,9,Amreli,,21.6167,71.2333,,
1304,IN,16,Gondia,,21.45,80.2,,
1305,IN,24,Agrawa,,24.95,71.5333,,
1306,IN,19,Devanhalli,,13.2325,77.6992,,
1307,IN,16,Chitegaon,,19.7333,75.4833,,
1308,IN,23,Banur,,30.5556,76.7183,,
1309,IN,36,Surajpur,,28.5167,77.4833,,
1310,IN,19,Kolhar,,16.4333,75.6667,,
1311,IN,34,Madhuban,,26.45,85.1333,,
1312,IN,28,Diamond Harbour,,22.1917,88.1847,,
1313,IN,34,Jha Jha,,24.7667,86.3667,,
1314,IN,39,Nahar,,30.4406,77.935,,
1315,IN,16,Sangameshwar,,17.1833,73.55,,
1316,IN,28,Siliguri,,26.7161,88.4236,,
1317,IN,16,Miraj,,16.8333,74.6333,,
1318,IN,21,Angul,,20.85,85.1,,
1319,IN,24,Sawai Madhopur,,25.9833,76.3667,,
1320,IN,24,Tonk,,26.1667,75.7833,,
1321,IN,25,Usilampatti,,9.9667,77.8,,
1322,IN,33,Sanvordem,,15.2667,74.1167,,
1323,IN,28,Puruliya,,23.3333,86.3667,,
1324,IN,25,Rajapalaiyam,,9.45,77.5667,,
1325,IN,9,Bareja,,22.85,72.5833,,
1326,IN,16,Shegaon,,20.7833,76.6833,,
1327,IN,24,Mount Abu,,24.6,72.7,,
1328,IN,25,Gudalur,,11.75,79.75,,
1329,IN,28,Guskhara,,23.5,87.75,,
1330,IN,28,Odlabari,,26.8333,88.6167,,
1331,IN,25,Nagore,,10.8167,79.85,,
1332,IN,13,Payyannur,,12.1,75.2,,
1333,IN,25,Puliyankudi,,9.1667,77.4167,,
1334,IN,13,Kannangad,,12.3167,75.0667,,
1335,IN,23,Firozpur,,30.9167,74.6,,
1336,IN,3,Goalpara,,26.1667,90.6167,,
1337,IN,9,Porbandar,,21.6333,69.6,,
1338,IN,19,Lingsugur,,16.1667,76.5167,,
1339,IN,36,Manglaur,,29.8,77.8667,,
1340,IN,36,Saharanpur,,29.9667,77.55,,
1341,IN,19,Bangarapet,,12.9667,78.2,,
1342,IN,16,Wai,,17.9333,73.9,,
1343,IN,19,Robertsonpet,,12.9667,78.2833,,
1344,IN,36,Un,,29.5847,77.2542,,
1345,IN,21,Paradip,,20.3167,86.6167,,
1346,IN,28,Halisahar,,22.9497,88.4194,,
1347,IN,28,Contai,,21.7786,87.7536,,
1348,IN,38,Chakradharpur,,22.7,85.6333,,
1349,IN,28,Konnagar,,22.7,88.3475,,
1350,IN,34,Begusarai,,25.4167,86.1333,,
1351,IN,35,Barman,,23.0333,79.0167,,
1352,IN,16,Math,,17,73.3333,,
1353,IN,23,Dharmkot,,30.95,75.2333,,
1354,IN,16,Alandi,,18.6667,73.9,,
1355,IN,16,Kolshet,,19.2333,72.9833,,
1356,IN,13,Ottappalam,,10.7667,76.3833,,
1357,IN,21,Sundargarh,,22.1167,84.0333,,
1358,IN,34,Sasaram,,24.95,84.0333,,
1359,IN,16,Rahimatpur,,17.6,74.2,,
1360,IN,25,Kotagiri,,11.4333,76.8833,,
1361,IN,3,Hojai,,26,92.8667,,
1362,IN,19,Koppa,,13.55,75.35,,
1363,IN,24,Paota,,26.9667,76.9333,,
1364,IN,25,Bhavani,,11.45,77.6833,,
1365,IN,19,Ponnampet,,12.15,75.9333,,
1366,IN,2,Begampet,,17.1125,78.5544,,
1367,IN,2,Samalkot,,17.05,82.1833,,
1368,IN,25,Srirangam,,10.8667,78.6833,,
1369,IN,28,Champdani,,22.7978,88.3658,,
1370,IN,28,Ulubaria,,22.4717,88.1136,,
1371,IN,9,Dhandhuka,,22.3667,71.9833,,
1372,IN,3,Rangapara,,26.8167,92.65,,
1373,IN,19,Gadag,,15.4167,75.6167,,
1374,IN,36,Robertsganj,,24.7,83.0667,,
1375,IN,16,Bodvad,,20.8833,75.9833,,
1376,IN,36,Aonla,,28.2833,79.15,,
1377,IN,36,Deoranian,,28.6333,79.4833,,
1378,IN,23,Patti,,31.2808,74.8572,,
1379,IN,23,Gurdaspur,,32.0333,75.5167,,
1380,IN,33,Queula,,15.3833,73.9667,,
1381,IN,36,Baraut,,29.1,77.2667,,
1382,IN,34,Bhagalpur,,25.25,87,,
1383,IN,24,Partapur,,23.6,74.1667,,
1384,IN,33,Cola,,15.0667,73.9667,,
1385,IN,2,Narsampet,,17.9167,79.9,,
1386,IN,16,Borad,,21.6333,74.3333,,
1387,IN,36,Gokul,,27.45,77.7167,,
1388,IN,16,Ghanpur,,19.8333,79.75,,
1389,IN,12,Maidan,,33.2153,74.0889,,
1390,IN,33,Cavelossim,,15.1667,73.9333,,
1391,IN,24,Sultan,,27.4333,70.9,,
1392,IN,2,Macherla,,16.4833,79.4333,,
1393,IN,24,Jhunjhunu,,28.1307,75.4014,,
1394,IN,25,Tenkasi,,8.9667,77.3,,
1395,IN,16,Wadala,,19.0167,72.85,,
1396,IN,25,Bodinayakkanur,,10.0167,77.35,,
1397,IN,7,Palam,,28.5667,77.1,,
1398,IN,36,Daurala,,29.1167,77.6833,,
1399,IN,13,Mananthavady,,11.8031,76.0039,,
1400,IN,16,Bhayandar,,19.3,72.85,,
1401,IN,36,Jalesar,,27.4833,78.3167,,
1402,IN,2,Narayanpet,,16.7333,77.5,,
1403,IN,2,Salur,,18.5333,83.2167,,
1404,IN,36,Mirzapur,,25.15,82.5833,,
1405,IN,2,Gooty,,15.1167,77.6333,,
1406,IN,11,Dagshai,,30.8833,77.05,,
1407,IN,36,Bijnor,,29.15,78.2667,,
1408,IN,36,Etah,,27.6333,78.6667,,
1409,IN,24,Kekri,,25.9667,75.15,,
1410,IN,9,Wankaner,,22.6167,70.9333,,
1411,IN,16,Dondaicha,,21.3333,74.5667,,
1412,IN,25,Papanasam,,10.9333,79.2833,,
1413,IN,25,Krishnagiri,,12.5333,78.2333,,
1414,IN,13,Neyyattinkara,,8.4,77.0833,,
1415,IN,12,Anantnag,,33.7333,75.15,,
1416,IN,12,Samba,,32.5667,75.1167,,
1417,IN,24,Suratgarh,,29.3167,73.9,,
1418,IN,28,Malda,,25.0333,88.15,,
1419,IN,28,Madhyamgram,,22.7,88.45,,
1420,IN,2,Madhapur,,17.4419,78.3883,,
1421,IN,34,Katihar,,25.5333,87.5833,,
1422,IN,36,Farrukhabad,,27.4,79.5667,,
1423,IN,2,Alampur,,15.8833,78.15,,
1424,IN,21,Balangir,,20.7167,83.4833,,
1425,IN,10,Tohana,,29.7,75.9,,
1426,IN,25,Kottaiyur,,10.1167,78.8167,,
1427,IN,25,Tindivanam,,12.25,79.65,,
1428,IN,21,Talcher,,20.95,85.2167,,
1429,IN,38,Madhupur,,24.25,86.65,,
1430,IN,25,Perambur,,13.1103,80.2425,,
1431,IN,28,Uttarpara,,22.6683,88.3458,,
1432,IN,16,Manmad,,20.25,74.45,,
1433,IN,25,Mylapore,,13.0292,80.2708,,
1434,IN,16,Mahim,,19.0333,72.85,,
1435,IN,36,Meerut City,,28.9833,77.7,,
1436,IN,16,Bhandup,,19.15,72.9333,,
1437,IN,16,Paud,,18.5167,73.6,,
1438,IN,39,Bageshwar,,29.85,79.7667,,
1439,IN,11,Kala Amb,,30.5,77.2,,
1440,IN,23,Jalalabad,,30.6167,74.25,,
1441,IN,16,Murud,,18.3258,72.965,,
1442,IN,10,Jagadhri,,30.1667,77.3,,
1443,IN,23,Fazilka,,30.4,74.0333,,
1444,IN,16,Parbhani,,19.2667,76.7833,,
1445,IN,2,Wanparti,,16.3667,78.0667,,
1446,IN,2,Siddipet,,18.1,78.85,,
1447,IN,2,Madanapalle,,13.55,78.5,,
1448,IN,2,Narasaraopet,,16.25,80.0667,,
1449,IN,2,Hanamkonda,,18.0167,79.6333,,
1450,IN,36,Pilibhit,,28.6333,79.8,,
1451,IN,21,Kantabanji,,20.4833,82.9167,,
1452,IN,9,Bayad,,23.2167,73.2167,,
1453,IN,23,Fatehgarh Sahib,,30.5333,75.7167,,
1454,IN,9,Nargol,,20.2333,72.75,,
1455,IN,36,Firozabad,,27.15,78.4167,,
1456,IN,36,Khurja,,28.25,77.85,,
1457,IN,28,Gangajalghati,,23.4167,87.1167,,
1458,IN,2,Farrukhnagar,,17.0778,78.2011,,
1459,IN,21,Bhadrak,,21.0528,86.52,,
1460,IN,16,Kalamboli,,19.0333,73.1,,
1461,IN,13,Sulthan Bathery,,11.6658,76.2631,,
1462,IN,34,Raxaul,,26.9833,84.85,,
1463,IN,2,Mahbubabad,,17.6167,80.0167,,
1464,IN,3,Gohpur,,26.8833,93.6333,,
1465,IN,2,Pithapuram,,17.1167,82.2667,,
1466,IN,23,Mansa,,29.9833,75.3833,,
1467,IN,19,Jamnal,,16.0333,74.9,,
1468,IN,2,Kondapur,,17.0572,78.9942,,
1469,IN,34,Niranjanpur,,25.15,84.55,,
1470,IN,25,Alangayam,,12.6,78.75,,
1471,IN,36,Dasna,,28.6833,77.5333,,
1472,IN,9,Dharampur,,20.5333,73.1833,,
1473,IN,19,Jade,,14.5833,75.0667,,
1474,IN,2,Kothapet,,19.3333,79.4833,,
1475,IN,28,Haripur,,22.9361,88.2319,,
1476,IN,35,Amba,,24.8333,75.3,,
1477,IN,16,Satana,,20.5833,74.2,,
1478,IN,2,Gadwal,,16.2333,77.8,,
1479,IN,2,Ramapuram,,13.1167,79.2,,
1480,IN,35,Khandwa,,21.8333,76.3333,,
1481,IN,35,Barnagar,,23.05,75.3667,,
1482,IN,2,Nandikotkur,,15.8667,78.2667,,
1483,IN,39,Ramnagar,,29.4,79.1167,,
1484,IN,36,Deoband,,29.7,77.6833,,
1485,IN,16,Sonai,,19.4,74.8167,,
1486,IN,25,Siruseri,,12.8358,80.2025,,
1487,IN,21,Jatni,,20.1667,85.7,,
1488,IN,9,Dhansura,,23.35,73.2,,
1489,IN,37,Kharsia,,21.9667,83.1167,,
1490,IN,19,Kampli,,15.4,76.6167,,
1491,IN,36,Budaun,,28.05,79.1167,,
1492,IN,33,Colva,,15.2667,73.9167,,
1493,IN,28,Balurghat,,25.2167,88.7667,,
1494,IN,37,Gumla,,23.05,84.55,,
1495,IN,28,Sainthia,,23.95,87.6667,,
1496,IN,7,Shahdara,,28.6667,77.3167,,
1497,IN,33,Siolim,,15.6167,73.7667,,
1498,IN,16,Vasind,,19.4167,73.2667,,
1499,IN,16,Trombay,,19.0333,72.9333,,
1500,IN,16,Neral,,19.0333,73.3167,,
1501,IN,23,Mukerian,,31.9506,75.6158,,
1502,IN,36,Maharajganj,,27.1333,83.5667,,
1503,IN,3,Dhing,,26.4667,92.4667,,
1504,IN,23,Sunam,,30.1333,75.8,,
1505,IN,36,Nautanwa,,27.4333,83.4167,,
1506,IN,13,Haripad,,9.3,76.4667,,
1507,IN,28,Mayapur,,22.4167,88.1167,,
1508,IN,19,Muddebihal,,16.3333,76.1333,,
1509,IN,25,Udagamandalam,,11.4,76.7,,
1510,IN,19,Kushalnagar,,12.4667,75.9667,,
1511,IN,2,Cherla,,18.0833,80.8167,,
1512,IN,36,Lakhimpur,,27.95,80.7667,,
1513,IN,19,Bijapur,,16.8333,75.7,,
1514,IN,16,Rajgurunagar,,18.8667,73.9,,
1515,IN,2,Balanagar,,16.9667,78.1667,,
1516,IN,25,Choolai,,13.0897,80.2689,,
1517,IN,30,Hong,,27.5667,93.85,,
1518,IN,2,Patamata,,16.4833,80.65,,
1519,IN,24,Kuala,,23.6167,74.3167,,
1520,IN,16,Talegaon,,19.7,74.3,,
1521,IN,16,Peth,,17.05,74.2333,,
1522,IN,33,Calangute,,15.5333,73.75,,
1523,IN,9,Padra,,22.2333,73.0833,,
1524,IN,9,Vejalpur,,22.6833,73.5667,,
1525,IN,36,Orai,,25.9833,79.4667,,
1526,IN,23,Nangal,,31.3667,76.3833,,
1527,IN,19,Shorapur,,16.5167,76.75,,
1528,IN,9,Surendranagar,,22.7,71.6833,,
1529,IN,25,Sankarankovil,,9.1667,77.55,,
1530,IN,17,Kangpokpi,,25.1333,93.9667,,
1531,IN,25,Chinnammanur,,9.8333,77.3833,,
1532,IN,37,Ambikapur,,23.1167,83.2,,
1533,IN,10,Gohana,,29.1333,76.7,,
1534,IN,19,Mahalingpur,,16.3833,75.1167,,
1535,IN,25,Palayamkottai,,8.7167,77.7333,,
1536,IN,38,Giridih,,24.1833,86.3,,
1537,IN,28,Singur,,22.8092,88.2294,,
1538,IN,25,Tinnanur,,13.1114,80.0261,,
1539,IN,35,Bhusa,,21.9333,74.3,,
1540,IN,2,Suriapet,,17.15,79.6167,,
1541,IN,25,Podanur,,10.95,76.9833,,
1542,IN,2,Miryalguda,,16.8667,79.5833,,
1543,IN,9,Halol,,22.5,73.4667,,
1544,IN,28,Shrirampur,,22.7528,88.3422,,
1545,IN,36,Rath,,25.5833,79.5667,,
1546,IN,39,Kotdwara,,29.75,78.5333,,
1547,IN,9,Godhra,,22.75,73.6333,,
1548,IN,9,Kadi,,23.3,72.3333,,
1549,IN,24,Mahwa,,27.05,76.9333,,
1550,IN,36,Auraiya,,26.4667,79.5167,,
1551,IN,9,Ïdar,,23.8333,73,,
1552,IN,36,Sitapur,,27.5667,80.6833,,
1553,IN,3,Diphu,,25.8333,93.4333,,
1554,IN,24,Pali,,25.7667,73.3333,,
1555,IN,36,Mau,,25.9417,83.5611,,
1556,IN,9,Visnagar,,23.7,72.55,,
1557,IN,25,Valavanur,,11.9167,79.5833,,
1558,IN,19,Sira,,13.7453,76.9092,,
1559,IN,28,Daspur,,22.6,87.7167,,
1560,IN,9,Veraval,,20.9,70.3667,,
1561,IN,35,Harda,,22.3333,77.1,,
1562,IN,9,Siddhapur,,23.9167,72.3833,,
1563,IN,19,Madikeri,,12.4167,75.7333,,
1564,IN,21,Jaleswar,,21.8167,87.2167,,
1565,IN,37,Kanker,,20.2719,81.4931,,
1566,IN,2,Banganapalle,,15.3167,78.2333,,
1567,IN,2,Koduru,,13.9667,79.35,,
1568,IN,10,Narwana,,29.6167,76.1167,,
1569,IN,2,Vikarabad,,17.3333,77.9,,
1570,IN,35,Chapra,,22.7167,76.3333,,
1571,IN,19,Whitefield,,12.9667,77.75,,
1572,IN,2,Tangutur,,15.35,80.05,,
1573,IN,25,Kodambakkam,,13.0481,80.2214,,
1574,IN,2,Paderu,,18.0833,82.6667,,
1575,IN,9,Unjha,,23.8,72.4,,
1576,IN,23,Adampur,,31.4328,75.7175,,
1577,IN,23,Giddarbaha,,30.2,74.6667,,
1578,IN,38,Rajgangpur,,23.2,84.5833,,
1579,IN,33,Sanquelim,,15.5833,74,,
1580,IN,16,Umred,,20.85,79.3333,,
1581,IN,2,Venkatagiri,,13.9667,79.5833,,
1582,IN,36,Kalpi,,26.1167,79.7333,,
1583,IN,34,Madhubani,,26.3667,86.0833,,
1584,IN,36,Sultanpur,,26.2667,82.0667,,
1585,IN,16,Dahanu,,19.9667,72.7333,,
1586,IN,35,Bora,,23.65,76.8,,
1587,IN,33,Ribandar,,15.5,73.85,,
1588,IN,18,Tura,,25.5198,90.2201,,
1589,IN,10,Gharaunda,,29.5375,76.9717,,
1590,IN,19,Bhalki,,18.0333,77.2167,,
1591,IN,21,Phulabani,,20.4667,84.2333,,
1592,IN,34,Gaya,,24.7833,85,,
1593,IN,25,Thoothukudi,,8.7833,78.1333,,
1594,IN,25,Gopichettipalaiyam,,11.4667,77.45,,
1595,IN,39,Kichha,,28.9167,79.5,,
1596,IN,33,Chandor,,15.2833,74.0333,,
1597,IN,16,Vite,,17.2833,74.55,,
1598,IN,25,Alwarpet,,13.0364,80.2578,,
1599,IN,28,Baharampur,,24.1,88.25,,
1600,IN,25,Virugambakkam,,13.0467,80.1931,,
1601,IN,2,Tadpatri,,14.9167,78.0167,,
1602,IN,24,Bharatpur,,27.2167,77.4833,,
1603,IN,13,Edappal,,10.7667,76.0167,,
1604,IN,28,Kulti,,23.7333,86.85,,
1605,IN,19,Haveri,,14.8,75.4,,
1606,IN,3,Hailakandi,,24.6833,92.5667,,
1607,IN,36,Padrauna,,26.9025,83.9819,,
1608,IN,16,Roha,,18.4333,73.1167,,
1609,IN,36,Mariahu,,25.6167,82.6167,,
1610,IN,39,Sitarganj,,28.9333,79.7,,
1611,IN,16,Lasalgaon,,20.15,74.2333,,
1612,IN,19,Tiptur,,13.2586,76.4783,,
1613,IN,25,Saidapet,,13.0231,80.2225,,
1614,IN,16,Aundh,,17.55,74.3333,,
1615,IN,6,Dadará,,20.3167,72.9667,,
1616,IN,25,Kanniyakumari,,8.0761,77.5483,,
1617,IN,2,Nidubrolu,,16.0667,80.5667,,
1618,IN,16,Parli,,18.85,76.5333,,
1619,IN,28,Burnpur,,23.6667,86.9333,,
1620,IN,9,Dharmaj,,22.4167,72.8,,
1621,IN,25,Jolarpettai,,12.5667,78.5833,,
1622,IN,12,Katra,,32.9833,74.95,,
1623,IN,11,Hamirpur,,31.6833,76.5167,,
1624,IN,11,Jammu,,31.2414,77.0367,,
1625,IN,16,Taloda,,21.5667,74.2167,,
1626,IN,9,Mangrol,,21.1167,70.1167,,
1627,IN,24,Gwalior,,24.9333,74.8333,,
1628,IN,24,Balotra,,25.8333,72.2333,,
1629,IN,11,Nagar,,31.2264,77.0553,,
1630,IN,19,Mallapur,,14.4,74.4833,,
1631,IN,25,Pallapatti,,10.7,77.8833,,
1632,IN,28,Belda,,22.0833,87.35,,
1633,IN,28,Habra,,22.8344,88.6275,,
1634,IN,28,Chapra,,22.8825,88.6197,,
1635,IN,36,Pratapgarh,,25.9333,81.9833,,
1636,IN,33,Arambol,,15.7,73.7,,
1637,IN,28,Hasimara,,26.75,89.35,,
1638,IN,28,Basirhat,,22.6572,88.8942,,
1639,IN,35,Raipur,,22.75,77.7833,,
1640,IN,10,Rampur,,29.9253,76.9989,,
1641,IN,36,Sikandarabad,,28.45,77.7,,
1642,IN,10,Indri,,29.88,77.0711,,
1643,IN,16,Durgapur,,20,79.3,,
1644,IN,13,Munnar,,10.1,77.0667,,
1645,IN,25,Srimushnam,,11.4,79.4167,,
1646,IN,16,Phaltan,,17.9833,74.4333,,
1647,IN,38,Daltenganj,,24.0333,84.0667,,
1648,IN,36,Kasganj,,27.8167,78.65,,
1649,IN,21,Sonepur,,20.8333,83.9167,,
1650,IN,21,Jajpur,,20.85,86.3333,,
1651,IN,16,Mahabaleshwar,,17.9167,73.6667,,
1652,IN,16,Jamkhed,,18.6667,75.1833,,
1653,IN,25,Vaniyambadi,,12.6833,78.6167,,
1654,IN,35,Sidhi,,24.4167,81.8833,,
1655,IN,19,Kaiga,,14.85,74.4333,,
1656,IN,36,Basti,,26.8,82.7167,,
1657,IN,28,Sankarpur,,22.8481,88.4553,,
1658,IN,28,Barakpur,,22.7614,88.3719,,
1659,IN,7,Dera,,28.4333,77.1833,,
1660,IN,10,Dharuhera,,28.2167,76.7833,,
1661,IN,39,Uttarkashi,,30.7333,78.45,,
1662,IN,16,Sewri,,19,72.85,,
1663,IN,11,Una,,31.4833,76.2833,,
1664,IN,24,Amer,,26.9833,75.8667,,
1665,IN,36,Shamli,,29.45,77.3167,,
1666,IN,9,Botad,,22.1667,71.6667,,
1667,IN,35,Dabra,,25.9,78.3333,,
1668,IN,7,Karol Bagh,,28.65,77.2,,
1669,IN,34,Munger,,25.3833,86.4667,,
1670,IN,35,Damoh,,23.8333,79.45,,
1671,IN,13,Kuttippuram,,10.8333,76.0667,,
1672,IN,28,Chinsurah,,22.8789,88.3925,,
1673,IN,3,Lakhimpur,,27.2333,94.1167,,
1674,IN,3,Dergaon,,26.7,93.9667,,
1675,IN,19,Chikmagalur,,13.3167,75.7833,,
1676,IN,16,Khamgaon,,20.6833,76.5667,,
1677,IN,12,Doda,,33.1333,75.5667,,
1678,IN,16,Shirala,,16.4667,73.8667,,
1679,IN,19,Siddapur,,14.3333,74.8833,,
1680,IN,17,Kanglatongbi,,24.9833,93.9,,
1681,IN,11,Majra,,30.4833,77.5333,,
1682,IN,26,Khowai,,24.1,91.6333,,
1683,IN,25,Porur,,13.0319,80.1575,,
1684,IN,12,Ban,,32.8292,74.925,,
1685,IN,16,Sopara,,19.4167,72.7833,,
1686,IN,7,Connaught Place,,28.6333,77.2167,,
1687,IN,16,Tardeo,,18.9667,72.8167,,
1688,IN,36,Girdi,,27.4,83.3833,,
1689,IN,25,Vadapalani,,13.0511,80.2125,,
1690,IN,39,Laksar,,29.7667,78.05,,
1691,IN,36,Fatehpur,,25.9333,80.8,,
1692,IN,25,Sattur,,9.3667,77.9333,,
1693,IN,3,Karimganj,,24.8667,92.35,,
1694,IN,16,Udgir,,18.3833,77.1167,,
1695,IN,33,Chinchinim,,15.2,73.9667,,
1696,IN,3,Mariani,,26.6667,94.3333,,
1697,IN,25,Chettikulam,,8.15,77.6,,
1698,IN,19,Patna,,12.7667,74.8667,,
1699,IN,23,Ajnala,,31.8425,74.7589,,
1700,IN,9,Baroda,,22.3,73.2,,
1701,IN,19,Pala,,14.8,75.0333,,
1702,IN,19,Hirekerur,,14.4667,75.3833,,
1703,IN,16,Yeola,,20.0333,74.4833,,
1704,IN,2,Jagtial,,18.8,78.9333,,
1705,IN,28,Kanchrapara,,22.97,88.4319,,
1706,IN,28,Adra,,23.5,86.6667,,
1707,IN,13,Kalpetta,,11.6106,76.0822,,
1708,IN,33,Pernem,,15.7167,73.8,,
1709,IN,37,Jagdalpur,,19.0667,82.0333,,
1710,IN,16,Chiplun,,17.5333,73.5167,,
1711,IN,25,Panruti,,11.7667,79.55,,
1712,IN,38,Jamtara,,23.95,86.8,,
1713,IN,23,Mandi Dabwali,,29.9667,74.7,,
1714,IN,35,Barwaha,,22.2667,76.05,,
1715,IN,25,Ponneri,,13.3167,80.2,,
1716,IN,16,Khadki,,18.5667,73.8667,,
1717,IN,28,Santiniketan,,23.6833,87.6833,,
1718,IN,21,Bhawanipatna,,19.9,83.1667,,
1719,IN,16,Washim,,20.1,77.15,,
1720,IN,9,Manavadar,,21.5,70.1333,,
1721,IN,19,Kollur,,13.8667,74.8,,
1722,IN,2,Dowlaiswaram,,16.95,81.8,,
1723,IN,19,Mudhol,,16.35,75.2833,,
1724,IN,16,Kodoli,,16.8833,74.2,,
1725,IN,9,Palitana,,21.5167,71.8333,,
1726,IN,13,Parappanangadi,,11.05,75.8667,,
1727,IN,2,Markapur,,15.7333,79.2833,,
1728,IN,25,Ambur,,12.7833,78.7,,
1729,IN,35,Datia,,25.6667,78.4667,,
1730,IN,16,Darwha,,20.3167,77.7667,,
1731,IN,21,Nayagarh,,20.1333,85.1,,
1732,IN,23,Fatehgarh Churian,,31.8644,74.9511,,
1733,IN,24,Agucha,,25.8167,74.7167,,
1734,IN,28,Santipur,,23.25,88.4333,,
1735,IN,25,Sirkali,,11.2333,79.7333,,
1736,IN,2,Jadcherla,,16.7667,78.15,,
1737,IN,25,Srivilliputtur,,9.5167,77.6333,,
1738,IN,25,Gudiyattam,,12.95,78.8667,,
1739,IN,10,Guriani,,28.35,76.5167,,
1740,IN,28,Chakdaha,,22.2631,88.3144,,
1741,IN,2,Paloncha,,17.6,80.6833,,
1742,IN,28,Midnapur,,22.4333,87.3333,,
1743,IN,16,Kalwa,,19.2,72.9833,,
1744,IN,19,Koppal,,15.35,76.15,,
1745,IN,33,Santa Cruz,,15.4667,73.8333,,
1746,IN,16,Wada,,18.9833,73.75,,
1747,IN,16,Chikhli,,20.35,76.25,,
1748,IN,21,Kesinga,,20.2,83.2333,,
1749,IN,28,Memari,,23.2,88.1167,,
1750,IN,36,Shikohabad,,27.1,78.6,,
1751,IN,16,Hingoli,,19.7167,77.15,,
1752,IN,13,Pattambi,,10.8167,76.2,,
1753,IN,9,Vijapur,,23.5667,72.75,,
1754,IN,9,Kheralu,,23.8833,72.6167,,
1755,IN,2,Bhongir,,17.5108,78.8889,,
1756,IN,33,Nerul,,15.5,73.7833,,
1757,IN,28,Jamalpur,,23.0667,87.9833,,
1758,IN,36,Chandausi,,28.45,78.7667,,
1759,IN,28,Ichapur,,22.8078,88.3683,,
1760,IN,25,Chromepet,,12.95,80.1333,,
1761,IN,28,Koch Bihar,,26.3167,89.4333,,
1762,IN,35,Multai,,21.7667,78.25,,
1763,IN,9,Mansa,,23.4333,72.6667,,
1764,IN,13,Erattupetta,,9.7,76.7833,,
1765,IN,2,Bodhan,,18.6667,77.9,,
1766,IN,11,Kandaghat,,30.9833,77.1167,,
1767,IN,25,Kaveripattinam,,12.4167,78.2333,,
1768,IN,25,Thiruvarur,,10.7667,79.65,,
1769,IN,28,Arambagh,,22.8833,87.7833,,
1770,IN,35,Seoni,,22.0833,79.5333,,
1771,IN,28,Islampur,,26.2667,88.2,,
1772,IN,33,Quepem,,15.2167,74.0667,,
1773,IN,36,Renukut,,24.2,83.0333,,
1774,IN,35,Petlawad,,23,74.8,,
1775,IN,24,Bundi,,25.4417,75.6417,,
1776,IN,19,Dharwar,,15.4667,75.0167,,
1777,IN,13,Kottarakara,,9,76.8,,
1778,IN,13,Wandoor,,11.2,76.2333,,
1779,IN,28,Shyamnagar,,22.8333,88.3667,,
1780,IN,34,Lakhisarai,,25.1833,86.0833,,
1781,IN,13,Kalady,,10.1667,76.4333,,
1782,IN,9,Rajpipla,,21.7833,73.5667,,
1783,IN,25,Nazareth,,8.5667,77.9833,,
1784,IN,2,Sirpur,,19.4833,79.6,,
1785,IN,2,Amalapuram,,16.5833,82.0167,,
1786,IN,19,Banhatti,,16.4833,75.1333,,
1787,IN,16,Wani,,20.0667,78.95,,
1788,IN,13,Punalur,,9,76.9333,,
1789,IN,28,Bagnan,,22.9242,88.14,,
1790,IN,25,Madipakkam,,12.9725,80.2092,,
1791,IN,25,Villivakkam,,13.105,80.2111,,
1792,IN,38,Salai,,22.3167,85.3333,,
1793,IN,24,Jaisalmer,,26.9167,70.9,,
1794,IN,13,Angadippuram,,10.9667,76.2167,,
1795,IN,2,Penugonda,,16.6667,81.7333,,
1796,IN,3,Numaligarh,,26.6333,93.75,,
1797,IN,28,Gobardanga,,22.8747,88.7586,,
1798,IN,34,Hajipur,,25.6833,85.2167,,
1799,IN,37,Sakti,,22.0333,82.9667,,
1800,IN,16,Tuljapur,,18,76.0833,,
1801,IN,6,Karad,,20.2167,73.05,,
1802,IN,16,Chakur,,17.9667,76.6667,,
1803,IN,28,Champadanga,,22.8333,87.9667,,
1804,IN,19,Bidadi,,12.8167,77.4,,
1805,IN,25,Pudur,,13,79.15,,
1806,IN,28,Chittaranjan,,23.8667,86.8667,,
1807,IN,2,Medchal,,17.6297,78.4814,,
1808,IN,2,Gundugolanu,,16.7833,81.2333,,
1809,IN,16,Agashi,,19.15,73.4667,,
1810,IN,9,Vyara,,21.1167,73.4,,
1811,IN,37,Katghora,,22.5,82.55,,
1812,IN,19,Almatti,,16.35,75.9,,
1813,IN,33,Aldona,,15.5833,73.8667,,
1814,IN,17,Kakching,,24.4833,93.9833,,
1815,IN,28,Bangaon,,23.0667,88.8167,,
1816,IN,25,Vedasandur,,10.5333,77.95,,
1817,IN,33,Assagao,,15.6,73.75,,
1818,IN,36,Khatauli,,29.2833,77.7167,,
1819,IN,33,Pilerne,,15.5333,73.8167,,
1820,IN,13,Pattikkad,,10.55,76.3333,,
1821,IN,34,Samastipur,,25.85,85.7833,,
1822,IN,19,Nagar,,13.8333,75.0167,,
1823,IN,34,Jamalpur,,25.3,86.5,,
1824,IN,10,Ballabgarh,,28.35,77.3167,,
1825,IN,12,Muzaffarpur,,32.5417,74.8972,,
1826,IN,35,Niwas,,23.05,80.4333,,
1827,IN,25,Kancheepuram,,12.8333,79.7167,,
1828,IN,24,Bhadra,,29.1167,75.1667,,
1829,IN,25,Tirumayam,,10.2333,78.75,,
1830,IN,19,Malebennur,,14.35,75.7333,,
1831,IN,24,Chirawa,,28.2401,75.6456,,
1832,IN,13,Melattur,,11.0667,76.2833,,
1833,IN,23,Bagha Purana,,30.6833,75.1,,
1834,IN,23,Tanda,,31.6811,75.6322,,
1835,IN,21,Chatrapur,,19.35,84.9833,,
1836,IN,23,Doraha,,30.8167,76.0167,,
1837,IN,39,Bazpur,,29.15,79.1167,,
1838,IN,2,Renigunta,,13.65,79.5167,,
1839,IN,24,Jhalawar,,24.6,76.15,,
1840,IN,3,Rangia,,26.4667,91.6333,,
1841,IN,37,Chandagar,,22.6333,83.5833,,
1842,IN,28,Ishapore,,22.8078,88.3683,,
1843,IN,39,Naini Tal,,29.3833,79.45,,
1844,IN,16,Shirpur,,21.35,74.8833,,
1845,IN,28,Dubrajpur,,23.8,87.3833,,
1846,IN,3,Nalbari,,26.4167,91.4333,,
1847,IN,24,Karauli,,26.5,77.0167,,
1848,IN,36,Baghpat,,28.95,77.2167,,
1849,IN,7,Chattarpur,,28.5,77.1833,,
1850,IN,16,Loni Kalbhor,,18.45,74.0333,,
1851,IN,9,Songadh,,21.1667,73.5667,,
1852,IN,24,Khetri,,27.9833,75.8,,
1853,IN,2,Dharmavaram,,14.4333,77.7167,,
1854,IN,2,Gokavaram,,17.2667,81.85,,
1855,IN,10,Ratia,,29.6833,75.5833,,
1856,IN,38,Jugsalai,,22.7667,86.1833,,
1857,IN,25,Chinna Salem,,11.65,78.9,,
1858,IN,36,Jahangirabad,,28.4167,78.1,,
1859,IN,13,Parur,,10.15,76.2333,,
1860,IN,2,Huzurnagar,,16.9,79.8833,,
1861,IN,25,Guduvancheri,,12.8425,80.0639,,
1862,IN,23,Bhawanigarh,,30.2667,76.035,,
1863,IN,36,Mawana,,29.0833,77.8667,,
1864,IN,39,Saur,,29.8622,78.5403,,
1865,IN,35,Bar,,25.4,77.0667,,
1866,IN,24,Moras,,24.6833,73.0833,,
1867,IN,16,Banda,,15.8167,73.8667,,
1868,IN,25,Kadayanallur,,9.0833,77.35,,
1869,IN,33,Sanguem,,15.2333,74.1667,,
1870,IN,21,Jagatsinghapur,,20.2667,86.1667,,
1871,IN,36,Patna,,27.8333,81.7667,,
1872,IN,16,Selu,,19.4667,76.4667,,
1873,IN,33,Betim,,15.5,73.8167,,
1874,IN,9,Vadgam,,23.3667,71.7667,,
1875,IN,25,Mettupalayam,,11.1667,78.45,,
1876,IN,16,Sion,,19.0333,72.85,,
1877,IN,25,Gingee,,12.25,79.4167,,
1878,IN,9,Chikhli,,20.75,73.0667,,
1879,IN,28,Sonakhali,,22.8008,88.6725,,
1880,IN,28,Hasnabad,,22.5833,88.9167,,
1881,IN,10,Juan,,29.0667,76.9,,
1882,IN,2,Trimulgherry,,17.4703,78.5167,,
1883,IN,3,Dispur,,26.1425,91.7889,,
1884,IN,33,Orlim,,15.2167,73.9333,,
1885,IN,21,Varanasi,,18.8667,83.8833,,
1886,IN,25,Attur,,11.6,78.6167,,
1887,IN,39,Kol,,30.4978,77.9217,,
1888,IN,19,Kanakapura,,12.55,77.4167,,
1889,IN,33,Merces,,15.4833,73.85,,
1890,IN,19,Balehonnur,,13.35,75.4667,,
1891,IN,2,Srisailam,,16.0833,78.8667,,
1892,IN,24,Jhalrapatan,,24.55,76.1667,,
1893,IN,23,Kot Kapura,,30.5833,74.9,,
1894,IN,16,Kopargaon,,19.8833,74.4833,,
1895,IN,2,Gudur,,17.4833,78.8167,,
1896,IN,9,Valasan,,22.55,72.8833,,
1897,IN,28,Bagula,,23.3167,88.65,,
1898,IN,3,Abhayapuri,,26.3333,90.6667,,
1899,IN,12,Kathua,,32.3667,75.5167,,
1900,IN,7,Darya Ganj,,28.6333,77.25,,
1901,IN,24,Chittaurgarh,,24.8833,74.6333,,
1902,IN,13,Tirurangadi,,11.05,75.9333,,
1903,IN,16,Islampur,,17.05,74.2667,,
1904,IN,16,Nandura,,20.8333,76.45,,
1905,IN,16,Pusad,,19.9,77.5833,,
1906,IN,36,Amroha,,28.9167,78.4667,,
1907,IN,2,Dharmajigudem,,16.8833,80.9833,,
1908,IN,2,Koyyalagudem,,17.1167,81.3,,
1909,IN,16,Majalgaon,,19.15,76.2333,,
1910,IN,7,Tughlakabad,,28.5,77.2667,,
1911,IN,19,Bhatkal,,13.9667,74.5667,,
1912,IN,23,Qadian,,31.8178,75.3919,,
1913,IN,16,Ballarpur,,19.8333,79.35,,
1914,IN,16,Mudkhed,,19.1667,77.5167,,
1915,IN,13,Pandikkad,,11.1,76.2167,,
1916,IN,16,Panchgani,,17.9167,73.8167,,
1917,IN,25,Ashok Nagar,,13.0392,80.2147,,
1918,IN,21,Nimaparha,,20.0667,86.0167,,
1919,IN,11,Sundarnagar,,31.5333,76.8833,,
1920,IN,25,Devakottai,,9.95,78.8167,,
1921,IN,3,Badarpur,,24.9,92.6,,
1922,IN,24,Anta,,25.15,76.3,,
1923,IN,11,Manali,,32.2667,77.1667,,
1924,IN,16,Kurla,,18.75,77.1333,,
1925,IN,39,Khairi,,30.3828,77.8769,,
1926,IN,13,Nileshwar,,12.25,75.1,,
1927,IN,34,Kishanganj,,25.7,86.95,,
1928,IN,19,Sankeshwar,,16.2667,74.4833,,
1929,IN,31,Serchhip,,23.3,92.8333,,
1930,IN,28,Dantan,,21.95,87.2667,,
1931,IN,34,Dhaka,,26.6833,85.1667,,
1932,IN,16,Byculla,,18.9667,72.8333,,
1933,IN,36,Tundla,,27.2,78.2833,,
1934,IN,36,Balrampur,,27.4333,82.1833,,
1935,IN,28,Belgharia,,22.65,88.3833,,
1936,IN,25,Bagalur,,12.8333,77.8667,,
1937,IN,35,Sanawad,,22.1833,76.0667,,
1938,IN,16,Mehkar,,20.15,76.5667,,
1939,IN,28,Singtam,,27.2333,88.5,,
1940,IN,28,Chinsura,,22.8789,88.3925,,
1941,IN,24,Abu Road,,24.4833,72.7833,,
1942,IN,28,Haripal,,22.8219,88.1094,,
1943,IN,36,Sambhal,,28.5833,78.55,,
1944,IN,12,Kulgam,,33.65,75.0167,,
1945,IN,33,Mardol,,15.4333,73.95,,
1946,IN,34,Purnia,,25.7833,87.4667,,
1947,IN,3,Dhupdhara,,25.9667,91.0667,,
1948,IN,23,Dasuya,,31.8183,75.6597,,
1949,IN,2,Palakollu,,16.5333,81.7333,,
1950,IN,33,Mandrem,,15.65,73.7,,
1951,IN,38,Asansol,,24.2333,87.2833,,
1952,IN,28,Dakshin,,22.0997,88.0219,,
1953,IN,36,Hasanpur,,28.7167,78.2833,,
1954,IN,28,Amta,,22.58,88.0083,,
1955,IN,23,Sultanpur,,31.2153,75.1997,,
1956,IN,7,Jharoda Kalan,,28.6528,76.9539,,
1957,IN,28,Dinhata,,26.1333,89.4667,,
1958,IN,2,Tadepalle,,16.4667,80.6,,
1959,IN,33,Bastora,,15.5833,73.8167,,
1960,IN,12,Jaura,,33.0833,75.8,,
1961,IN,23,Khem Karan,,31.1428,74.5667,,
1962,IN,7,Delhi Paharganj,,28.6167,77.2167,,
1963,IN,16,Borivli,,19.2333,72.85,,
1964,IN,7,Delhi Sabzimandi,,28.6833,77.2,,
1965,IN,35,Kasrawad,,22.1333,75.6,,
1966,IN,34,Sonpur,,25.7,85.1833,,
1967,IN,16,Bombay Bandra,,19.05,72.8333,,
1968,IN,24,Makrana,,27.05,74.7167,,
1969,IN,24,Udaipur City,,24.5833,73.6833,,
1970,IN,28,Medinipur,,22.4333,87.3333,,
1971,IN,35,Mandla,,22.6,80.3833,,
1972,IN,39,Kathgodam,,29.2667,79.5333,,
1973,IN,28,Panskura,,22.4167,87.7,,
1974,IN,25,Koradacheri,,10.7667,79.4833,,
1975,IN,25,Koimbatore,,10.9925,76.9614,,
1976,IN,12,Adipur,,34.2708,74.4889,,
1977,IN,34,Bihta,,25.55,84.8667,,
1978,IN,28,Kola,,22.45,87.8667,,
1979,IN,36,Dhanaura,,28.9667,78.25,,
1980,IN,25,Shencottah,,8.9667,77.2667,,
1981,IN,33,Raia,,15.3,73.9667,,
1982,IN,19,Anekal,,12.7,77.7,,
1983,IN,34,Patna City,,25.5833,85.25,,
1984,IN,23,Talwara,,31.9486,75.8667,,
1985,IN,37,Dhamtari,,20.7072,81.5497,,
1986,IN,25,Periyakulam,,10.1167,77.55,,
1987,IN,36,Atarra,,25.2833,80.5667,,
1988,IN,2,Jammalamadugu,,14.8333,78.4,,
1989,IN,33,Loutolim,,15.3333,73.9833,,
1990,IN,17,Churachandpur,,24.3333,93.6667,,
1991,IN,28,Chandpara,,22.9667,88.7833,,
1992,IN,1,Calicut,,11.6,92.7333,,
1993,IN,35,Maharajpur,,22.6,80.3667,,
1994,IN,19,Mallesvaram,,12.9833,77.5667,,
1995,IN,16,Kalba Devi,,18.9333,72.8167,,
1996,IN,16,Ambajogai,,18.7333,76.3833,,
1997,IN,24,Nasirabad,,26.3,74.7333,,
1998,IN,7,Delhi Cantonment,,28.6,77.1333,,
1999,IN,7,Roshanpura,,28.6008,76.9889,,
2000,IN,16,Bombay Byculla,,18.9667,72.8333,,
2001,IN,16,Bombay Girgaon,,18.95,72.8167,,
2002,IN,16,Ballard Estate,,18.9333,72.8333,,
2003,IN,24,Parvatsar,,26.8833,74.7667,,
2004,IN,25,Adyar,,13.0044,80.2583,,
2005,IN,9,Khambhaliya,,22.2072,69.6683,,
2006,IN,36,Utraula,,27.3167,82.4167,,
2007,IN,16,Mahad,,18.0833,73.4167,,
2008,IN,21,Bolani,,22.1,85.3167,,
2009,IN,16,Ghansoli,,19.1167,72.9833,,
2010,IN,16,Indapur,,18.3,73.25,,
2011,IN,36,Rae Bareli,,26.2167,81.2333,,
2012,IN,2,Vijayawada Buckinghampet,,16.5,80.6333,,
2013,IN,10,Nagina,,27.9167,76.9833,,
2014,IN,19,Tavarekeri,,12.9167,77.6167,,
2015,IN,25,Vriddhachalam,,11.5,79.3333,,
2016,IN,10,Sohna,,28.25,77.0667,,
2017,IN,16,Hinganghat,,20.5667,78.8333,,
2018,IN,16,Shahada,,21.4667,74.3,,
2019,IN,25,Ambasamudram,,8.7,77.4667,,
2020,IN,33,Assonora,,15.6,73.8833,,
2021,IN,39,Jaspur,,29.2833,78.8167,,
2022,IN,2,Narasapur,,16.45,81.6667,,
2023,IN,25,Porayar,,11.0167,79.8333,,
2024,IN,36,Barla,,27.9167,78.3333,,
2025,IN,9,Viramgam,,23.1167,72.0333,,
2026,IN,37,Akaltara,,22.0167,82.4333,,
2027,IN,2,Palasa,,18.7667,84.4167,,
2028,IN,23,Jallan,,30.6997,76.0574,,
2029,IN,9,Dhoraji,,21.7333,70.45,,
2030,IN,9,Vallabh Vidhyanagar,,22.5333,72.9,,
2031,IN,28,Calcutta Ballygunge,,22.5333,88.3667,,
2032,IN,16,Vairag,,18.05,75.8,,
2033,IN,13,Tanur,,10.9667,75.8667,,
2034,IN,36,Daryapur,,26.65,80.6,,
2035,IN,13,Thanniyam,,10.4167,76.1333,,
2036,IN,10,Khandsa,,28.4167,77,,
2037,IN,7,Samalkha,,28.5333,77.0833,,
2038,IN,23,Chanarthal,,30.5194,76.3456,,
2039,IN,23,Ghanaur,,30.3322,76.6072,,
2040,IN,28,Salbanni,,23.0667,86.2667,,
2041,IN,9,Balamba,,22.7167,70.4333,,
2042,IN,7,Kalkaji Devi,,28.55,77.2667,,
2043,IN,7,Fort Tughlakabad,,28.5,77.2667,,
2044,IN,19,Sarjapur,,12.8167,77.7833,,
2045,IN,10,Asaudah,,28.7514,76.8731,,
2046,IN,9,Walan,,21.95,73.0833,,
2047,IN,9,Desar,,22.7167,73.2833,,
2048,IN,25,Murtinayakkanpatti,,11.3,78.1333,,
2049,IN,23,Bhindar,,31.5333,75.1833,,
2050,IN,28,Sarisha,,22.2419,88.1878,,
2051,IN,28,Ondal,,23.6,87.2,,
2052,IN,10,Hodal,,27.9,77.3667,,
2053,IN,24,Sojat,,25.9167,73.6667,,
2054,IN,21,Baisinga,,21.6519,86.9364,,
2055,IN,16,Diva,,19.1333,72.9833,,
2056,IN,10,Sampla,,28.7764,76.7667,,
2057,IN,28,Namchi,,27.1667,88.35,,
2058,IN,19,Guledgudd,,16.05,75.8,,
2059,IN,16,Palus,,17.0833,74.4667,,
2060,IN,16,Umbraj,,17.4,74.1167,,
2061,IN,25,Pattukkottai,,10.4333,79.3167,,
2062,IN,10,Radaur,,30.0333,77.15,,
2063,IN,38,Sindri,,22.8,85.9833,,
2064,IN,13,Kalikavu,,11.1667,76.3333,,
2065,IN,16,Kopar,,18.7111,72.9608,,
2066,IN,11,Bharmar,,32.1833,75.95,,
2067,IN,2,Pedda Bashirabad,,17.5139,78.4828,,
2068,IN,16,Manori,,19.2,72.7833,,
2069,IN,11,Junga,,31.0167,77.1833,,
2070,IN,23,Makandpur,,30.5958,76.6328,,
2071,IN,2,Pipalpahad,,17.2231,78.8492,,
2072,IN,33,Arpora,,15.5667,73.7667,,
2073,IN,6,Dadra,,20.3167,72.9667,,
2074,IN,25,Kovai,,10.9925,76.9614,,
2075,IN,38,Barakar,,24.1167,86.2333,,
2076,IN,28,Dumjor,,22.6408,88.2203,,
2077,IN,37,Barabanki,,20.4333,82.7167,,
2078,IN,19,Belluru,,12.9911,76.7444,,
2079,IN,19,Honavar,,14.2833,74.45,,
2080,IN,16,Gadhinglaj,,16.2333,74.35,,
2081,IN,16,Bhokardan,,20.2667,75.7667,,
2082,IN,28,Binnaguri,,26.65,88.4667,,
2083,IN,25,Manamadurai,,9.7,78.4833,,
2084,IN,2,Pendurti,,17.8333,83.2,,
2085,IN,34,Jamui,,24.9167,86.2167,,
2086,IN,9,Keshod,,21.3,70.25,,
2087,IN,2,Nizampet,,17.1583,78.0058,,
2088,IN,3,Barpeta,,26.3167,91,,
2089,IN,21,Kendrapara,,20.5,86.4167,,
2090,IN,24,Rawatbhata,,24.9333,75.5833,,
2091,IN,23,Fatehpur,,30.6425,76.0897,,
2092,IN,28,Bakhra,,22.395,88.2092,,
2093,IN,10,Bhagal,,30.0669,76.4194,,
2094,IN,10,Kohra,,30.8833,76.8167,,
2095,IN,23,Boras,,30.5981,76.5317,,
2096,IN,16,Bombay Dharavi,,19.05,72.8667,,
2097,IN,11,Kasauli,,30.8989,76.9647,,
2098,IN,10,Kheri Jasaur,,28.7828,76.8642,,
2099,IN,16,Bombay Mazagaon,,18.9681,72.845,,
2100,IN,2,Akividu,,16.6,81.3833,,
2101,IN,28,Canning,,22.3189,88.6714,,
2102,IN,16,Pirangut,,18.5,73.7,,
2103,IN,34,Rajgir,,25.0333,85.4167,,
2104,IN,19,Gundlupet,,11.8,76.6833,,
2105,IN,24,Karanpura,,29.8419,73.4542,,
2106,IN,21,Burla,,21.5,83.8667,,
2107,IN,21,Patnagarh,,20.7167,83.15,,
2108,IN,25,Turaiyur,,11.1667,78.6167,,
2109,IN,3,Mangaldai,,26.4333,92.0333,,
2110,IN,19,Belgami,,14.4167,75.2333,,
2111,IN,2,Allagadda,,15.1333,78.5167,,
2112,IN,2,Huzurabad,,18.2,79.4167,,
2113,IN,28,Khatra,,22.9833,86.85,,
2114,IN,2,Yellakonda,,17.4392,78.0372,,
2115,IN,9,Antapur,,20.95,73.4167,,
2116,IN,24,Sheoganj,,25.15,73.0667,,
2117,IN,25,Perumanallur,,11.2,77.3667,,
2118,IN,16,Sakol,,18.2833,76.8833,,
2119,IN,36,Kaimganj,,27.5667,79.35,,
2120,IN,28,Kakdwip,,21.8833,88.1833,,
2121,IN,2,Kankipadu,,16.45,80.7833,,
2122,IN,28,Pandua,,23.0833,88.2833,,
2123,IN,35,Dhamnod,,22.2167,75.4667,,
2124,IN,2,Jaggayyapeta,,16.9,80.1,,
2125,IN,19,Kerur,,16.0167,75.5667,,
2126,IN,2,Anakapalle,,17.6833,83.0167,,
2127,IN,2,Ganapavaram,,16.7,81.4667,,
2128,IN,20,Zunheboto,,25.9667,94.5167,,
2129,IN,10,Ladwa,,29.9944,77.0444,,
2130,IN,9,Vasad,,22.45,73.0667,,
2131,IN,39,Pat,,29.9592,78.6206,,
2132,IN,13,Edayar,,10.9333,76.1,,
2133,IN,16,Takwa Budrukh,,18.8,73.6,,
2134,IN,36,Farrukhnagar,,28.7167,77.3833,,
2135,IN,16,Takalghat,,20.9167,78.9,,
2136,IN,2,Patagunta,,13.45,79.2833,,
2137,IN,10,Sorkhi,,29.05,76.1333,,
2138,IN,24,Badhal,,27.2667,75.4333,,
2139,IN,36,Ballia,,28.2,79.3667,,
2140,IN,16,Tasgaon,,17.0333,74.6,,
2141,IN,16,Faizpur,,21.1667,75.85,,
2142,IN,36,Deoria,,26.5047,83.7872,,
2143,IN,11,Nagrota,,32.05,76.0833,,
2144,IN,13,Mala,,10.25,76.2667,,
2145,IN,35,Maheshwar,,22.1833,75.5833,,
2146,IN,37,Rajim,,20.9658,81.8808,,
2147,IN,21,Gunupur,,19.0833,83.8167,,
2148,IN,24,Rajsamand,,25.0667,73.8833,,
2149,IN,2,Undi,,16.6,81.4667,,
2150,IN,35,Pandhurna,,21.6,78.5167,,
2151,IN,16,Rahuri,,19.3833,74.65,,
2152,IN,2,Peddapalli,,18.6167,79.3667,,
2153,IN,23,Beas,,31.5167,75.3044,,
2154,IN,16,Narayangaon,,19.1167,73.9833,,
2155,IN,24,Jasol,,25.8167,72.2167,,
2156,IN,2,Secundurabad,,17.45,78.5,,
2157,IN,18,Jowai,,25.45,92.2,,
2158,IN,23,Golewala,,30.7833,74.7,,
2159,IN,16,Nethersole Dam,,18.85,73.5667,,
2160,IN,10,Beri,,28.7,76.5833,,
2161,IN,24,Harsani,,25.9667,70.7833,,
2162,IN,19,Bantwall,,12.9,75.0333,,
2163,IN,36,Seohara,,29.2167,78.5833,,
2164,IN,25,Kulasekharam,,8.3667,77.3,,
2165,IN,16,Pachora,,20.6667,75.35,,
2166,IN,28,Howrah Salkia,,22.5833,88.35,,
2167,IN,9,Dekawara,,23.35,72.15,,
2168,IN,13,Tripunittura,,9.95,76.35,,
2169,IN,28,Murshidabad,,24.1833,88.2667,,
2170,IN,19,Hebri,,13.4667,74.9833,,
2171,IN,9,Valia,,21.5667,73.1667,,
2172,IN,28,Beldanga,,23.9333,88.25,,
2173,IN,19,Jadgenhalli,,13.05,77.85,,
2174,IN,30,Budh,,27.9,96.5167,,
2175,IN,19,Manipala,,13.35,74.7833,,
2176,IN,35,Rajgarh,,22.6833,74.95,,
2177,IN,10,Ramnagar,,29.4056,76.9736,,
2178,IN,39,Ranikhet,,29.65,79.4167,,
2179,IN,10,Shahzadpur,,30.45,77.0333,,
2180,IN,28,Biswanath,,22.0367,88.0486,,
2181,IN,2,Bhadrachalam,,17.6667,80.8833,,
2182,IN,19,Badami,,15.9167,75.6833,,
2183,IN,23,Chabal,,31.4836,74.7931,,
2184,IN,9,Mogri,,22.5333,72.9333,,
2185,IN,16,Madh,,19.15,72.8333,,
2186,IN,16,Bombay Mahim,,19.0333,72.85,,
2187,IN,26,Kailasahar,,24.3333,92.0167,,
2188,IN,19,Ilkal,,15.9667,76.1333,,
2189,IN,36,Bahraich,,27.5833,81.6,,
2190,IN,2,Penuganchiprolu,,16.9167,80.25,,
2191,IN,28,Rangamati,,26.8167,89.4333,,
2192,IN,11,Rohru,,31.2167,77.75,,
2193,IN,36,Chandauli,,25.2667,83.2667,,
2194,IN,33,Agacaim,,15.4167,73.9,,
2195,IN,7,New Cantonment,,28.6,77.1333,,
2196,IN,24,Baran,,25.1,76.5167,,
2197,IN,25,Sankari Drug,,11.4667,77.8833,,
2198,IN,38,Itkhori,,24.2833,85.1667,,
2199,IN,25,Gandarvakottai,,10.6,79.0167,,
2200,IN,36,Chunar,,25.1333,82.9,,
2201,IN,3,Ginjia,,26.8333,93.25,,
2202,IN,7,Badarpur,,28.5167,77.3333,,
2203,IN,16,Turambhe,,19.0667,73.0167,,
2204,IN,38,Rohini,,24.4833,86.65,,
2205,IN,36,Siyana,,28.6333,78.05,,
2206,IN,16,Mahalaxmi,,18.9833,72.8,,
2207,IN,11,Jeori,,31.2489,77.0944,,
2208,IN,10,Kanina,,28.3333,76.3167,,
2209,IN,2,Albaka,,18.2167,80.6667,,
2210,IN,10,Gorakhpur,,29.45,75.6833,,
2211,IN,39,Khatima,,28.9167,79.9667,,
2212,IN,9,Amroli,,21.3,72.85,,
2213,IN,16,Tumsar,,21.3833,79.7333,,
2214,IN,2,Annaram,,17.0222,78.1797,,
2215,IN,25,Tiruchchendur,,8.4833,78.1167,,
2216,IN,21,Balliguda,,20.2,83.9167,,
2217,IN,3,Udalguri,,26.7667,92.1333,,
2218,IN,33,Velim,,15.15,73.9667,,
2219,IN,16,Sillod,,20.3,75.65,,
2220,IN,13,Konni,,9.2333,76.8667,,
2221,IN,23,Jassowal,,30.8,75.8167,,
2222,IN,25,Madras Rayapuram,,13.1072,80.2953,,
2223,IN,36,Babrala,,28.2667,78.4,,
2224,IN,36,Gajraula,,28.85,78.2333,,
2225,IN,36,Mahoba,,25.2833,79.8667,,
2226,IN,34,Kesariya,,26.3667,84.8667,,
2227,IN,37,Nagar,,23.2667,82.45,,
2228,IN,38,Salukdih,,23.1,85.8333,,
2229,IN,16,Karla,,18.75,73.4833,,
2230,IN,19,Golhalli,,13.1667,77.4,,
2231,IN,36,Sarauli,,28.5,79.1,,
2232,IN,23,Khizrabad,,30.8789,76.6597,,
2233,IN,7,Shakurpur,,28.6833,77.15,,
2234,IN,28,Palta,,22.7833,88.3667,,
2235,IN,25,Chrompet,,12.95,80.1333,,
2236,IN,23,Budhlada,,29.9333,75.5667,,
2237,IN,19,Kollegal,,12.15,77.1167,,
2238,IN,16,Vinchur,,20.1,74.2167,,
2239,IN,2,Dwarapudi,,16.95,81.9333,,
2240,IN,39,Srinagar,,30.2167,78.7833,,
2241,IN,25,Sholinghur,,13.1167,79.4167,,
2242,IN,10,Baras,,29.7333,76.75,,
2243,IN,19,Nelamangala,,13.1022,77.39,,
2244,IN,11,Tira Sujanpur,,31.8333,76.5,,
2245,IN,20,Mokokchung,,26.3333,94.5333,,
2246,IN,24,Daosa,,26.8833,76.3333,,
2247,IN,2,Jogipet,,17.8347,78.0675,,
2248,IN,36,Raipur,,29.5328,77.4178,,
2249,IN,24,Bijainagar,,25.9333,74.6333,,
2250,IN,35,Badnawar,,23.0167,75.2167,,
2251,IN,13,Dharmadam,,11.7833,75.4333,,
2252,IN,36,Sisauli,,29.4167,77.4667,,
2253,IN,37,Janjgir,,22.0167,82.5667,,
2254,IN,19,Channagiri,,14.0333,75.9333,,
2255,IN,16,Khapa,,20.9167,78.95,,
2256,IN,28,Panagarh,,23.45,87.4333,,
2257,IN,28,Baduria,,22.7417,88.7858,,
2258,IN,2,Nekarikallu,,16.3833,79.95,,
2259,IN,12,Tral,,33.9333,75.1,,
2260,IN,36,Najibabad,,29.6333,78.3333,,
2261,IN,10,Mahendragarh,,28.2833,76.15,,
2262,IN,25,Saint Thomas Mount,,12.9964,80.2031,,
2263,IN,36,Mainpuri,,27.2333,79.0167,,
2264,IN,28,Gangarampur,,25.4,88.5167,,
2265,IN,25,Kilvelur,,10.7667,79.7333,,
2266,IN,9,Thasra,,22.8,73.2167,,
2267,IN,2,Devanakonda,,15.5333,77.55,,
2268,IN,38,Kodarma,,24.4333,85.5167,,
2269,IN,16,Apta,,18.8667,73.1333,,
2270,IN,2,Anojiguda,,17.4306,78.655,,
2271,IN,36,Landhaura,,29.7192,77.3806,,
2272,IN,11,Jawala Mukhi,,31.8833,76.3167,,
2273,IN,25,Adambakkam,,12.9925,80.2044,,
2274,IN,2,Kodumur,,15.6833,77.7833,,
2275,IN,28,Calcutta Bagh Bazar,,22.6,88.3667,,
2276,IN,16,Paratwada,,21.3019,77.5178,,
2277,IN,16,Karli,,18.75,73.4833,,
2278,IN,23,Talwandi Sabo,,29.9833,75.0833,,
2279,IN,21,Katni,,20.3,85.7167,,
2280,IN,28,Nabagram,,22.2881,88.5092,,
2281,IN,25,Surandai,,8.9667,77.4,,
2282,IN,11,Nadaun,,31.7833,76.35,,
2283,IN,16,Akluj,,17.9,75.0333,,
2284,IN,10,Siwani,,28.9167,75.6167,,
2285,IN,7,Azadpur,,28.7167,77.1833,,
2286,IN,10,Sadhaura,,30.3833,77.2167,,
2287,IN,9,Una,,20.8167,71.0333,,
2288,IN,39,Vikasnagar,,30.4683,77.775,,
2289,IN,2,Repalle,,16.0167,80.85,,
2290,IN,2,Shadnagar,,17.0703,78.2058,,
2291,IN,9,Dhrangadhra,,22.9833,71.4667,,
2292,IN,28,Lalgola,,24.4167,88.25,,
2293,IN,28,Khargram,,24.0333,87.9833,,
2294,IN,9,Sayla,,22.55,71.4667,,
2295,IN,9,Kakosi,,24,72.3,,
2296,IN,11,Dera Gopipur,,31.9,76.2167,,
2297,IN,16,Mire,,19.2667,72.8833,,
2298,IN,3,Haulighat,,26.2667,91.3667,,
2299,IN,36,Siswa Bazar,,27.15,83.7667,,
2300,IN,9,Bhujpur,,22.8667,69.6333,,
2301,IN,16,Varangaon,,21.0167,75.9,,
2302,IN,2,Bantumilli,,16.35,81.2833,,
2303,IN,16,Basmat,,19.3167,77.1667,,
2304,IN,3,Jamduar,,26.7167,89.8833,,
2305,IN,39,Katra,,30.4264,77.9756,,
2306,IN,9,Limbdi,,22.5667,71.8,,
2307,IN,9,Jasdan,,22.0333,71.2,,
2308,IN,9,Lathi,,21.7167,71.3833,,
2309,IN,36,Mazra Pathanpur,,29.5661,77.3278,,
2310,IN,10,Dhauj,,28.35,77.2,,
2311,IN,36,Dataganj,,28.0333,79.4,,
2312,IN,37,Arang,,21.2,81.9667,,
2313,IN,38,Dumka,,24.2667,87.25,,
2314,IN,34,Motihari,,26.65,84.9167,,
2315,IN,34,Barh,,25.4833,85.7167,,
2316,IN,16,Mantha,,19.6667,76.3833,,
2317,IN,35,Burhanpur,,21.3,76.2333,,
2318,IN,9,Kunkavar,,21.6333,70.9833,,
2319,IN,3,Kalaigaon,,26.5833,91.9667,,
2320,IN,19,Maski,,15.9667,76.6667,,
2321,IN,16,Sarni,,18.75,75.9,,
2322,IN,24,Dungarpur,,23.8333,73.7167,,
2323,IN,2,Narsipatnam,,17.6667,82.6167,,
2324,IN,36,Chiraiyakot,,25.8833,83.3333,,
2325,IN,19,Nargund,,15.7167,75.3833,,
2326,IN,11,Sabathu,,30.9719,76.9933,,
2327,IN,25,Madras Mylapore,,13.0292,80.2708,,
2328,IN,36,Sandila,,27.0833,80.5167,,
2329,IN,28,Chandrakona,,22.7333,87.5167,,
2330,IN,2,Kamavarapukota,,17.0167,81.2,,
2331,IN,2,Kondapalle,,16.6167,80.5333,,
2332,IN,25,Madras Nungambakan,,13.0606,80.2344,,
2333,IN,25,Villapurum,,11.9333,79.4833,,
2334,IN,9,Jambusar,,22.05,72.8,,
2335,IN,21,Baliapal,,21.6667,87.2833,,
2336,IN,36,Afzalgarh,,29.4,78.6833,,
2337,IN,28,Jiaganj,,24.2333,88.2667,,
2338,IN,9,Rabda,,22.1333,70.7833,,
2339,IN,2,Pedana,,16.2667,81.1667,,
2340,IN,36,Kandhla,,29.3167,77.2667,,
2341,IN,11,Namoli,,31.2667,76.85,,
2342,IN,25,Minjur,,13.2667,80.2667,,
2343,IN,16,Adad,,18.3911,72.9508,,
2344,IN,2,Sadasivpet,,17.6167,77.95,,
2345,IN,23,Maur,,30.0833,75.25,,
2346,IN,2,Nagayalanka,,15.95,80.9167,,
2347,IN,9,Bhanvad,,21.9264,69.7736,,
2348,IN,2,Bhainsa,,19.1,77.9667,,
2349,IN,10,Rania,,29.5333,74.8333,,
2350,IN,2,Appikatla,,15.9667,80.5,,
2351,IN,16,Kamthi,,21.2333,79.2,,
2352,IN,38,Chatra,,24.2167,84.8667,,
2353,IN,28,Pakaur,,24.6333,87.85,,
2354,IN,28,Maldah,,25.0333,88.15,,
2355,IN,34,Ballia,,25.75,84.1667,,
2356,IN,28,Titagarh,,22.7364,88.3736,,
2357,IN,21,Katakiasahi,,20.4667,85.7333,,
2358,IN,10,Gobindgarh,,29.9586,77.0289,,
2359,IN,2,Kazipet,,17.9667,79.5,,
2360,IN,16,Madha,,18.0167,75.5167,,
2361,IN,13,Mukkad,,8.9,76.55,,
2362,IN,25,Harur,,12.0667,78.5,,
2363,IN,13,Manimala,,9.4833,76.75,,
2364,IN,28,Kalimpang,,27.0667,88.4833,,
2365,IN,9,Dahod,,22.8333,74.2667,,
2366,IN,37,Bilaigarh,,21.65,82.7167,,
2367,IN,9,Ahwa,,20.75,73.6833,,
2368,IN,34,Arwal,,25.25,84.6833,,
2369,IN,34,Chhapra,,25.7667,84.75,,
2370,IN,25,Alandurai,,10.9333,76.8,,
2371,IN,10,Dabwali,,29.95,74.7333,,
2372,IN,3,Bokajan,,26.0167,93.7833,,
2373,IN,19,Chikodi,,16.4333,74.6,,
2374,IN,25,Puduvayal,,13.3333,80.1667,,
2375,IN,2,Pamarru,,16.3167,80.95,,
2376,IN,2,Phirangipuram,,16.3,80.2667,,
2377,IN,12,Baramula,,34.2111,74.3408,,
2378,IN,11,Kangar,,31.2239,77.1175,,
2379,IN,34,Sitamarhi,,26.6,85.4833,,
2380,IN,25,Perungudi,,12.9714,80.2472,,
2381,IN,25,Mayavaram,,11.1,79.6667,,
2382,IN,11,Daulatpur,,32.0667,76.25,,
2383,IN,2,Avanigadda,,16.0167,80.9167,,
2384,IN,36,Behat,,30.1667,77.6167,,
2385,IN,2,Rajampet,,14.1833,79.1667,,
2386,IN,10,Bawal,,28.0833,76.5833,,
2387,IN,2,Puttur,,13.45,79.55,,
2388,IN,35,Umaria,,23.5333,80.8333,,
2389,IN,23,Bhogpur,,31.55,75.6325,,
2390,IN,19,Pavagada,,14.1,77.2667,,
2391,IN,10,Diwana,,29.3139,76.9717,,
2392,IN,21,Tarabha,,20.7333,83.65,,
2393,IN,12,Ganderbal,,34.2333,74.7833,,
2394,IN,10,Koali,,28.9172,76.9647,,
2395,IN,25,Poonamallee,,13.0483,80.1075,,
2396,IN,36,Islamnagar,,28.3333,78.7167,,
2397,IN,3,Dhekiajuli,,26.7,92.5,,
2398,IN,2,Hanumakonda,,18.0167,79.6333,,
2399,IN,26,Madhupur,,23.7333,91.2333,,
2400,IN,6,Naroli,,20.2833,72.95,,
2401,IN,16,Malkapur,,16.9333,73.9167,,
2402,IN,2,Kanigiri,,15.4,79.5167,,
2403,IN,28,Karimpur,,23.9667,88.6167,,
2404,IN,9,Chanasma,,23.7167,72.1167,,
2405,IN,23,Makhu,,31.1033,74.9978,,
2406,IN,2,Venkatapuram,,17.2514,78.2453,,
2407,IN,2,Mated,,17.5667,79.7,,
2408,IN,25,Gummidipundi,,13.4,80.15,,
2409,IN,36,Sarurpur,,29.0333,77.2333,,
2410,IN,25,Udamalpet,,10.5833,77.25,,
2411,IN,10,Jakhal Mandi,,29.8,75.8333,,
2412,IN,28,Palashi,,23.8,88.25,,
2413,IN,16,Raipur,,20.4,76.15,,
2414,IN,16,Achalpur,,21.2572,77.5086,,
2415,IN,17,Thoubal,,24.6333,94.0167,,
2416,IN,21,Kochinda,,21.7333,84.35,,
2417,IN,36,Akbarpur,,26.3833,79.95,,
2418,IN,9,Sarkhej,,22.9833,72.5,,
2419,IN,24,Tijara,,27.9333,76.85,,
2420,IN,37,Sarangarh,,21.6,83.0833,,
2421,IN,28,Manipur,,22.2819,88.9111,,
2422,IN,39,Bhowali,,29.3833,79.5167,,
2423,IN,13,Thalavady,,9.35,76.5333,,
2424,IN,16,Sheva Nhava,,18.9625,72.9664,,
2425,IN,28,Begunkodar,,23.3667,86.05,,
2426,IN,23,Taunsa,,30.6306,76.1167,,
2427,IN,33,Pale,,15.4667,74.0833,,
2428,IN,19,Ainapur,,16.6667,74.9,,
2429,IN,12,Sumbal,,34.2333,74.6333,,
2430,IN,11,Nangal Dam,,31.4,76.3667,,
2431,IN,24,Dariba,,24.95,74.1333,,
2432,IN,3,Nilambazar,,24.75,92.35,,
2433,IN,28,Ramchandrapur,,22.8964,88.4753,,
2434,IN,28,Khirpai,,22.7,87.6167,,
2435,IN,24,Nawalgarh,,27.85,75.2667,,
2436,IN,35,Garhakota,,23.7667,79.15,,
2437,IN,28,Kandi,,23.95,88.0333,,
2438,IN,25,Velur,,11.1,78.0167,,
2439,IN,36,Hastinapur,,29.1667,78.0167,,
2440,IN,21,Salepur,,20.4833,86.1,,
2441,IN,13,Aranmula,,9.3333,76.6833,,
2442,IN,38,Chakulia,,22.4833,86.7167,,
2443,IN,12,Nawan,,33.9,74.3306,,
2444,IN,28,Hadia,,22.1303,88.0483,,
2445,IN,19,Bengaluru,,12.9833,77.5833,,
2446,IN,16,Poona,,18.5333,73.8667,,
2447,IN,25,Taramani,,12.9819,80.2406,,
2448,IN,11,Narkanda,,31.2667,77.45,,
2449,IN,3,Kumbhir,,24.9167,92.9833,,
2450,IN,10,Bilaspur,,30.3167,77.3167,,
2451,IN,34,Khagaria,,25.5,86.4833,,
2452,IN,25,Arimalam,,10.2667,78.9,,
2453,IN,10,Pataudi,,28.3167,76.7833,,
2454,IN,12,Kundan,,33.8042,74.2583,,
2455,IN,28,Kankinara,,22.8628,88.3981,,
2456,IN,2,Vinukonda,,16.05,79.75,,
2457,IN,16,Daund,,18.4667,74.6,,
2458,IN,13,Vypeen,,9.9667,76.25,,
2459,IN,38,Patratu,,23.6667,85.2833,,
2460,IN,21,Padmapur,,21,83.0667,,
2461,IN,21,Barpali,,21.2,83.5833,,
2462,IN,28,Egra,,21.9,87.5333,,
2463,IN,13,Alanallur,,11.0167,76.35,,
2464,IN,16,Dapodi,,18.5667,73.8167,,
2465,IN,10,Ismailabad,,30.1176,76.6677,,
2466,IN,9,Gandevi,,20.8167,72.9833,,
2467,IN,2,Ghatkesar,,17.4494,78.6853,,
2468,IN,25,Aravankadu,,11.3667,76.7667,,
2469,IN,11,Banjar,,31.6333,77.35,,
2470,IN,2,Attili,,16.7,81.6,,
2471,IN,36,Fatehgarh,,27.3667,79.6333,,
2472,IN,25,Ulundurpettai,,11.7,79.2833,,
2473,IN,25,Idindakarai,,8.1833,77.75,,
2474,IN,34,Hilsa,,25.3167,85.2833,,
2475,IN,38,Chandwa,,23.6833,84.7333,,
2476,IN,28,Sahapur,,22.5244,88.1669,,
2477,IN,35,Talod,,23.6833,75.6,,
2478,IN,2,Kondapuram,,14.7667,78.2,,
2479,IN,19,Sandur,,15.1,76.55,,
2480,IN,11,Amb,,31.6833,76.1167,,
2481,IN,16,Songir,,21.0833,74.7833,,
2482,IN,36,Gola Bazar,,26.3431,83.3553,,
2483,IN,28,Bansbaria,,22.9719,88.3994,,
2484,IN,36,Phalauda,,29.1833,77.8167,,
2485,IN,36,Pahasu,,28.1833,78.05,,
2486,IN,28,Shibpur,,23.7167,87.05,,
2487,IN,13,Vazhakkad,,11.25,75.95,,
2488,IN,13,Mattanur,,11.9167,75.5833,,
2489,IN,16,Kashti,,18.55,74.5833,,
2490,IN,33,Assolna,,15.1833,73.9667,,
2491,IN,13,Anchal,,8.9,76.9,,
2492,IN,2,Chennur,,14.15,79.8167,,
2493,IN,21,Patna,,21.6333,85.8833,,
2494,IN,23,Dirba,,30.0667,75.9833,,
2495,IN,36,Ujhani,,28.0167,79.0167,,
2496,IN,25,Gangaikondan,,8.85,77.7833,,
2497,IN,39,Mill,,30.4942,77.9542,,
2498,IN,36,Mehnagar,,25.8833,83.1167,,
2499,IN,25,Chennimalai,,11.1667,77.6167,,
2500,IN,11,Theog,,31.1167,77.35,,
2501,IN,9,Bhadran,,22.3667,72.9,,
2502,IN,36,Maghar,,26.7572,83.1278,,
2503,IN,28,Maliara,,23.4833,87.2167,,
2504,IN,28,Santoshpur,,22.5253,88.265,,
2505,IN,36,Chandpur,,29.15,78.2667,,
2506,IN,28,Lalgarh,,22.5833,87.05,,
2507,IN,28,Chanditala,,22.6864,88.2658,,
2508,IN,28,Baruipur,,22.3497,88.4392,,
2509,IN,34,Siwan,,26.2167,84.3667,,
2510,IN,34,Banka,,24.8833,86.9167,,
2511,IN,12,Poonch,,33.7679,74.0897,,
2512,IN,24,Pratapgarh,,24.0333,74.7833,,
2513,IN,25,Chengam,,12.3,78.8,,
2514,IN,24,Nathdwara,,24.9333,73.8167,,
2515,IN,19,Sagar,,14.1667,75.0333,,
2516,IN,36,Bansi,,27.1833,82.9333,,
2517,IN,36,Kheri,,27.9,80.8,,
2518,IN,28,Tribeni,,22.9833,88.4,,
2519,IN,3,Lumding,,25.75,93.1667,,
2520,IN,36,Sirathu,,25.65,81.3167,,
2521,IN,21,Titlagarh,,20.3,83.15,,
2522,IN,25,Vandavasi,,12.5,79.6167,,
2523,IN,7,Mahrauli,,28.5167,77.1833,,
2524,IN,36,Karhal,,27.0003,78.9414,,
2525,IN,16,Rahata,,19.7167,74.4833,,
2526,IN,9,Wadhwan,,22.7,71.6833,,
2527,IN,28,Plassey,,23.8,88.25,,
2528,IN,25,Peelamedu,,11.0333,77,,
2529,IN,38,Gumia,,23.7833,85.8167,,
2530,IN,2,Darsi,,15.7667,79.6833,,
2531,IN,28,Dhupgari,,26.6,89.0167,,
2532,IN,36,Gawan,,28.4333,78.35,,
2533,IN,19,Annigeri,,15.4333,75.4333,,
2534,IN,25,Kelamangalam,,12.6,77.85,,
2535,IN,19,Jigani,,12.7667,77.65,,
2536,IN,30,Pasighat,,28.0667,95.3333,,
2537,IN,34,Bhikhna Thori,,27.3333,84.6167,,
2538,IN,28,Kaliyaganj,,25.6333,88.3167,,
2539,IN,19,Yadgir,,16.7667,77.1333,,
2540,IN,9,Kandla,,23.0333,70.2167,,
2541,IN,33,Mapuca,,15.6,73.8167,,
2542,IN,25,Omalur,,11.7333,78.0667,,
2543,IN,10,Madhuban,,29.6056,76.9803,,
2544,IN,10,Rai,,28.95,77.1,,
2545,IN,19,Gubbi,,13.3106,76.9444,,
2546,IN,35,Mandleshwar,,22.1833,75.6667,,
2547,IN,35,Murheri,,25.5167,77.6,,
2548,IN,28,Kamarpukur,,22.2397,88.4019,,
2549,IN,32,Diu,,20.7,70.9833,,
2550,IN,19,Siruguppa,,15.6333,76.9,,
2551,IN,19,Hosanagara,,13.9167,75.0667,,
2552,IN,23,Dhariwal,,31.9542,75.3192,,
2553,IN,10,Naraingarh,,30.4833,77.1333,,
2554,IN,25,Tondiarpet,,13.1297,80.2897,,
2555,IN,13,Tritala,,10.8,76.1333,,
2556,IN,24,Bissau,,28.25,75.0833,,
2557,IN,36,Gursahaiganj,,27.1167,79.7167,,
2558,IN,16,Chalisgaon,,20.4667,75.0167,,
2559,IN,36,Mirza Murad,,25.3,82.7833,,
2560,IN,24,Lalsot,,26.5667,76.3333,,
2561,IN,2,Vissannapeta,,16.95,80.7833,,
2562,IN,19,Birur,,13.6167,75.9667,,
2563,IN,3,Tamulpur,,26.6667,91.5667,,
2564,IN,35,Nasrullaganj,,22.6833,77.2667,,
2565,IN,26,Udaipur,,23.5333,91.4833,,
2566,IN,37,Jashpurnagar,,22.9,84.15,,
2567,IN,19,Kittur,,15.6,74.8,,
2568,IN,36,Dhampur,,29.3167,78.5167,,
2569,IN,35,Maihar,,24.2667,80.75,,
2570,IN,2,Maruteru,,16.6333,81.7333,,
2571,IN,9,Bhachau,,23.2833,70.35,,
2572,IN,25,Arantangi,,10.1667,78.9833,,
2573,IN,38,Khunti,,23.0833,85.2833,,
2574,IN,13,Kakkad,,9.8833,76.4833,,
2575,IN,35,Balaghat,,21.7833,80.25,,
2576,IN,28,Anandapur,,26.3689,89.8592,,
2577,IN,24,Mandi,,25.6494,75.5931,,
2578,IN,10,Udaipur,,30.2343,76.6259,,
2579,IN,3,Missamari,,26.8,92.6,,
2580,IN,28,Sankrail,,22.55,88.2,,
2581,IN,23,Ghazipur,,30.636,76.8438,,
2582,IN,2,Mummidivaram,,16.65,82.1167,,
2583,IN,36,Nagar,,25.6183,79.2468,,
2584,IN,12,Bani,,34.0681,73.9583,,
2585,IN,33,Serula,,15.5333,73.8333,,
2586,IN,16,Chinchiwad,,18.6167,73.7833,,
2587,IN,24,Aligarh,,25.9667,76.0833,,
2588,IN,28,Dhaniakhali,,22.97,88.1033,,
2589,IN,10,Siwan,,29.8833,76.35,,
2590,IN,19,Malkhed,,17.1833,77.15,,
2591,IN,28,Hajipur,,22.8167,87.6333,,
2592,IN,34,Khagaul,,25.5833,85.05,,
2593,IN,10,Tibri,,29.1167,77.0333,,
2594,IN,9,Chunel,,22.75,73.0333,,
2595,IN,13,Cheruppulasseri,,10.8667,76.3333,,
2596,IN,10,Garhi Harsaru,,28.45,76.9333,,
2597,IN,36,Bhukaheri,,29.5167,77.9167,,
2598,IN,36,Budhana,,29.2833,77.4667,,
2599,IN,28,Bhayda,,22.6142,88.6044,,
2600,IN,33,Jua,,15.5333,73.9333,,
2601,IN,36,Rabupura,,28.25,77.6,,
2602,IN,38,Chitarpur,,23.5667,85.65,,
2603,IN,21,Manda,,20.5833,86.1,,
2604,IN,10,Ratewali,,30.6379,76.9863,,
2605,IN,23,Amblala,,30.5563,76.7872,,
2606,IN,23,Sanghol,,30.7833,76.3833,,
2607,IN,9,Hadmatiya,,22.4167,70.4833,,
2608,IN,25,Vijaya Narayanam,,8.4333,77.8,,
2609,IN,28,Simlapal,,22.9167,87.0833,,
2610,IN,34,Bhabua,,25.05,83.6167,,
2611,IN,9,Bagasara,,21.4833,70.95,,
2612,IN,7,Chhattarpur,,28.5,77.1833,,
2613,IN,2,Rayachoti,,14.05,78.75,,
2614,IN,37,Kurud,,20.8322,81.7214,,
2615,IN,3,Sorbhog,,26.5,90.8667,,
2616,IN,10,Khanpur Majri,,30.0373,76.886,,
2617,IN,16,Alate,,16.7667,74.4,,
2618,IN,19,Vemagallu,,13.2,78.0167,,
2619,IN,36,Gangoh,,29.7667,77.25,,
2620,IN,36,Ghatampur,,26.1667,80.1667,,
2621,IN,25,Vallahadu Kasba,,8.7167,77.85,,
2622,IN,9,Hariana,,22.6,70.2667,,
2623,IN,24,Ajabgarh,,27.2,76.2833,,
2624,IN,25,Katpadi,,12.9833,79.1333,,
2625,IN,16,Umarkhed,,19.6,77.7,,
2626,IN,28,Jafarpur,,22.3208,88.2306,,
2627,IN,13,Ramankari,,9.4333,76.4667,,
2628,IN,23,Bhangala,,32.0167,75.6,,
2629,IN,19,Saundatti Yellamma,,15.7833,75.1167,,
2630,IN,12,Sopur,,34.3,74.4667,,
2631,IN,25,Pamban,,9.2833,79.2,,
2632,IN,16,Dapoli,,17.7667,73.1833,,
2633,IN,28,Mejia,,23.5667,87.1,,
2634,IN,10,Badli,,28.5833,76.8167,,
2635,IN,10,Ghelri,,30.2426,76.9984,,
2636,IN,36,Beswan,,27.65,77.8833,,
2637,IN,11,Jhungi,,31.4333,77.0833,,
2638,IN,23,Ughi,,31.2261,75.3803,,
2639,IN,13,Puduppadi,,11.5,75.9667,,
2640,IN,2,Jayampu,,14.0333,79.7167,,
2641,IN,36,Ghosi,,26.1083,83.5436,,
2642,IN,28,Mihijam,,23.8667,86.8667,,
2643,IN,16,Manwath,,19.3,76.5,,
2644,IN,13,Palayannur,,10.6833,76.4333,,
2645,IN,13,Peradiyur,,10.8833,76.2,,
2646,IN,9,Dhari,,21.3333,71.0167,,
2647,IN,9,Nardipur,,23.3333,72.5667,,
2648,IN,19,Gauribidanur,,13.6111,77.5167,,
2649,IN,28,Taki,,22.5861,88.9214,,
2650,IN,9,Kathor,,21.3,72.9333,,
2651,IN,13,Ambalapulai,,9.4,76.3667,,
2652,IN,9,Tharad,,24.3961,71.6267,,
2653,IN,25,Kuttanallur,,10.7,79.5333,,
2654,IN,2,Cumbum,,15.5667,79.1167,,
2655,IN,25,Rameswaram,,9.2833,79.3,,
2656,IN,12,Palhalan,,34.1833,74.55,,
2657,IN,36,Daula,,28.9667,77.35,,
2658,IN,24,Surajgarh,,28.3124,75.7347,,
2659,IN,16,Devrukh,,17.05,73.6167,,
2660,IN,19,Talikota,,16.4833,76.3167,,
2661,IN,16,Shrigonda,,18.6167,74.6833,,
2662,IN,23,Nadampur,,30.2667,76.1167,,
2663,IN,19,Sulibele,,13.165,77.8017,,
2664,IN,23,Rurka Kalan,,31.1167,75.6667,,
2665,IN,11,Kolar,,30.5167,77.4167,,
2666,IN,36,Bewar,,27.2184,79.3005,,
2667,IN,10,Pundri,,29.75,76.55,,
2668,IN,16,Mohol,,17.8167,75.6667,,
2669,IN,10,Dera Maliyanwala,,29.8906,76.8803,,
2670,IN,24,Garh,,27.3167,76.7333,,
2671,IN,25,Adirampattinam,,10.35,79.4,,
2672,IN,24,Shahpura,,25.6333,74.9333,,
2673,IN,36,Jewar,,28.1333,77.55,,
2674,IN,9,Dandi,,21.3333,72.6333,,
2675,IN,13,Memunda,,11.5833,75.5833,,
2676,IN,21,Mura,,21.7,83.7,,
2677,IN,13,Paparaugardi,,11.05,75.8667,,
2678,IN,24,Owan,,25.45,75.3667,,
2679,IN,16,Jaipur,,19.8833,76.7833,,
2680,IN,12,Badgam,,34.0167,74.7167,,
2681,IN,2,Venkatagirikota,,13,78.5,,
2682,IN,39,Kaladhungi,,29.2833,79.35,,
2683,IN,21,Gopinathapur,,20.3333,86.1167,,
2684,IN,22,Purnankuppam,,11.8667,79.8167,,
2685,IN,23,Gardhiwala,,31.7325,75.7506,,
2686,IN,12,Ratnal,,32.5917,74.8958,,
2687,IN,12,Pattan,,34.1667,74.5667,,
2688,IN,36,Karwi,,25.2,80.9,,
2689,IN,11,Santokhgarh,,31.3667,76.3167,,
2690,IN,16,Dharangaon,,21.0167,75.2667,,
2691,IN,12,Punch,,33.7679,74.0897,,
2692,IN,16,Sasvad,,18.3333,74.0333,,
2693,IN,36,Sansawa,,30.0167,77.4167,,
2694,IN,25,Takkolam,,13.0167,79.7333,,
2695,IN,10,Anwali,,28.9986,76.7556,,
2696,IN,35,Manglia,,22.8167,75.9333,,
2697,IN,3,Mijika,,26.8333,93.1667,,
2698,IN,19,Karajgi,,14.8667,75.4333,,
2699,IN,24,Hanumangarh,,29.5833,74.3167,,
2700,IN,21,Brajrajnagar,,21.8167,83.9167,,
2701,IN,38,Lohardaga,,23.4333,84.6833,,
2702,IN,25,Uttukkottai,,13.3333,79.9,,
2703,IN,36,Binauli,,29.1,77.4,,
2704,IN,10,Bohar,,28.9,76.65,,
2705,IN,9,Jagudan,,23.5167,72.4167,,
2706,IN,35,Bina,,24.1698,78.188,,
2707,IN,19,Halgur,,12.4333,77.2333,,
2708,IN,26,Kamalpur,,24.2,91.8333,,
2709,IN,9,Shivrajpur,,22.4167,73.65,,
2710,IN,10,Bupania,,28.65,76.8167,,
2711,IN,23,Chand Bhan,,30.4,74.9,,
2712,IN,10,Diwanwala,,30.7464,76.9763,,
2713,IN,19,Amargol,,15.4167,75.1167,,
2714,IN,25,Vallakottai,,12.8836,79.9358,,
2715,IN,36,Mankapur,,27.0333,82.2333,,
2716,IN,23,Jandiala Guru,,31.5614,75.0267,,
2717,IN,21,Bhanjanagar,,19.9333,84.5833,,
2718,IN,21,Kharhial,,20.2833,82.7667,,
2719,IN,10,Bara Ferozepur,,30.695,76.858,,
2720,IN,21,Aska,,19.6,84.65,,
2721,IN,36,Dhanwa,,29.6761,77.2711,,
2722,IN,9,Tankari,,21.9833,72.6667,,
2723,IN,23,Lalon Khurd,,30.6104,76.1231,,
2724,IN,25,Kudavasa,,10.85,79.4833,,
2725,IN,35,Sarangi,,23.05,74.9,,
2726,IN,24,Mandhan,,28.1167,76.3833,,
2727,IN,23,Urapar,,31.0553,75.9461,,
2728,IN,24,Phulera,,26.8667,75.2333,,
2729,IN,24,Asop,,26.7939,73.5842,,
2730,IN,24,Ramganj Mandi,,24.65,75.9333,,
2731,IN,12,Leh,,34.1667,77.5833,,
2732,IN,24,Behror,,27.8833,76.2833,,
2733,IN,16,Niphad,,20.0833,74.1167,,
2734,IN,34,Dehri,,24.8667,84.1833,,
2735,IN,2,Piduguralla,,16.4833,79.9,,
2736,IN,25,Suchindram,,8.15,77.4833,,
2737,IN,19,Shirguppi,,15.3667,75.2833,,
2738,IN,28,Fatehabad,,26.4833,88.3,,
2739,IN,23,Mohali,,30.78,76.69,,
2740,IN,16,Murdoli,,21.2333,80.2,,
2741,IN,16,Dharur,,18.8167,76.1167,,
2742,IN,19,Kodlipet,,12.8,75.8833,,
2743,IN,2,Nidumolu,,16.2667,81.0333,,
2744,IN,13,Kondotti,,11.15,75.9667,,
2745,IN,13,Irimbranallur,,10.5167,76.1,,
2746,IN,25,Tirukkurungudi,,8.45,77.5667,,
2747,IN,33,Mandur,,15.45,73.9167,,
2748,IN,25,Arumbakkam,,13.0736,80.2069,,
2749,IN,35,Barwani,,22.0333,74.9,,
2750,IN,23,Bhadson,,30.5067,76.2461,,
2751,IN,34,Kochas,,25.25,83.9167,,
2752,IN,23,Sanaur,,30.3025,76.4553,,
2753,IN,36,Sakrauda,,30.0019,77.8478,,
2754,IN,35,Bishankhera,,23.0167,77.5833,,
2755,IN,2,Singareni,,17.5,80.2667,,
2756,IN,25,Punjai Puliyampatti,,11.35,77.2,,
2757,IN,36,Jhalu,,29.35,78.25,,
2758,IN,10,Bhundsi,,28.35,77.0667,,
2759,IN,16,Thakurvadi,,18.8167,73.3667,,
2760,IN,13,Kutipuram,,10.8333,76.0667,,
2761,IN,13,Karunagapalli,,9.1,76.55,,
2762,IN,25,Malaiyadivaram,,10.8667,78.3833,,
2763,IN,10,Asiaki,,28.3333,76.65,,
2764,IN,34,Hazrat Jandaha,,25.7167,85.5333,,
2765,IN,10,Kosli,,28.4167,76.4833,,
2766,IN,10,Nalvi,,30.1771,76.7787,,
2767,IN,9,Jalalpore,,20.9667,72.9,,
2768,IN,38,Godda,,24.8333,87.2167,,
2769,IN,29,Mangan,,27.5167,88.5333,,
2770,IN,16,Dive,,19.1833,73.0333,,
2771,IN,19,Shahapur,,15.85,74.5167,,
2772,IN,38,Ghatsila,,22.6,86.4833,,
2773,IN,10,Bhainsru Kalan,,28.8119,76.8219,,
2774,IN,11,Siyun,,30.7,77.3667,,
2775,IN,36,Lawar,,29.1167,77.7667,,
2776,IN,23,Narangwal,,30.75,75.75,,
2777,IN,10,Polangi,,28.9492,76.7594,,
2778,IN,23,Makhmelpur,,30.2459,76.5908,,
2779,IN,21,Kakatpur,,20.0167,86.2,,
2780,IN,23,Baba Bakala,,31.555,75.2656,,
2781,IN,2,Mahbubnagar,,16.7333,77.9833,,
2782,IN,21,Rairangpur,,22.2667,86.1667,,
2783,IN,9,Chandod,,21.9833,73.4667,,
2784,IN,2,Banswada,,18.3833,77.8833,,
2785,IN,16,Jath,,17.05,75.2167,,
2786,IN,3,Lakhipur,,24.8,93.0167,,
2787,IN,16,Sindkheda,,21.2667,74.7333,,
2788,IN,13,Ambalapuzha,,9.4,76.3667,,
2789,IN,24,Bas,,28.2455,75.6299,,
2790,IN,9,Thangadh,,22.5667,71.1833,,
2791,IN,25,Rajakilpakkam,,12.9194,80.1697,,
2792,IN,28,Haringhata,,22.95,88.5667,,
2793,IN,13,Kailar,,8.7,77.1167,,
2794,IN,25,Vairampatti,,10.5333,78.3,,
2795,IN,2,Bikkavolu,,16.95,82.05,,
2796,IN,13,Vennikulam,,9.4,76.6667,,
2797,IN,9,Kandla Port,,22.9833,70.2167,,
2798,IN,38,Petarbar,,23.6333,85.85,,
2799,IN,21,Ustapal,,20.5667,85.45,,
2800,IN,9,Charkhardi,,21.9,70.6667,,
2801,IN,9,Langhnaj,,23.45,72.4833,,
2802,IN,2,Banola,,18.85,78.0333,,
2803,IN,2,Rudrur,,18.5833,77.8833,,
2804,IN,9,Ometa,,22.3333,73.0333,,
2805,IN,19,Krishnarajpur,,13.0083,77.6911,,
2806,IN,36,Farah,,27.3333,77.7667,,
2807,IN,9,Deesa,,24.25,72.1667,,
2808,IN,39,Tehri-garhwal,,30.3833,78.4833,,
2809,IN,9,Morbi,,22.8167,70.8333,,
2810,IN,23,Ferozepore,,30.9167,74.6,,
2811,IN,11,Subathu,,30.9719,76.9933,,
2812,IN,13,Kayamkulam,,9.1833,76.5,,
2813,IN,16,Lonavala,,18.75,73.4167,,
2814,IN,13,Palghat,,10.7725,76.6514,,
2815,IN,19,Bangalore City,,12.9833,77.5833,,
2816,IN,28,Serampore,,22.7528,88.3422,,
2817,IN,28,Purulia,,23.3333,86.3667,,
2818,IN,36,Ghazibad,,28.6667,77.4333,,
2819,IN,36,Sikandrabad,,28.45,77.7,,
2820,IN,2,Mancherial,,18.8667,79.4333,,
2821,IN,19,Mudabidri,,13.0833,74.9833,,
2822,IN,24,Kalan,,27.014,71.8353,,
2823,IN,33,Goa,,15.4,73.8,,
2824,IN,13,Changanacherry,,9.4667,76.55,,
2825,IN,9,Sidhpur,,23.9167,72.3833,,
2826,IN,38,Hazaribagh,,23.9833,85.35,,
2827,IN,21,Balasore,,21.4942,86.9317,,
2828,IN,13,Kanhangad,,12.3167,75.0667,,
2829,IN,28,Kurseong,,26.8825,88.2773,,
2830,IN,12,Jammu City,,32.7333,74.8667,,
2831,IN,24,Jaipur City,,26.9167,75.8167,,
2832,IN,24,Alwar City,,27.5667,76.6,,
2833,IN,13,Tiruvananantapuram,,8.5069,76.9569,,
2834,IN,34,Bihar Sharif,,25.1833,85.5167,,
2835,IN,12,Sopore,,34.3,74.4667,,
2836,IN,28,Barrackpore,,22.7614,88.3719,,
2837,IN,13,Ottapalam,,10.7667,76.3833,,
2838,IN,2,East Godavari,,16.9333,82.2167,,
2839,IN,13,Alapalli,,9.4942,76.3275,,
2840,IN,34,Purnea,,25.7833,87.4667,,
2841,IN,19,Bengalooru,,12.9833,77.5833,,
2842,IN,21,Kuchinda,,21.7333,84.35,,
2843,IN,3,Gauhati,,26.1833,91.7333,,
2844,IN,21,Titilagarh,,20.3,83.15,,
2845,IN,21,Khariar,,20.2833,82.7667,,
2846,IN,28,Berhampore,,24.1,88.25,,
2847,IN,24,Sri Ganganagar,,29.9167,73.8833,,
2848,IN,13,Tellicherry,,11.7478,75.4883,,
2849,IN,13,Quilon,,8.8806,76.5917,,
2850,IN,25,Koothanallur,,10.7,79.5333,,
2851,IN,28,Cooch Behar,,26.3167,89.4333,,
2852,IN,24,Pali-marwar,,25.7667,73.3333,,
2853,IN,25,Tanjore,,10.8,79.15,,
2854,IN,25,Alandoor,,13.0025,80.2061,,
2855,IN,25,Tiruchi,,10.805,78.6856,,
2856,IN,28,Jamuria,,23.7,87.0833,,
2857,IN,36,Ahraura,,25.0167,83.0167,,
2858,IN,34,Arrah,,25.5667,84.6667,,
2859,IN,28,Krishnagar,,23.4,88.5,,
2860,IN,36,Lucknow City,,26.85,80.9167,,
2861,IN,24,Dausa,,26.8833,76.3333,,
2862,IN,13,Varkala,,8.7333,76.7167,,
2863,IN,2,Suryapet,,17.15,79.6167,,
2864,IN,13,Fort Cochin,,9.9667,76.2333,,
2865,IN,16,Bhusaval,,21.05,75.7667,,
2866,IN,34,Bakhtiyarpur,,25.4667,85.5167,,
2867,IN,28,Hawrah,,22.5892,88.3103,,
2868,IN,12,Tangmarg,,34.0333,74.4333,,
2869,IN,25,Kelambakkam,,12.8,80.2297,,
2870,IN,9,Dehgam,,23.1667,72.8167,,
2871,IN,16,Sasaune,,18.7844,72.8667,,
2872,IN,28,Bardhaman,,23.2406,87.8694,,
2873,IN,16,Kasegaon,,17.1333,74.1833,,
2874,IN,16,Kamptee,,21.2333,79.2,,
2875,IN,24,Taranagar,,28.6709,75.0351,,
2876,IN,34,Bind,,25.3167,85.7,,
2877,IN,16,Dhamangaon,,20.6667,76.0167,,
2878,IN,9,Buhari,,20.9667,73.3,,
2879,IN,16,Vita,,17.2833,74.55,,
2880,IN,16,Mhasla,,18.1333,73.1167,,
2881,IN,16,Lonavla,,18.75,73.4167,,
2882,IN,25,Gopalapuram,,13.0472,80.2578,,
2883,IN,28,Uluberia,,22.4717,88.1136,,
2884,IN,19,Hungund,,16.0667,76.05,,
2885,IN,16,Kallam,,18.5833,76.0333,,
2886,IN,2,Koilkuntla,,15.2333,78.3167,,
2887,IN,3,Haflong,,25.1833,93.0333,,
2888,IN,35,Shahdol,,23.2833,81.35,,
2889,IN,2,Giddalur,,15.35,78.9167,,
2890,IN,16,Hadgaon,,19.5,77.6667,,
2891,IN,16,Raver,,21.25,76.0333,,
2892,IN,16,Jawhar,,19.9167,73.2333,,
2893,IN,38,Sahibganj,,25.25,87.65,,
2894,IN,28,Jagdispur,,22.6572,88.285,,
2895,IN,34,Araria,,26.15,87.5167,,
2896,IN,16,Lonand,,18.0333,74.1833,,
2897,IN,36,Parichhatgarh,,28.9833,77.9333,,
2898,IN,12,Jatwal,,32.3781,75.0764,,
2899,IN,13,Rani,,9.3833,76.8167,,
2900,IN,34,Nagar Nahusa,,25.4,85.3333,,
2901,IN,23,Sasan,,31.7578,75.9164,,
2902,IN,10,Gurar,,28.9383,76.8058,,
2903,IN,13,Vadakancheri-cochin,,10.6667,76.25,,
2904,IN,16,Kadegaon,,17.3,74.35,,
2905,IN,36,Bilaspur,,28.8833,79.2667,,
2906,IN,24,Dholpur,,26.7,77.9,,
2907,IN,28,English Bazar,,25,88.15,,
2908,IN,3,Amguri,,26.8,94.5333,,
2909,IN,16,Numbai,,18.975,72.8258,,
2910,IN,16,Umrer,,20.85,79.3333,,
2911,IN,16,Ashta,,16.95,74.4,,
2912,IN,38,Jharia,,23.75,86.4,,
2913,IN,31,Aizwal,,23.7244,92.7175,,
2914,IN,16,Digras,,20.1167,77.7167,,
2915,IN,16,Balapur,,20.6667,76.7667,,
2916,IN,36,Tikamgarh,,24.745,78.8333,,
2917,IN,28,Andal,,23.6,87.2,,
2918,IN,16,Ner,,20.4833,77.8667,,
2919,IN,16,Pulgaon,,20.7333,78.3333,,
2920,IN,36,Bahjoi,,28.4,78.6167,,
2921,IN,6,Vansda,,20.1167,73.15,,
2922,IN,21,Digapahandi,,19.3667,84.5833,,
2923,IN,28,Nabadwip,,23.4167,88.3667,,
2924,IN,25,Melur,,10.05,78.3333,,
2925,IN,16,Nasrapur,,18.25,73.9,,
2926,IN,36,Bado Sarai,,27.0167,81.45,,
2927,IN,10,Bhatu,,29.3833,75.3333,,
2928,IN,16,Ambavna,,18.6167,73.3667,,
2929,IN,13,Vallappula,,10.8333,76.2833,,
2930,IN,13,Ayur,,8.8833,76.8833,,
2931,IN,25,Sekkadi,,11.4333,78.3667,,
2932,IN,21,Deogarh,,21.5333,84.7333,,
2933,IN,3,North Lakhimpur,,27.2333,94.1167,,
2934,IN,28,Budge Budge,,22.4747,88.1703,,
2935,IN,36,Bisalpur,,28.3,79.8,,
2936,IN,2,Addanki,,15.8167,79.9833,,
2937,IN,28,Bongaon,,23.0667,88.8167,,
2938,IN,34,Revelganj,,25.7833,84.6667,,
2939,IN,37,Jashpur,,22.9,84.15,,
2940,IN,16,Sangola,,17.4333,75.2,,
2941,IN,21,Bolangir,,20.7167,83.4833,,
2942,IN,16,Ambejogai,,18.7333,76.3833,,
2943,IN,19,Kadur,,13.5533,76.0131,,
2944,IN,36,Misrikh,,27.45,80.5167,,
2945,IN,16,Chandur,,20.8167,77.9667,,
2946,IN,16,Maregaon,,20.1,78.8167,,
2947,IN,16,Puna,,18.5333,73.8667,,
2948,IN,16,Mandve,,18.7956,72.8981,,
2949,IN,10,Lathron,,29.875,76.9664,,
2950,IN,28,Ramkantapur,,22.4572,88.3339,,
2951,IN,9,Satam,,20.9167,73.0833,,
2952,IN,36,Kharkhauda,,28.8333,77.75,,
2953,IN,21,Balanga,,20.05,85.8833,,
2954,IN,13,Kottara,,8.9,76.7333,,
2955,IN,24,Pipar,,26.3856,73.5378,,
2956,IN,21,Jatani,,20.1667,85.7,,
2957,IN,30,Ziro,,27.6333,93.8333,,
2958,IN,34,Tekari,,24.9333,84.8333,,
2959,IN,3,Dhemaji,,27.4833,94.5833,,
2960,IN,35,Amarpatan,,24.3167,80.9833,,
2961,IN,36,Biswan,,27.5,81,,
2962,IN,11,Baijnath,,32.05,76.65,,
2963,IN,28,Madanpur,,23.0167,88.4833,,
2964,IN,28,Jagatdal,,22.85,88.3833,,
2965,IN,35,Anuppur,,23.1,81.6833,,
2966,IN,39,Bahadrabad,,29.9167,78.05,,
2967,IN,9,Wanch,,22.9333,72.6833,,
2968,IN,16,Ghotaori,,18.9833,73.6333,,
2969,IN,28,Nazira,,22.2181,88.2767,,
2970,IN,23,Balachor,,31.0667,76.3167,,
2971,IN,13,Kumaragam,,9.6,76.4333,,
2972,IN,11,Kundlu,,31.1833,76.6833,,
2973,IN,24,Shampura,,25.2667,75.2833,,
2974,IN,36,Rajakhera,,26.8961,78.1714,,
2975,IN,25,Arni,,12.6667,79.2833,,
2976,IN,3,Dhubri,,26.0333,89.9667,,
2977,IN,37,Surguja,,23.1167,83.2,,
2978,IN,19,Homnabad,,17.7667,77.1333,,
2979,IN,25,Ilayangudi,,9.6333,78.6333,,
2980,IN,29,Tadong,,27.3167,88.6,,
2981,IN,16,Badnera,,20.8667,77.7333,,
2982,IN,35,Ambah,,26.7075,78.2261,,
2983,IN,28,Sonamukhi,,23.3,87.4167,,
2984,IN,10,Taoru,,28.2167,76.95,,
2985,IN,21,Raghunathapur,,20.3667,86.15,,
2986,IN,10,Mundlana,,29.2,76.7667,,
2987,IN,34,Kumar Bajidpur,,25.8333,85.5667,,
2988,IN,38,Daltonganj,,24.0333,84.0667,,
2989,IN,38,Sijua,,23.7833,86.3167,,
2990,IN,13,Cannanore,,11.8667,75.3653,,
2991,IN,16,Ahmedpur,,18.7,76.9333,,
2992,IN,13,Nemmara,,10.5833,76.6,,
2993,IN,3,Bokakhat,,26.6333,93.6,,
2994,IN,28,Nagrakata,,26.9,88.9167,,
2995,IN,34,Chakia,,26.4167,85.05,,
2996,IN,25,Thiruninravur,,13.1114,80.0261,,
2997,IN,13,Kallana,,10.2667,76.6,,
2998,IN,23,Mirpur,,30.6124,76.8539,,
2999,IN,36,Dilari,,29.05,78.75,,
3000,IN,36,Khair,,27.95,77.8333,,
3001,IN,11,Goler,,31.9833,76.15,,
3002,IN,36,Bilari,,28.6333,78.8,,
3003,IN,34,Saharsa,,25.8833,86.6,,
3004,IN,38,Baharagora,,22.2833,86.7167,,
3005,IN,21,Hirakud,,21.5167,83.8667,,
3006,IN,21,Badmal,,21.1167,84.0667,,
3007,IN,34,Bettiah,,26.8,84.5,,
3008,IN,28,Balagarh,,22.7283,88.435,,
3009,IN,36,Balamau,,27.1667,80.35,,
3010,IN,9,Ghorasar,,22.9,72.8333,,
3011,IN,28,Gaighata,,22.9333,88.7333,,
3012,IN,19,Malavalli,,12.3833,77.0833,,
3013,IN,25,Teni,,10,77.4833,,
3014,IN,24,Sanchor,,24.7553,71.7722,,
3015,IN,16,Nipani,,16.4,74.3833,,
3016,IN,16,Pauni,,20.7833,79.6333,,
3017,IN,23,Dhanaula,,30.2833,75.5833,,
3018,IN,7,Paharganj,,28.6167,77.2167,,
3019,IN,9,Halvad,,23.0167,71.1833,,
3020,IN,36,Jaisingha,,30.0097,77.7542,,
3021,IN,28,Ula,,22.7225,88.5556,,
3022,IN,28,Purash,,22.6767,88.0497,,
3023,IN,10,Tibbi,,30.6652,76.9821,,
3024,IN,3,Ranigodam,,26.0333,91.6667,,
3025,IN,13,Sastankottah,,9.05,76.6333,,
3026,IN,19,Hebbur,,13.1497,77.0292,,
3027,IN,36,Baleni,,28.95,77.45,,
3028,IN,35,Parasia,,22.2,78.7667,,
3029,IN,34,Daudnagar,,25.0333,84.4,,
3030,IN,38,Simdega,,22.6167,84.5167,,
3031,IN,23,Garhdiwala,,31.7325,75.7506,,
3032,IN,25,Nannilam,,10.8833,79.6167,,
3033,IN,25,Desur,,12.4333,79.4833,,
3034,IN,28,Murarai,,24.45,87.8667,,
3035,IN,28,Pandaveswar,,23.7167,87.2833,,
3036,IN,9,Kavi,,22.2,72.6333,,
3037,IN,10,Surmi,,30.013,76.696,,
3038,IN,16,Bhimashankar,,19.0667,73.5333,,
3039,IN,16,Kankavli,,16.2667,73.7,,
3040,IN,36,Bisauli,,28.3167,78.9333,,
3041,IN,37,Mungeli,,22.0667,81.6833,,
3042,IN,9,Dabhoi,,22.1833,73.4333,,
3043,IN,21,Jeypore,,18.85,82.5833,,
3044,IN,16,Jintur,,19.6167,76.7,,
3045,IN,28,Khardah,,22.7186,88.3781,,
3046,IN,36,Pur,,29.6667,77.8333,,
3047,IN,36,Jalalabad,,29.6186,77.4383,,
3048,IN,34,Paliganj,,25.3333,84.8333,,
3049,IN,10,Tosham,,28.8833,75.9167,,
3050,IN,28,Amtala,,22.3714,88.2944,,
3051,IN,24,Nohar,,29.1833,74.7667,,
3052,IN,35,Warud,,21.4667,78.2667,,
3053,IN,28,Paiguri,,26.5167,88.7333,,
3054,IN,39,Srinagar Garhwal,,30.2167,78.7833,,
3055,IN,13,Karuvarakundu,,11.1333,76.3333,,
3056,IN,16,Warora,,20.2333,79,,
3057,IN,35,Manpur,,22.4333,75.6167,,
3058,IN,2,Shahpur,,17.2186,78.3356,,
3059,IN,23,Sabrai,,31.1775,74.8528,,
3060,IN,16,Yavat,,18.4667,74.2833,,
3061,IN,2,Chodavaram,,17.45,81.7667,,
3062,IN,39,Dehra,,30.3167,78.0333,,
3063,IN,35,Lanbakhera,,23.45,77.6167,,
3064,IN,10,Jalmana,,29.6,76.7167,,
3065,IN,10,Saonla,,30.0021,76.8853,,
3066,IN,39,Virbhadra,,30.0667,78.2833,,
3067,IN,28,Pujali,,22.4653,88.1517,,
3068,IN,2,Tayyuru,,13.3,79.3167,,
3069,IN,16,Kasara,,19.6333,73.4833,,
3070,IN,9,Jodiya,,22.7167,70.2833,,
3071,IN,24,Dadu,,26.6833,75.2333,,
3072,IN,10,Bohawa,,30.1564,76.9783,,
3073,IN,2,Wanaparthy,,16.3667,78.0667,,
3074,IN,13,Trissur,,10.5167,76.2167,,
3075,IN,25,Polur,,12.5,79.1333,,
3076,IN,28,Raghunathpur,,23.55,86.6667,,
3077,IN,16,Jaigaon,,21.0486,76.5344,,
3078,IN,14,Kavaratti,,10.5667,72.6167,,
3079,IN,36,Sikri,,29.55,77.9167,,
3080,IN,3,Barduar,,25.9167,91.4833,,
3081,IN,2,Yeljal,,16.8333,78.35,,
3082,IN,9,Jetalpur,,22.8833,72.6,,
3083,IN,9,Balasar,,21.1167,72.9833,,
3084,IN,36,Malhera,,29.2,77.5167,,
3085,IN,35,Gautampura,,22.9833,75.5167,,
3086,IN,28,Panchla,,22.5439,88.1381,,
3087,IN,9,Mahuva,,21.0833,71.8,,
3088,IN,37,Balod,,20.73,81.2047,,
3089,IN,21,Sundergarh,,22.1167,84.0333,,
3090,IN,25,Danishpet,,11.8667,78.15,,
3091,IN,9,Lasundra,,22.9167,73.15,,
3092,IN,11,Gagret,,31.6667,76.0667,,
3093,IN,16,Umbarpada,,19.4667,73.0833,,
3094,IN,9,Kamrej,,21.2833,72.9833,,
3095,IN,35,Zirapur,,24.0167,76.3667,,
3096,IN,25,Kuttalam,,11.1,79.55,,
3097,IN,36,Vrindaban,,27.5833,77.7,,
3098,IN,24,Bayana,,26.9,77.2833,,
3099,IN,19,Guttal,,14.8333,75.6333,,
3100,IN,34,Mohiuddinagar,,25.5833,85.6667,,
3101,IN,34,Qasi Sarai,,25.1667,85.0667,,
3102,IN,28,Mele,,22.8278,88.1461,,
3103,IN,16,Dharmabad,,18.9,77.85,,
3104,IN,16,Sailu,,19.4667,76.4667,,
3105,IN,37,Antagarh,,20.0925,81.1564,,
3106,IN,9,Koyali,,22.3667,73.1167,,
3107,IN,9,Bordi,,20.15,72.7167,,
3108,IN,25,Tovarankurichchi,,10.3833,78.3833,,
3109,IN,2,Brahmarapet,,17.5625,78.3997,,
3110,IN,2,Balimpur,,17.7378,78.6775,,
3111,IN,28,Bhastara,,23.0333,88.1167,,
3112,IN,19,Udipi,,13.35,74.75,,
3113,IN,13,Taliparamba,,12.05,75.35,,
3114,IN,2,Kothagudem,,17.55,80.6333,,
3115,IN,9,Dhanera,,24.5167,72.0167,,
3116,IN,16,Manchar,,19,73.9333,,
3117,IN,34,Gopalganj,,26.4667,84.4333,,
3118,IN,36,Agra Belanganj,,27.1833,78.0167,,
3119,IN,36,Sona Arjunpur,,29.75,77.45,,
3120,IN,36,Jahangirpur,,28.1833,77.7167,,
3121,IN,36,Pandu Kheri,,29.6958,77.4339,,
3122,IN,36,Pukhrayan,,26.2333,79.85,,
3123,IN,24,Reengus,,27.35,75.5667,,
3124,IN,35,Khajuraho,,24.85,79.9333,,
3125,IN,24,Ratangarh,,28.0797,74.6193,,
3126,IN,28,Mahishadal,,22.1833,87.9833,,
3127,IN,34,Forbesganj,,26.3,87.25,,
3128,IN,28,Bedkundu,,22.18,88.0472,,
3129,IN,10,Kasni,,28.5167,76.5833,,
3130,IN,10,Chika,,30.0489,76.3444,,
3131,IN,10,Dhankot,,28.4833,76.95,,
3132,IN,28,Baj Baj,,22.4747,88.1703,,
3133,IN,25,Thirumangalam,,13.0886,80.2075,,
3134,IN,21,Khordha,,20.1833,85.6167,,
3135,IN,25,Aruvankadu,,11.3667,76.7667,,
3136,IN,3,Sonari,,27.0667,95.0333,,
3137,IN,35,Karera,,25.4667,78.15,,
3138,IN,35,Jhabua,,22.7667,74.6,,
3139,IN,25,Purasawalkam,,13.0817,80.2525,,
3140,IN,25,Guindy,,13.0081,80.2194,,
3141,IN,16,Khandala,,18.05,74.0167,,
3142,IN,9,Ghandinagar,,23.2167,72.6833,,
3143,IN,9,Malpur,,23.35,73.45,,
3144,IN,9,Kunkavav,,21.6333,70.9833,,
3145,IN,25,Chinnamanur,,9.8333,77.3833,,
3146,IN,2,Rapur,,14.2,79.5167,,
3147,IN,38,Seraikella,,22.7167,85.95,,
3148,IN,19,Galatga,,16.4833,74.4667,,
3149,IN,16,Patur,,20.45,76.9333,,
3150,IN,16,Basmath,,19.3167,77.1667,,
3151,IN,21,Banki,,20.3833,85.5333,,
3152,IN,33,Utorda,,15.3167,73.9,,
3153,IN,25,Nagappattinam,,10.7667,79.8333,,
3154,IN,13,Muzhappilangad,,11.8,75.45,,
3155,IN,25,Gobichettipalayam,,11.4667,77.45,,
3156,IN,11,Dalhousie,,32.5333,75.9833,,
3157,IN,33,Betalbatim,,15.3,73.9167,,
3158,IN,33,Rivona,,15.1667,74.1167,,
3159,IN,25,Sirkazhi,,11.2333,79.7333,,
3160,IN,16,Parli Vaijnath,,18.85,76.5333,,
3161,IN,36,Amethi,,28.0167,81.05,,
3162,IN,23,Haripura,,30.1333,74.0333,,
3163,IN,21,Balugaon,,20.1667,85.1,,
3164,IN,16,Chimur,,20.5,79.3833,,
3165,IN,39,Tanakpur,,29.0833,80.1167,,
3166,IN,16,Neri,,20.8333,75.6667,,
3167,IN,2,Nawabpet,,16.9,78.0333,,
3168,IN,2,Nagpur,,17.8625,78.8861,,
3169,IN,21,Buguda,,19.8167,84.8,,
3170,IN,24,Deeg,,27.4667,77.3333,,
3171,IN,9,Kundla,,21.3333,71.3,,
3172,IN,10,Bidauli,,29.5833,77.1167,,
3173,IN,9,Suvali,,21.1667,72.6333,,
3174,IN,10,Hattin,,28.05,77.2333,,
3175,IN,35,Dodi,,23,76.5833,,
3176,IN,23,Kularan,,30.1389,76.1128,,
3177,IN,2,Vaimesur,,17.1333,80.8,,
3178,IN,36,Salon,,26.0333,81.45,,
3179,IN,13,Makarachal,,10.2,76.7167,,
3180,IN,19,Gopinattam,,12.0667,77.7167,,
3181,IN,2,Bijnapalli,,16.55,78.2,,
3182,IN,23,Binewal,,31.2833,76.25,,
3183,IN,23,Talwandi Malak,,30.1736,76.0697,,
3184,IN,36,Kutana,,29.1,77.1667,,
3185,IN,23,Kum,,30.9169,76.0669,,
3186,IN,11,Changar Talai,,31.4667,76.5167,,
3187,IN,2,Babaipalli,,17.8864,78.8175,,
3188,IN,2,Vardamankot,,17.3667,79.45,,
3189,IN,16,Kaumloli,,19.6667,72.8667,,
3190,IN,35,Polaia Kalan,,23.2,76.55,,
3191,IN,36,Jalalpur Dhai,,26.0167,81.1333,,
3192,IN,16,Ghargaon,,19.3167,74.1833,,
3193,IN,16,Belhe,,19.1167,74.1833,,
3194,IN,10,Barauda,,29.15,76.6167,,
3195,IN,10,Butana,,29.1833,76.6167,,
3196,IN,36,Inhauna,,26.5333,81.4833,,
3197,IN,10,Masana,,30.058,76.8876,,
3198,IN,24,Kanwat,,27.5833,75.7,,
3199,IN,16,Nizampur,,18.3167,73.3167,,
3200,IN,28,Rainaga,,23.0667,87.8833,,
3201,IN,25,Chinna Dharapuram,,10.85,77.8667,,
3202,IN,23,Jadla,,31.0833,76.2167,,
3203,IN,10,Ellenabad,,29.45,74.65,,
3204,IN,16,Jamner,,20.8167,75.7833,,
3205,IN,35,Nowgong,,25.0667,79.45,,
3206,IN,16,Kada,,18.9,75.1,,
3207,IN,36,Karauda,,29.35,77.3833,,
3208,IN,34,Surajgarha,,25.25,86.2333,,
3209,IN,18,Nongbah,,25.5333,92.2667,,
3210,IN,10,Bahora,,28.3167,76.8333,,
3211,IN,36,Nohjhil,,27.85,77.65,,
3212,IN,36,Faridnagar,,28.7667,77.6167,,
3213,IN,36,Tigri,,28.8167,78.15,,
3214,IN,25,Kadambur,,8.9833,77.8667,,
3215,IN,36,Jarcha,,28.5833,77.65,,
3216,IN,38,Jhumri Telaiya,,24.4333,85.5167,,
3217,IN,16,Khar,,19.0667,72.8333,,
3218,IN,23,Bhadaur,,30.4833,75.3167,,
3219,IN,25,Manavalakurichi,,8.1333,77.3,,
3220,IN,35,Jobat,,22.4167,74.5667,,
3221,IN,28,Rhenock,,27.1833,88.65,,
3222,IN,25,Kuzhithurai,,8.3167,77.1833,,
3223,IN,25,Ayanavaram,,13.0961,80.235,,
3224,IN,28,Tababaria,,22.8186,88.5975,,
3225,IN,28,Indas,,23.15,87.6167,,
3226,IN,9,Golana,,22.45,72.4167,,
3227,IN,10,Pharal,,29.8333,76.5833,,
3228,IN,2,Neronbhavi,,17.2908,78.9983,,
3229,IN,38,Baipi,,22.5333,85.5833,,
3230,IN,23,Jaijon,,31.35,76.15,,
3231,IN,3,Baihata,,26.35,91.6667,,
3232,IN,28,Sirkabad,,23.2667,86.2,,
3233,IN,16,Chandol,,20.3333,76,,
3234,IN,25,Kilachcheri,,13.0167,79.85,,
3235,IN,36,Makanpur,,26.9167,79.9833,,
3236,IN,36,Nura,,27.2462,79.8525,,
3237,IN,34,Rautara,,25.6667,87.55,,
3238,IN,16,Bapane,,19.35,72.9,,
3239,IN,25,Uttiramerur,,12.6,79.7667,,
3240,IN,12,Kupwara,,34.0306,74.2642,,
3241,IN,37,Dalli Rajhara,,20.5819,81.0758,,
3242,IN,9,Thara,,23.9667,71.8167,,
3243,IN,33,Revora,,15.6667,73.8333,,
3244,IN,37,Bemetara,,21.7,81.5333,,
3245,IN,21,Salipur,,20.4833,86.1,,
3246,IN,28,Belur,,22.6333,88.3,,
3247,IN,13,Palod,,8.7,77.0333,,
3248,IN,36,Paigaon,,27.7833,77.5333,,
3249,IN,25,Kadambattur,,13.1,79.8667,,
3250,IN,28,Taldangra,,23.0333,87.1,,
3251,IN,2,Pochannapet,,17.7667,79.0667,,
3252,IN,11,Ramshahr,,31.1,76.8,,
3253,IN,28,Bhasa,,22.4031,88.2742,,
3254,IN,3,Darrang,,26.6333,92.8,,
3255,IN,9,Vaghodia,,22.3,73.3833,,
3256,IN,30,Margherita,,27.2833,95.6833,,
3257,IN,17,Ukhrul,,25.1167,94.3667,,
3258,IN,23,Kala,,31.2667,75.45,,
3259,IN,33,Verem,,15.4667,74.0167,,
3260,IN,13,Piravom,,9.8667,76.5,,
3261,IN,19,Pandavapura,,12.5006,76.6733,,
3262,IN,9,Vagra,,21.85,72.8333,,
3263,IN,36,Shahpur,,29.35,77.55,,
3264,IN,16,Karanji,,19.1333,74.9833,,
3265,IN,12,Damni,,33.35,74.8167,,
3266,IN,2,Nallapalli,,17.7208,78.3589,,
3267,IN,23,Ram Das,,31.9661,74.9047,,
3268,IN,13,Karurapadna,,10.2667,76.2,,
3269,IN,16,Vadhon,,20.9833,78.35,,
3270,IN,36,Bhimsen,,26.4167,80.2,,
3271,IN,10,Janauli,,28.2,77.35,,
3272,IN,2,Peddamal,,17.3333,77.6667,,
3273,IN,34,Rajwara,,24.7167,86.7167,,
3274,IN,25,Mahabalipuram,,12.6264,80.1722,,
3275,IN,25,Tirukkoyilur,,11.95,79.2,,
3276,IN,37,Maro,,21.8667,81.85,,
3277,IN,9,Chalala,,21.4167,71.1667,,
3278,IN,28,Jangipur,,24.4667,88.0667,,
3279,IN,25,Chepauk,,13.0594,80.2789,,
3280,IN,16,Shirol,,16.7333,74.6,,
3281,IN,36,Jansath,,29.3333,77.85,,
3282,IN,2,Aleru,,17.65,79.05,,
3283,IN,2,Vinjamoor,,14.8333,79.5833,,
3284,IN,28,Sehara,,23.0833,87.8167,,
3285,IN,23,Bhaddi,,31.15,76.3667,,
3286,IN,28,Beliator,,23.3333,87.2167,,
3287,IN,16,Wardhangarh Fort,,17.7333,74.25,,
3288,IN,28,Jhikra,,22.6167,87.9167,,
3289,IN,10,Pinangwan,,27.9,77.1,,
3290,IN,25,Kadavur,,10.5833,78.1833,,
3291,IN,28,Nalhati,,24.3,87.8167,,
3292,IN,7,Old Delhi,,28.6667,77.2167,,
3293,IN,34,Supaul,,26.1167,86.6,,
3294,IN,19,Malpe,,13.35,74.7167,,
3295,IN,16,Barsi,,18.2333,75.7,,
3296,IN,2,Nellimarla,,18.1667,83.4333,,
3297,IN,13,Muvatupuzha,,9.9667,76.5833,,
3298,IN,28,Ramkali,,22.4311,88.3272,,
3299,IN,9,Choranda,,21.9833,73.15,,
3300,IN,19,Dod Ballapur,,13.2919,77.5431,,
3301,IN,38,Mugma,,23.7667,86.7333,,
3302,IN,9,Navlakhi,,22.9667,70.4667,,
3303,IN,36,Nurpur,,29.15,78.4167,,
3304,IN,25,Kaikalapettai,,13.0219,80.1206,,
3305,IN,36,Noida,,28.57,77.32,,
3306,IN,28,Gopalnagar,,22.0939,88.2433,,
3307,IN,16,Pathri,,19.25,76.45,,
3308,IN,11,Paonta,,30.45,77.6167,,
3309,IN,28,Falakata,,26.5208,89.2054,,
3310,IN,23,Jaito,,30.4667,74.8833,,
3311,IN,25,Tiruchendur,,8.4833,78.1167,,
3312,IN,28,Kishanganj,,26.1167,87.9333,,
3313,IN,13,Vaikom,,9.7667,76.4,,
3314,IN,11,Sujanpur Tira,,31.8333,76.5,,
3315,IN,28,Kotalpur,,23.0333,87.6,,
3316,IN,36,Dankaur,,28.35,77.55,,
3317,IN,2,Lepakshi,,13.8156,77.6014,,
3318,IN,13,Tanniyurnagaram,,10.9667,75.8667,,
3319,IN,9,Versara,,21.65,71.3,,
3320,IN,9,Lakhtar,,22.85,71.7833,,
3321,IN,25,Madattukkulam,,10.5667,77.35,,
3322,IN,28,Argoal,,21.9667,87.6333,,
3323,IN,38,Dumri,,23.9833,86.0167,,
3324,IN,23,Bishanpura,,30.7481,76.0571,,
3325,IN,28,Kuliara,,22.79,87.9975,,
3326,IN,21,Jagatsinghpur,,20.2667,86.1667,,
3327,IN,2,Koratla,,18.8167,78.7167,,
3328,IN,26,Kailashahar,,24.3333,92.0167,,
3329,IN,19,Mysuru,,12.3072,76.6497,,
3330,IN,24,Samdari,,25.8167,72.5833,,
3331,IN,39,Purola,,30.8833,78.0833,,
3332,IN,21,Biribati,,20.4333,85.9833,,
3333,IN,23,Rajgarh Channa,,30.5654,76.178,,
3334,IN,2,Pyapali,,15.2333,77.7333,,
3335,IN,13,Pottundi,,10.55,76.6167,,
3336,IN,36,Jaula,,29.2833,77.4167,,
3337,IN,16,Kenjala,,17.8,73.5667,,
3338,IN,2,Nakrekal,,17.1667,79.4333,,
3339,IN,9,Cambay,,22.3,72.6167,,
3340,IN,16,Malvan,,16.0667,73.4667,,
3341,IN,16,Kuhi,,21.0167,79.3667,,
3342,IN,2,Chevella,,17.3067,78.1353,,
3343,IN,2,Lingojiguda,,17.265,78.9333,,
3344,IN,10,Balana,,29.2806,76.9011,,
3345,IN,16,Bote,,19.25,74.15,,
3346,IN,9,Gijram,,21.4833,73.1167,,
3347,IN,24,Bairat,,27.45,76.1833,,
3348,IN,36,Amanpur,,27.7167,78.75,,
3349,IN,38,Chorkata,,24.2667,87.0833,,
3350,IN,23,Bhikhi,,30.0667,75.5333,,
3351,IN,24,Parbatsar,,26.8833,74.7667,,
3352,IN,25,Kayalpatnam,,8.5667,78.1167,,
3353,IN,28,Badkulla,,23.2833,88.5333,,
3354,IN,9,Harij,,23.7,71.9,,
3355,IN,21,Bolgarh,,20.1833,85.2667,,
3356,IN,16,Erandol,,20.9167,75.3333,,
3357,IN,13,Neriamangalam,,10.05,76.7833,,
3358,IN,13,Karuvarakkundu,,11.1333,76.3333,,
3359,IN,34,Nagra,,25.9,84.75,,
3360,IN,38,Mushabani,,22.5167,86.45,,
3361,IN,36,Fatehpur Chaurasi,,26.7833,80.2667,,
3362,IN,9,Rohani,,22.4167,72.4667,,
3363,IN,16,Bahirevadi,,16.2833,74.3167,,
3364,IN,10,Mitathal,,28.8667,76.1667,,
3365,IN,12,Panjhaa,,33.2472,74.4972,,
3366,IN,25,Kaveripak,,12.9,79.4667,,
3367,IN,16,Kudal,,16.0333,73.6833,,
3368,IN,19,Sakleshpur,,12.9667,75.7833,,
3369,IN,30,Itanagar,,27.1,93.6167,,
3370,IN,35,Shujalpur,,23.4,76.7167,,
3371,IN,16,Gangapur,,19.6833,75.0167,,
3372,IN,13,Vandiperiyar,,9.5833,77.0833,,
3373,IN,25,Kombai,,9.8333,77.3167,,
3374,IN,25,Palayankottai,,8.7167,77.7333,,
3375,IN,13,Pattikad,,10.55,76.3333,,
3376,IN,12,Kargil,,34.5667,76.1,,
3377,IN,19,Arsikere,,13.3139,76.2561,,
3378,IN,12,Chak Badrinath,,34.0042,74.8542,,
3379,IN,36,Sahaswan,,28.0833,78.75,,
3380,IN,23,Gangowal,,31.4,76.1167,,
3381,IN,24,Maripuriya,,25.2194,75.5558,,
3382,IN,36,Mursan,,27.5833,77.9333,,
3383,IN,25,Vikramasingapuram,,8.6667,77.3333,,
3384,IN,9,Vanji,,21.8833,73.8,,
3385,IN,9,Nanodra,,22.8333,72.2,,
3386,IN,10,Kalanaur,,28.8333,76.4,,
3387,IN,16,Kanera,,17.7167,73.9167,,
3388,IN,24,Sawar,,25.75,75.2167,,
3389,IN,12,Ramkandu,,33.2833,74.9333,,
3390,IN,2,Himayatnagar,,17.3417,78.3075,,
3391,IN,28,Uchalan,,23.0333,87.7833,,
3392,IN,24,Bas Kirtan,,28.4966,75.523,,
3393,IN,2,Tangeda,,16.6667,79.8333,,
3394,IN,16,Manor,,19.75,72.9167,,
3395,IN,25,Gettavadi,,11.6667,76.9,,
3396,IN,10,Ateli,,28.1,76.2833,,
3397,IN,24,Begun,,24.9833,75,,
3398,IN,2,Atmakur,,15.8833,78.5833,,
3399,IN,2,Chagalamarri,,14.9667,78.5833,,
3400,IN,28,Gokarna,,24.05,88.1167,,
3401,IN,16,Amaravati,,20.9333,77.75,,
3402,IN,2,Kadiri,,14.1167,78.1667,,
3403,IN,23,Dakala,,30.2167,76.3667,,
3404,IN,11,Chail,,30.9833,77.1833,,
3405,IN,23,Jodhe,,31.5833,75.3333,,
3406,IN,12,Charar-i-sharif,,33.8667,74.7667,,
3407,IN,13,Perumanseri,,8.9667,76.6167,,
3408,IN,10,Kot,,27.9667,77.2333,,
3409,IN,10,Rajaund,,29.5833,76.4833,,
3410,IN,25,Vasavasamudram,,12.5,80.1167,,
3411,IN,10,Tangoli,,30.0815,76.5853,,
3412,IN,36,Sasni,,27.7167,78.0833,,
3413,IN,16,Kagal,,16.5833,74.3167,,
3414,IN,17,Moirang,,24.5,93.7667,,
3415,IN,21,Begunia,,20.2,85.45,,
3416,IN,35,Khachrod,,23.4167,75.2833,,
3417,IN,16,Phulambri,,20.1,75.4167,,
3418,IN,35,Pipariya,,24.0135,78.1734,,
3419,IN,19,Hosadurga,,13.7981,76.2861,,
3420,IN,13,Peermade,,9.5667,76.9833,,
3421,IN,19,Ballari,,15.15,76.9333,,
3422,IN,36,Nai Nagla,,29.6658,77.2656,,
3423,IN,25,Pedda Nayakkanpalaiyam,,11.6667,78.5167,,
3424,IN,16,Konvali,,16.3,73.9667,,
3425,IN,21,Balipatna,,20.2,85.95,,
3426,IN,3,Dalgoma,,26.1,90.7833,,
3427,IN,23,Balloke,,30.3833,75.3333,,
3428,IN,23,Dera Baba Nanak,,32.0333,75.0167,,
3429,IN,36,Mohand,,30.1783,77.9058,,
3430,IN,25,Melpadi,,13.0667,79.2833,,
3431,IN,16,Ambhai,,20.4667,75.5667,,
3432,IN,36,Bilhaur,,26.85,80.0833,,
3433,IN,9,Chhala,,23.3,72.7667,,
3434,IN,3,Machkhoa,,27.3333,94.55,,
3435,IN,25,Anaimalai,,10.5833,76.9333,,
3436,IN,38,Kura,,23.5667,86.2167,,
3437,IN,28,Baidyapur,,23.1667,88.25,,
3438,IN,19,Mulbagal,,13.1667,78.4,,
3439,IN,21,Sunakhala,,19.8333,85.2833,,
3440,IN,23,Chandbaja,,30.75,74.85,,
3441,IN,23,Kishenpura,,30.9333,75.35,,
3442,IN,38,Barhi,,24.3,85.4167,,
3443,IN,2,Yapral,,17.5053,78.5425,,
3444,IN,37,Gandai,,21.6667,81.1,,
3445,IN,9,Trapaj,,21.4333,72.1167,,
3446,IN,31,Lunglei,,22.8833,92.7333,,
3447,IN,16,Savda,,21.15,75.8833,,
3448,IN,34,Nawada,,24.8833,85.5333,,
3449,IN,23,Anandpur,,31.25,76.5,,
3450,IN,16,Adi,,18.3892,72.9303,,
3451,IN,24,Didwana,,27.4,74.5667,,
3452,IN,12,Srinigar,,34.0922,74.8022,,
3453,IN,9,Bhadli,,22.0167,71.4333,,
3454,IN,24,Mala,,26.5333,75.1,,
3455,IN,19,Yadiyur,,12.9728,76.8594,,
3456,IN,36,Bachhraon,,28.9333,78.2167,,
3457,IN,19,Sadali,,13.6333,77.8667,,
3458,IN,16,,,18.975,72.8258,,
3459,IN,9,,,23.0333,72.6167,,
3460,IN,2,,,17.3753,78.4744,,
3461,IN,36,Kulpahar,,25.3167,79.65,,
3462,IN,9,Jhagadia,,21.7,73.15,,
3463,IN,18,Mairang,,25.5667,91.6333,,
3464,IN,28,,,22.5697,88.3697,,
3465,IN,2,Tadepalli,,16.4667,80.6,,
3466,IN,25,,,13.0833,80.2833,,
3467,IN,34,Mokama,,25.4,85.9167,,
3468,IN,13,,,9.9667,76.2333,,
3469,IN,21,,,20.2333,85.8333,,
3470,IN,2,Penukonda,,14.0833,77.5833,,
3471,IN,3,Gauripur,,26.0835,89.9616,,
3472,IN,25,Madhavaram,,13.1492,80.2367,,
3473,IN,21,Khallikot,,19.6167,85.0833,,
3474,IN,33,Moira,,15.6,73.8333,,
3475,IN,11,Ghat,,31.1808,77.0281,,
3476,IN,28,Sagardighi,,24.2833,88.1,,
3477,IN,36,Kasia,,26.7456,83.9197,,
3478,IN,23,,,30.9,75.85,,
3479,IN,37,Salkhan,,21.8167,82.5667,,
3480,IN,18,Mawliba,,25.55,91.1833,,
3481,IN,18,Mutah,,25.6333,92.2833,,
3482,IN,23,Bankhandi,,30.9,75.0833,,
3483,IN,24,Sinsini,,27.3667,77.2833,,
3484,IN,28,Raghabpur,,22.4181,88.3425,,
3485,IN,23,Dehlon,,30.75,75.85,,
3486,IN,23,Nurpur,,31.1667,76.4833,,
